BLDG_USAGE,NAME,BLDG_CODE,PRIMARY_ADDRESS,POSTAL_CODE,BLDG_UID,CONSTR_STATUS,LAT,LONG
Other,Telus Hub,TELS,5895 Berton Avenue,V6T 1W5,VBL10179,Complete,-123.235473,49.255225
Operations,Building Operations Storage Shed,BOSS,2214 Lower Mall,V6T 1Z4,VBL10207,Complete,-123.254414,49.262185
Parking,Rose Garden Parkade,PARR,6278 NW Marine Drive,V6T 1Z1,VBL10054,Complete,-123.256303,49.269111
Academic,Leon and Thea Koerner University Centre,UCEN,6331 Crescent Road,V6T 1Z2,VBL10093,Complete,-123.257217,49.268895
Research,Pulp and Paper Centre,PAPC,2385 East Mall,V6T 1Z4,VBL10045,Complete,-123.247568,49.261416
Academic,Walter C. Koerner Library,KLIB,1958 Main Mall,V6T 1Z2,VBL10154,Complete,-123.255125,49.26665
Academic,Hebb Building,HEBB,2045 East Mall,V6T 1Z1,VBL10047,Complete,-123.251663,49.266129
Services,Rodney Graham Millennium Sculpture Pavilion,RSCU,1940 Main Mall,V6T 1Z1,VBL10051,Complete,-123.2545,49.267524
Other,Carey Centre,CRYC,5920 Iona Drive,V6T 1J6,VBL10257,Complete,-123.248908,49.27152
Academic,Frank Forward Building,FORW,6350 Stores Road,V6T 1Z4,VBL10044,Complete,-123.251692,49.26169
Housing,Stirling House,STIR,6080 Iona Drive,V6T 0A4,VBL10289,Complete,-123.252469,49.270476
Housing,Wyndham Hall,WYND,5683 Hampton Place,V6T 2H3,VBL10293,Complete,-123.234172,49.259327
StudentHousing,Acadia Park Residence - President's Row,APRP,5501 Presidents Row,V6T 1L5,VBL10295,Complete,-123.238984,49.265326
Research,TRIUMF - Compressor Building,TRF05,"4004 Wesbrook Mall, Building 14",V6T 2A3,VBL10027,Complete,-123.229909,49.246664
Research,TRIUMF - ISAC 1,TRF09,"4004 Wesbrook Mall, Building 6",V6T 2A3,VBL10031,Complete,-123.229483,49.247869
Research,TRIUMF - ISAC 2,TRF10,"4004 Wesbrook Mall, Building 5",V6T 2A3,VBL10032,Complete,-123.2294,49.248293
Research,"TRIUMF - Offices, Laboratory & Workshops",TRF14,4004 Wesbrook Mall,V6T 2A3,VBL10132,Complete,-123.230598,49.247655
Services,Ambulance Station,AMBS,2333 Wesbrook Mall,V6T 1Z3,VBL10186,Complete,-123.243597,49.263243
Housing,Magnolia House,MAGN,3565 Wesbrook Mall,V6S 0H1,VBL10191,Complete,-123.233539,49.251541
Housing,TRIUMF House,TRFH,5835 Thunderbird Boulevard,V6T 2L6,VBL10320,Complete,-123.241171,49.262025
Other,University Hill Secondary School,UHIL,3228 Ross Drive,V6S 0C6,VBL10242,Complete,-123.238731,49.254268
Services,Public Safety Building - RCMP + Fire,PSAB,2990 Wesbrook Mall,V6T 2B7,VBL10046,Complete,-123.238113,49.258943
Housing,Ultima,ULTM,3479 Wesbrook Mall,V6S 0B7,VBL10340,Complete,-123.234399,49.25274
Research,TRIUMF - Trailer RR,TRF26,"4004 Wesbrook Mall, Building 16",V6T 2A3,VBL10057,Complete,-123.230834,49.247137
Research,TRIUMF - Trailer GG,TRF20,"4004 Wesbrook Mall, Building 26",V6T 2A3,VBL10063,Complete,-123.229348,49.246197
Housing,Evolve,EVLV,3518 Wesbrook Mall,V6T 1W5,VBL10422,UnderConstruction,-123.233231,49.252338
Housing,Somerset,SOMS,6360 Larkin Drive,V6T 2K5,VBL10147,Complete,-123.24813,49.256504
Housing,Reflections,REFL,6279 Eagles Drive,V6T 2K7,VBL10148,Complete,-123.246886,49.258252
Housing,Promontory,PROM,2688 West Mall,V6T 2J8,VBL10149,Complete,-123.247569,49.25595
Housing,Nine on the Park,NINE,6298 Eagles Drive,V6T 0A3,VBL10158,Complete,-123.247034,49.259327
Housing,Tamarack House,TAMK,6230 Thunderbird Boulevard,V6T 0C3,VBL10159,Complete,-123.246328,49.259596
Housing,Dahlia House,DAHL,3515 Wesbrook Mall,V6S 0H2,VBL10096,Complete,-123.233927,49.252149
Housing,Sandringham,SAND,5650 Hampton Place,V6T 2G5,VBL10106,Complete,-123.233544,49.257847
Housing,Sumac House,SUMA,6395 Hawthorn Lane,V6T 0C1,VBL10041,Complete,-123.250057,49.258279
Housing,Azalea House,AZAL,6388 Hawthorn Lane,V6T 0B9,VBL10133,Complete,-123.249486,49.257895
Housing,Clement's Green,CLEM,6268 Eagles Drive,V6T 0A2,VBL10143,Complete,-123.245831,49.25822
StudentHousing,Green College - Kitchen/Laundry,GRN2,"6201 Cecil Green Park Road, Building 9",V6T 1Z1,VBL10434,Complete,-123.255578,49.270989
Housing,Cascara House,CSCA,6385 Hawthorn Lane,V6T 0C1,VBL10347,Complete,-123.249667,49.258468
Operations,Materials Recovery Facility,MARF,6055 Nurseries Road,V6T 1W5,VBL10203,Complete,-123.228539,49.245784
Other,Old Barn Community Centre,OBCC,6308 Thunderbird Boulevard,V6T 1Z4,VBL10157,Complete,-123.248269,49.258911
Administrative,Technology Enterprise Facility 3,TEF3,6190 Agronomy Road,V6T 1Z3,VBL10346,Complete,-123.246299,49.261156
Services,UBC Hospital - Purdy Pavilion,PPAV,2221 Wesbrook Mall,V6T 1Z9,VBL10388,Complete,-123.245959,49.26326
Housing,St. Mark's Duplexes,STMD,5902 Chancellor Boulevard,V6T 0A1,VBL10279,Complete,-123.249405,49.272739
StudentHousing,MBA House,MBAH,3385 Wesbrook Mall,V6T 1Z4,VBL10403,Complete,-123.235169,49.253876
StudentHousing,Acadia Park Residence - Fairview Place,APR3,5501 Fairview Place,V6T 2E2,VBL10437,Complete,-123.236838,49.263269
Athletics,UBC Tennis Centre,TENN,6160 Thunderbird Boulevard,V6T 1Z3,VBL10090,Complete,-123.243836,49.259487
StudentHousing,Acadia Park Residence - Yalta Place,APR6,5501 Yalta Place,V6T 1L7,VBL10438,Complete,-123.238234,49.26414
StudentHousing,Acadia Park Residence - Pearkes Lane,APR4,2500 Pearkes Lane,V6T 2C4,VBL10440,Complete,-123.239427,49.264274
Administrative,Gerald McGavin Building,GMCG,2386 East Mall,V6T 1Z3,VBL10043,Complete,-123.246762,49.261791
Housing,Legacy,LGCY,6333 Larkin Drive,V6T 0A7,VBL10160,Complete,-123.248008,49.257463
Housing,The Balmoral,BALM,5615 Hampton Place,V6T 2H1,VBL10175,Complete,-123.232724,49.258489
StudentHousing,Walter H. Gage Residence - East Tower,WGR4,"5959 Student Union Boulevard, Building 3",V6T 1K2,VBL10393,Complete,-123.249158,49.269645
StudentHousing,Walter H. Gage Residence - North Tower,WGR5,"5959 Student Union Boulevard, Building 4",V6T 1K2,VBL10394,Complete,-123.250029,49.269841
StudentHousing,Walter H. Gage Residence - South Tower,WGR6,"5959 Student Union Boulevard, Building 2",V6T 1K2,VBL10395,Complete,-123.24972,49.2692
Research,TRIUMF - Nina Storage Shelter,TRF13,"4004 Wesbrook Mall, Building 23",V6T 2A3,VBL10034,Complete,-123.230435,49.246
Research,TRIUMF - Machine Shop Materials,TRF12,"4004 Wesbrook Mall, Building 24",V6T 2A3,VBL10061,Complete,-123.22983,49.246383
Research,TRIUMF - Liquid Helium Storage,TRF11,"4004 Wesbrook Mall, Building 18",V6T 2A3,VBL10033,Complete,-123.230786,49.246923
Research,TRIUMF - Hazardous Storage,TRF08,"4004 Wesbrook Mall, Building 13",V6T 2A3,VBL10030,Complete,-123.229328,49.246732
Research,TRIUMF - Accelerator,TRF02,"4004 Wesbrook Mall, Building 7",V6T 2A3,VBL10022,Complete,-123.229286,49.247272
Academic,Earth and Ocean Sciences,EOS,6339 Stores Road,V6T 1Z4,VBL10001,Complete,-123.25249,49.26251
Services,UBC Botanical Garden - Garden Pavilion,BOT4,"6804 SW Marine Drive, Building 5",V6T 1Z4,VBL10003,Complete,-123.247123,49.253259
Services,UBC Botanical Garden - Scholar's Retreat,BOT5,6380 Stadium Road,V6T 1Z4,VBL10004,Complete,-123.24692,49.254985
Operations,UBC Botanical Garden - Workshop (Trailer),BOT6,6450 Stadium Road,V6T 1Z4,VBL10005,Complete,-123.24764,49.254769
Services,UBC Botanical Garden - Admin/Campbell Building,BOT2,"6804 SW Marine Drive, Building 3",V6T 1Z4,VBL10006,Complete,-123.251116,49.253896
Services,UBC Botanical Garden - Reception Centre,BOT3,"6804 SW Marine Drive, Building 2",V6T 1Z4,VBL10008,Complete,-123.251275,49.254155
Operations,UBC Farm - Greenhouse 2,FRM5,"3461 Ross Drive, Building 4",V6T 1W5,VBL10012,Complete,-123.239002,49.251043
Academic,UBC Farm - Farm Centre,FRM1,"3461 Ross Drive, Building 1",V6T 1W5,VBL10014,Complete,-123.240127,49.251583
Operations,UBC Farm - Children's Greenhouse,FRM3,"3461 Ross Drive, Building 2",V6T 1W5,VBL10015,Complete,-123.239793,49.251477
Operations,Environmental Services Facility - Waste Processing & Storage,ENV7,"6025 Nurseries Road, Building 6",V6T 1W5,VBL10019,Complete,-123.22872,49.243446
Academic,Frederic Lasserre Building,LASR,6333 Memorial Road,V6T 1Z2,VBL10042,Complete,-123.255979,49.267591
StudentHousing,Fraternity Village,FRAT,2880 Wesbrook Mall,V6T 2J3,VBL10404,Complete,-123.238849,49.259653
Housing,Granite Terrace,GRT1,3233 Wesbrook Mall,V6S 0B4,VBL10164,Complete,-123.236997,49.254831
Housing,Corus,CORS,5989 Walter Gage Road,V6T 0A8,VBL10303,Complete,-123.249347,49.270653
Housing,Westpoint,WSPT,6005 Walter Gage Road,V6T 0B3,VBL10305,Complete,-123.250471,49.270242
StudentHousing,Panhellenic House,PANH,2770 Wesbrook Mall,V6T 2B7,VBL10313,Complete,-123.239567,49.260104
Housing,Larkspur House,LARK,3428 Wesbrook Mall,V6S 0G9,VBL10018,Complete,-123.234055,49.25356
Housing,Vista Point,VIST,5828 Thunderbird Boulevard,V6T 0B8,VBL10011,Complete,-123.240272,49.261694
Housing,Keenleyside,KEEN,5788 Birney Avenue,V6S 0A2,VBL10040,Complete,-123.233169,49.253967
Research,TRIUMF - ARIEL,TRF01,"4004 Wesbrook Mall, Building 4",V6T 2A3,VBL10025,Complete,-123.229976,49.247701
Research,TRIUMF - Badge Room,TRF04,"4004 Wesbrook Mall, Building 2",V6T 2A3,VBL10026,Complete,-123.230295,49.247498
Housing,Esse,ESSE,1863 Wesbrook Mall,V6T 2J7,VBL10280,Complete,-123.24831,49.271197
Housing,The Bristol,BRIS,5735 Hampton Place,V6T 2G8,VBL10286,Complete,-123.235006,49.258841
Housing,The Regency,REGE,5639 Hampton Place,V6T 2H6,VBL10287,Complete,-123.232862,49.259107
Housing,Argyll House East,ARGE,5958 Iona Drive,V6T 2L2,VBL10288,Complete,-123.249551,49.271406
StudentHousing,tə šxʷhəleləm̓s tə k̓ʷaƛ̓kʷəʔaʔɬ (Saltwater) - q̓əlɬaləməcən leləm̓ (Orca),QLCN,5965 Student Union Boulevard,V6T 1K2,VBL10381,Complete,-123.249653,49.268822
Services,UBC Bookstore,BOOK,6200 University Boulevard,V6T 1Z4,VBL10065,Complete,-123.250592,49.264988
Commons,Brock Commons South,BRCS,6180 Walter Gage Road,V6T 1K2,VBL10424,UnderConstruction,-123.252378,49.269067
Services,Third Space,THSP,6363 Biological Sciences Road,V6T 1Z4,VBL10447,UnderConstruction,-123.253241,49.263008
Services,Green College - D Commons,GRN8,"6201 Cecil Green Park Road, Building 3",V6T 1Z1,VBL10435,Complete,-123.256687,49.271298
Services,Green College - D Graham House,GRN7,"6201 Cecil Green Park Road, Building 4",V6T 1Z1,VBL10189,Complete,-123.256266,49.27128
Academic,Library PARC@UBC,PARC,6049 Nurseries Road,V6T 1W5,VBL10351,Complete,-123.229708,49.245082
StudentHousing,Exchange Residence,EXCH,5960 Student Union Boulevard,V6T 2C9,VBL10370,Complete,-123.247692,49.268567
Services,Child Care Services - Barish,MCC2,2835 Revelstoke Court,V6T 1S1,VBL10373,Complete,-123.23552,49.260465
Parking,University Boulevard Lot,ULOT,6131 University Boulevard,V6T 1Z3,VBL10355,Complete,-123.248944,49.26672
Services,St. John Hospice,STJN,6389 Stadium Road,V6T 1Z4,VBL10156,Complete,-123.247358,49.25551
Services,Child Care Services - Willow,MCC3,2845 Revelstoke Court,V6T 1S1,VBL10375,Complete,-123.235327,49.260828
Housing,Greenwood Commons,GRWC,2660 Wesbrook Mall,V6T 0A5,VBL10010,Complete,-123.240072,49.260948
Commercial,Wesbrook Professional Centre,WPRO,3313 Shrum Lane,V6S 0C8,VBL10166,Complete,-123.236356,49.254484
Housing,Oakwood Residences,OAKR,3383 Ross Drive,V6S 0L1,VBL10255,Complete,-123.238524,49.251654
Housing,Georgia Point,GEOP,3381 Ross Drive,V6S 0L2,VBL10247,Complete,-123.239208,49.251948
Housing,The Chatham,CHAT,5775 Hampton Place,V6T 2G6,VBL10254,Complete,-123.236175,49.258692
Services,Nitobe Memorial Garden,NITO,1895 Lower Mall,V6T 1Z2,VBL10230,Complete,-123.25919,49.266169
StudentHousing,Place Vanier Residence - Margaret Mackenzie House,VNR07,"1935 Lower Mall, Building 12",V6T 1X1,VBL10326,Complete,-123.259143,49.265692
StudentHousing,Place Vanier Residence - Phyllis Ross House,VNR09,"1935 Lower Mall, Building 11",V6T 1X1,VBL10368,Complete,-123.259614,49.265329
StudentHousing,Place Vanier Residence - Aldyen Hamber House,VNR01,"1935 Lower Mall, Building 13",V6T 1X1,VBL10325,Complete,-123.258795,49.265266
StudentHousing,Place Vanier Residence - Dorothy Mawdsley House,VNR04,"1935 Lower Mall, Building 10",V6T 1X1,VBL10267,Complete,-123.259505,49.264868
StudentHousing,Place Vanier Residence - Korea House,VNR06,"1935 Lower Mall, Building 9",V6T 1X1,VBL10269,Complete,-123.26001,49.264613
StudentHousing,Place Vanier Residence - Tec De Monterrey House,VNR12,"1935 Lower Mall, Building 8",V6T 1X1,VBL10367,Complete,-123.259538,49.264041
StudentHousing,Place Vanier Residence - Cariboo House,VNR02,"1935 Lower Mall, Building 6",V6T 1X1,VBL10360,Complete,-123.258968,49.263743
StudentHousing,Place Vanier Residence - Kootenay House,VNR05,"1935 Lower Mall, Building 3",V6T 1X1,VBL10268,Complete,-123.257632,49.263879
StudentHousing,Place Vanier Residence - Robson House,VNR10,"1935 Lower Mall, Building 7",V6T 1X1,VBL10358,Complete,-123.258426,49.263907
Operations,Campus Energy Centre,CEC,6130 Agronomy Road,V6T 1Z3,VBL10339,Complete,-123.245083,49.261648
Research,Building 3800 Wesbrook Mall,3800,3800 Wesbrook Mall,V6S 2L9,VBL10236,Complete,-123.230294,49.250196
StudentHousing,tə šxʷhəleləm̓s tə k̓ʷaƛ̓kʷəʔaʔɬ (Saltwater) - sɬewət̕ leləm̓ (Herring),SLWT,1945 Wesbrook Mall,V6T 1K2,VBL10383,Complete,-123.247923,49.269589
StudentHousing,tə šxʷhəleləm̓s tə k̓ʷaƛ̓kʷəʔaʔɬ (Saltwater) - təməs leləm̓ (Sea Otter),TMES,1885 Wesbrook Mall,V6T 1K2,VBL10384,Complete,-123.248031,49.270168
Research,TRIUMF - Accelerator Trailer,TRF03,"4004 Wesbrook Mall, Building 15",V6T 2A3,VBL10023,Complete,-123.230129,49.246851
Research,TRIUMF - Equipment Marque,TRF06,"4004 Wesbrook Mall, Building 20",V6T 2A3,VBL10028,Complete,-123.230714,49.246738
Research,TRIUMF - Trailer PP,TRF24,"4004 Wesbrook Mall, Building 25",V6T 2A3,VBL10053,Complete,-123.229145,49.246359
Research,TRIUMF - Institute of Advanced Medical Isotopes (IAMI),TRF29,"4004 Wesbrook Mall, Building 28",V6T 2A3,VBL10425,UnderConstruction,-123.228275,49.246796
Operations,University Services Building,USB,2329 West Mall,V6T 1Z4,VBL10150,Complete,-123.253785,49.2613
Services,Arts Student Centre,ARTC,1860 East Mall,V6T 1Z1,VBL10426,Complete,-123.253078,49.269288
Services,UBC Botanical Garden - Alpine Garden Greenhouse,BOT8,"6804 SW Marine Drive, Building 6",V6T 1Z4,VBL10431,Complete,-123.245842,49.253645
Services,UBC Botanical Garden - Ting Lookout,BOT7,"6804 SW Marine Drive, Building 4",V6T 1Z4,VBL10007,Complete,-123.251644,49.254077
Parking,North Parkade,PARN,6115 Student Union Boulevard,V6T 1Z1,VBL10234,Complete,-123.250918,49.269031
Academic,Chemistry,CHEM,2036 Main Mall,V6T 1Z1,VBL10328,Complete,-123.252665,49.265817
StudentHousing,Walter H. Gage Residence - West Coast Suites (Gage Court),WGR3,5961 Student Union Boulevard,V6T 1K2,VBL10396,Complete,-123.248586,49.269593
Academic,First Nations Longhouse,FNLH,1985 West Mall,V6T 1Z2,VBL10386,Complete,-123.257185,49.265561
Academic,The Leonard S. Klinck Building,LSK,6356 Agricultural Road,V6T 1Z2,VBL10252,Complete,-123.255334,49.265432
Research,TRIUMF - Plant Storage,TRF15,"4004 Wesbrook Mall, Building 27",V6T 2A3,VBL10035,Complete,-123.22963,49.246011
Academic,Plant Science Field Station,PLS1,"2613 West Mall, Building 2",V6T 1Z4,VBL10433,Complete,-123.249481,49.256307
Academic,Plant Science Garage,PLS2,"2613 West Mall, Building 1",V6T 1Z4,VBL10432,Complete,-123.249256,49.25644
Housing,The Pemberley,PEMB,5605 Hampton Place,V6T 2H2,VBL10205,Complete,-123.232193,49.258013
Administrative,FERIC,FERC,2601 East Mall,V6T 1Z4,VBL10020,Complete,-123.244537,49.257752
Other,Carey Hall,CRYH,1815 Wesbrook Mall,V6T 1J6,VBL10208,Complete,-123.248532,49.271737
Other,AYO Smart Home,AYOH,5935 Agronomy Road,V6T 1Z3,VBL10294,Complete,-123.243407,49.263038
StudentHousing,Acadia Park Residence - Montgomery Place,APR2,5501 Montgomery Place,V6T 2C8,VBL10439,Complete,-123.238725,49.264815
Housing,St. James House,STJA,5835 Hampton Place,V6T 2G2,VBL10115,Complete,-123.237199,49.25822
StudentHousing,Acadia Park Residence - Melfa Lane,APR1,2500 Melfa Lane,V6T 2C6,VBL10258,Complete,-123.2371,49.264247
Research,TRIUMF - Shipping / Workshop,TRF28,6095 Nurseries Road,V6T 2A3,VBL10059,Complete,-123.230068,49.246246
Research,TRIUMF - Trailer Q,TRF25,"4004 Wesbrook Mall, Building 19",V6T 2A3,VBL10056,Complete,-123.23062,49.24682
Research,TRIUMF - Trailer LL,TRF22,"4004 Wesbrook Mall, Building 17",V6T 2A3,VBL10050,Complete,-123.230972,49.246893
Research,TRIUMF - Trailer HH & FF,TRF21,"4004 Wesbrook Mall, Building 3",V6T 2A3,VBL10049,Complete,-123.230643,49.248316
Research,TRIUMF - Trailer A,TRF18,"4004 Wesbrook Mall, Building 21",V6T 2A3,VBL10038,Complete,-123.230325,49.246586
Other,Hillel House - Diamond Foundation Centre for Jewish Campus Life,HILL,6145 Student Union Boulevard,V6T 1Z1,VBL10361,Complete,-123.251324,49.268604
Housing,Crescent West,CRSW,5879 Gray Avenue,V6S 0A9,VBL10219,Complete,-123.232799,49.253131
Housing,Westchester,WSTR,2598 West Mall,V6T 2J9,VBL10220,Complete,-123.249109,49.257373
Housing,Gardenia House,GARD,6309 Larkin Drive,V6T 0C2,VBL10224,Complete,-123.248967,49.25873
Housing,Journey,JOUR,6328 Larkin Drive,V6T 2K2,VBL10225,Complete,-123.247481,49.258036
Housing,Logan Lane,LOGN,6226 Logan Lane,V6T 2K9,VBL10226,Complete,-123.245728,49.258901
Other,Reconciliation Chapel,CHPL,6030 Chancellor Boulevard,V6T 1X3,VBL10392,Complete,-123.252272,49.271559
Other,St. Mark's College,STMK,5935 Iona Drive,V6T 1J7,VBL10118,Complete,-123.249169,49.272277
Research,FPInnovations,FPIN,2665 East Mall,V6T 1Z4,VBL10021,Complete,-123.244468,49.256786
Housing,Yu,YU,5955 Birney Avenue,V6S 0C5,VBL10167,Complete,-123.23605,49.25356
Operations,UBC Exchange,TRAN,1985 Wesbrook Mall,V6T 2C9,VBL10354,Complete,-123.247429,49.267759
Housing,Mundell House,MUNH,6038 Birney Avenue,V6S 0L4,VBL10213,Complete,-123.236053,49.252946
Academic,Indian Residential School History and Dialogue Centre (IRSHDC),IRSC,1985 Learners' Walk,V6T 1Z1,VBL10109,Complete,-123.253741,49.266994
Other,Wesbrook Community Centre,WCOM,3335 Webber Lane,V6S 0H3,VBL10168,Complete,-123.237712,49.254008
Athletics,National Soccer Development Centre,NSDC,3065 Wesbrook Mall,V6T 1Z3,VBL10091,Complete,-123.239979,49.257149
Academic,Chan Gunn Pavilion,GUNN,2553 Wesbrook Mall,V6T 1Z3,VBL10092,Complete,-123.241655,49.260939
Housing,Nobel House,NOBL,3655 Wesbrook Mall,V6S 0G6,VBL10379,Complete,-123.233205,49.25084
Operations,Bioenergy Research and Demonstration Facility,BRDF,2337 Lower Mall,V6T 1Z4,VBL10069,Complete,-123.254521,49.260296
Housing,The Mews,MEWS,3333 Wesbrook Mall,V6S 0E3,VBL10165,Complete,-123.235711,49.254541
Housing,Focal,FOCL,6111 University Boulevard,V6T 0C7,VBL10232,Complete,-123.248432,49.266181
Housing,Axis,AXIS,6090 Iona Drive,V6T 0B6,VBL10314,Complete,-123.252233,49.270001
Housing,Pine House,PINE,3588 Ross Drive,V6S 0K3,VBL10321,Complete,-123.234274,49.251443
Housing,Cypress House,CYPR,5988 Gray Avenue,V6S 0K4,VBL10322,Complete,-123.23469,49.25194
Services,Child Care Services - Saw-Whet,MCC1,2850 Salmo Court,V6T 1S1,VBL10372,Complete,-123.236502,49.260393
Services,Robert H. Lee Alumni Centre,ALUM,6163 University Boulevard,V6T 1Z1,VBL10256,Complete,-123.249909,49.265946
Services,Food and Beverage Innovation Centre,FBIC,2220 East Mall,V6T 1Z3,VBL10448,PreConstruction,-123.248219,49.263884
Services,Marine Drive Residence - 3 Commonsblock,MAR3,"2205 Lower Mall, Building 3",V6T 1Z4,VBL10088,Complete,-123.256859,49.26141
StudentHousing,Marine Drive Residence - 4,MAR4,"2205 Lower Mall, Building 4",V6T 1Z4,VBL10217,Complete,-123.255361,49.261563
StudentHousing,Marine Drive Residence - 5,MAR5,"2205 Lower Mall, Building 5",V6T 1Z4,VBL10089,Complete,-123.254905,49.261115
StudentHousing,Marine Drive Residence - 6,MAR6,"2205 Lower Mall, Building 6",V6T 1Z4,VBL10218,Complete,-123.256062,49.261079
StudentHousing,Marine Drive Residence - 1 Simon Lee,MAR1,"2205 Lower Mall, Building 1",V6T 1Z4,VBL10319,Complete,-123.255876,49.262001
Housing,Eton - Apartment,ETN2,5687 Gray Avenue,V6S 0K7,VBL10136,Complete,-123.231376,49.253202
Services,Child Care Services - Sitka/Discovery,CCS6,5620 Osoyoos Crescent,V6T 2E6,VBL10140,Complete,-123.234519,49.259762
Services,Child Care Services - Summer of 73/Lilliput,CCS7,5690 Osoyoos Crescent,V6T 2E6,VBL10141,Complete,-123.23547,49.25945
Services,Child Care Services - Tillicum/Canada Goose,CCS8,5660 Osoyoos Crescent,V6T 2E6,VBL10142,Complete,-123.234985,49.259596
Academic,Beaty Biodiversity Centre,BETY,2212 Main Mall,V6T 1Z4,VBL10086,Complete,-123.250334,49.263425
Academic,Centre for Comparative Medicine,CCM,4145 Wesbrook Mall,V6T 1W5,VBL10017,Complete,-123.233554,49.246819
Research,TRIUMF - Stores Building,TRF17,"4004 Wesbrook Mall, Building 22",V6T 2A3,VBL10037,Complete,-123.230587,49.246544
Academic,Biological Sciences Building,BIOL,6270 University Boulevard,V6T 1Z4,VBL10409,Complete,-123.251339,49.264469
Housing,Spirit,SPRT,3478 Wesbrook Mall,V6S 0B6,VBL10238,Complete,-123.233615,49.252986
Academic,Pharmaceutical Sciences Building,PHRM,2405 Wesbrook Mall,V6T 1Z3,VBL10110,Complete,-123.243346,49.262279
Operations,Pump House,PUMP,6355 University Boulevard,V6T 1Z2,VBL10420,Complete,-123.254161,49.264621
StudentHousing,tə šxʷhəleləm̓s tə k̓ʷaƛ̓kʷəʔaʔɬ (Saltwater) - sqimək̓ʷ leləm̓ (Octopus),SQMK,1875 Wesbrook Mall,V6T 1K2,VBL10382,Complete,-123.248315,49.270523
Services,UBC Counselling Services Annex,CNSL,1930 East Mall,V6T 1Z1,VBL10421,Complete,-123.25199,49.268227
Services,Acadia Commonsblock,ACOM,"2707 Tennis Crescent, Building 1",V6T 2E5,VBL10185,Complete,-123.237352,49.262634
Services,Totem Park Residence - Commonsblock,TPR1,"2525 West Mall, Building 1",V6T 1W9,VBL10231,Complete,-123.252981,49.25804
StudentHousing,Marine Drive Residence - 2,MAR2,"2205 Lower Mall, Building 2",V6T 1Z4,VBL10317,Complete,-123.256765,49.261877
StudentHousing,tə šxʷhəleləm̓s tə k̓ʷaƛ̓kʷəʔaʔɬ (Saltwater) - qʷta:yθən leləm̓ (Sturgeon),QTYN,"5955 Student Union Boulevard, Building 1",V6T 1K2,VBL10378,Complete,-123.248518,49.269217
Administrative,Technology Enterprise Facility 4,TEF4,2425 Health Sciences Mall,V6T 1Z3,VBL10429,PreConstruction,-123.245773,49.261291
Administrative,UBC Gateway Building,GATE,5955 University Boulevard,V6T 0C4,VBL10442,UnderConstruction,-123.246487,49.266758
Academic,George Cunningham Building,CUNN,2146 East Mall,V6T 1Z3,VBL10039,Complete,-123.248732,49.264787
Housing,BCR9,BCR9,5768 Gray Avenue,V6S 0A9,VBL10443,PreConstruction,-123.232318,49.2525
Academic,SBME,SBME,6088 University Boulevard,V6T 1Z3,VBL10444,UnderConstruction,-123.24731,49.265635
Housing,Sitka,SITK,5868 Agronomy Road,V6T 0B5,VBL10112,Complete,-123.241911,49.262882
Athletics,Recreation Centre North,RCN,6140 Student Union Boulevard,V6T 1Z1,VBL10441,UnderConstruction,-123.25042,49.267983
Commons,Brock Commons North,BRCN,6177 Walter Gage Road,V6T 1K2,VBL10423,UnderConstruction,-123.252629,49.269574
Athletics,Gerald McGavin UBC Rugby Centre,RUGC,2765 Wesbrook Mall,V6T 1Z3,VBL10412,Complete,-123.241314,49.259582
Commons,Ponderosa Commons East - Audain Art Centre/Spruce House,PCE,6398 University Boulevard,V6T 1Z4,VBL10311,Complete,-123.25441,49.263781
Commons,Ponderosa Commons North - Oak/Cedar House,PCN,6445 University Boulevard,V6T 1Z2,VBL10312,Complete,-123.256151,49.264092
Academic,Earth Sciences Building,ESB,2207 Main Mall,V6T 1Z4,VBL10072,Complete,-123.252187,49.263067
Academic,The Brimacombe Building,BRIM,2355 East Mall,V6T 1Z4,VBL10066,Complete,-123.248073,49.26186
Services,AMS Nest,NEST,6133 University Boulevard,V6T 1Z1,VBL10407,Complete,-123.249808,49.266562
Athletics,UBC Aquatic Centre,AQUA,6080 Student Union Boulevard,V6T 1Z1,VBL10071,Complete,-123.248595,49.267789
Commons,"Orchard Commons - Vantage College, Bartlett/Braeburn House",ORCH,6363 Agronomy Road,V6T 1Z4,VBL10013,Complete,-123.251329,49.260462
StudentHousing,Totem Park Residence - c̓əsnaʔəm House,TPR7,"2525 West Mall, Building 7",V6T 1W9,VBL10105,Complete,-123.251637,49.256811
Housing,Pacific,PACC,5928 Birney Avenue,V6S 0B5,VBL10169,Complete,-123.234987,49.253278
Athletics,UBC Baseball Rose Indoor Training Centre,BTC,3085 Wesbrook Mall,V6T 1Z4,VBL10237,Complete,-123.239512,49.256214
Housing,Virtuoso,VIRT,3581 Ross Drive,V6S 0K5,VBL10345,Complete,-123.233967,49.250732
Housing,Central,CNTL,6015 University Boulevard,V6T 0C4,VBL10356,Complete,-123.247223,49.266336
Housing,Village Square,VSQU,3338 Webber Lane,V6S 0J7,VBL10170,Complete,-123.236379,49.25396
Housing,Webber House,WEBH,3388 Webber Lane,V6S 0J8,VBL10171,Complete,-123.236801,49.25329
Commons,Brock Commons East - Tallwood House,BRCE,"6088 Walter Gage Road, Building 1",V6T 1Z1,VBL10212,Complete,-123.251314,49.26951
Commons,Ponderosa Commons West - Arbutus/Maple House,PCW,6488 University Boulevard,V6T 1Z4,VBL10310,Complete,-123.25562,49.263441
Academic,"Food, Nutrition and Health Building",FNH,2205 East Mall,V6T 1Z4,VBL10082,Complete,-123.249744,49.264014
Services,Child Care Services - Little Goslings/Coho,CCS3,5590 Osoyoos Crescent,V6T 2E6,VBL10274,Complete,-123.234048,49.25992
Services,Child Care Services - Little Raven/Pacific Spirit,CCS4,5580 Osoyoos Crescent,V6T 2E6,VBL10275,Complete,-123.233802,49.260216
Services,Child Care Services - Sandpiper/Auklet,CCS5,5615 Osoyoos Crescent,V6T 1S1,VBL10276,Complete,-123.234743,49.26026
Housing,Coast - Apartment West,COSW,6093 Iona Drive,V6T 0B2,VBL10297,Complete,-123.253207,49.270742
Housing,Coast - Apartment East,COSE,6063 Iona Drive,V6T 0B1,VBL10300,Complete,-123.252555,49.271045
Housing,Wordsworth - Highrise,WSW1,6138 Birney Avenue,,VBL10445,PreConstruction,-123.236845,49.252441
Housing,Wordsworth - Townhouses,WSW2,"6138 Birney Avenue, Building 1",,VBL10446,PreConstruction,-123.237199,49.251943
Housing,The Residences at Nobel Park - Townhouses,REN2,3483 Ross Drive,V6S 0L3,VBL10352,Complete,-123.236394,49.250915
Housing,The Residences at Nobel Park - Apartment,REN1,3533 Ross Drive,V6S 0L3,VBL10353,Complete,-123.235007,49.250613
Housing,Chancellor House - Duplexes,CHOD,6002 Chancellor Boulevard,V6T 1E7,VBL10385,Complete,-123.251856,49.27198
Housing,Chancellor House - Apartment,CHOA,6015 Iona Drive,V6T 2J4,VBL10387,Complete,-123.251437,49.27156
Housing,Sail - Building 2,SAL2,5981 Gray Avenue,V6S 0G1,VBL10390,Complete,-123.235208,49.252624
Operations,Lower Mall Research Station,LMRS,2259 Lower Mall,V6T 1Z4,VBL10100,Complete,-123.255524,49.260553
StudentHousing,Totem Park Residence - Dene/Nootka House,TPR2,"2525 West Mall, Building 2",V6T 1W9,VBL10126,Complete,-123.253225,49.258715
StudentHousing,Totem Park Residence - Haida/Salish House,TPR6,"2525 West Mall, Building 6",V6T 1W9,VBL10002,Complete,-123.252622,49.257476
StudentHousing,Totem Park Residence - Kwakiutl/Shuswap House,TPR3,"2525 West Mall, Building 3",V6T 1W9,VBL10127,Complete,-123.252324,49.259362
StudentHousing,Totem Park Residence - həm̓ləsəm̓ House,TPR5,"2525 West Mall, Building 5",V6T 1W9,VBL10128,Complete,-123.251195,49.258604
StudentHousing,Totem Park Residence - q̓ələχən House,TPR4,"2525 West Mall, Building 4",V6T 1W9,VBL10016,Complete,-123.251545,49.259167
Housing,West Hampstead - Townhouses,WHM2,"5760 Hampton Place, Building 1",V6T 2G1,VBL10398,Complete,-123.234582,49.257507
Housing,Coast - Duplexes,COSD,6098 Chancellor Boulevard,V6T 1E7,VBL10399,Complete,-123.25321,49.271317
Housing,Thames Court - Building 1,THAC1,"5880 Hampton Place, Building 1",V6T 2E9,VBL10417,Complete,-123.235775,49.257255
Housing,Conservatory - Townhouses,CSY1,"5608 Berton Avenue, Building 1",V6S 2L2,VBL10428,PreConstruction,-123.232103,49.255839
Housing,Conservatory - Highrise,CSY2,5608 Berton Avenue,V6S 2L2,VBL10427,PreConstruction,-123.231514,49.256042
Academic,P. A. Woodward Instructional Resources Centre,IRC,2194 Health Sciences Mall,V6T 1Z3,VBL10102,Complete,-123.246848,49.264822
Services,UBC Hospital - Koerner Pavilion,KPAV,2211 Wesbrook Mall,V6T 1Z3,VBL10318,Complete,-123.245991,49.264151
Housing,The Wesbrook - Townhouses,WSB2,"5838 Berton Avenue, Building 1",V6S 0A5,VBL10076,Complete,-123.234205,49.254725
Housing,Eton - Highrise,ETN1,3487 Binning Road,V6S 0K8,VBL10135,Complete,-123.230561,49.25345
Academic,Aquatic Ecosystems Research Laboratory,AERL,2202 Main Mall,V6T 1Z4,VBL10087,Complete,-123.250977,49.26376
Academic,Michael Smith Laboratories,MSL,2185 East Mall,V6T 1Z4,VBL10221,Complete,-123.250171,49.264577
Housing,Tapestry at Wesbrook Village - Building 1,TAP1,3338 Wesbrook Mall,V6S 0A6,VBL10137,Complete,-123.235014,49.254742
Housing,Tapestry at Wesbrook Village - Building 2,TAP2,3382 Wesbrook Mall,V6S 0A7,VBL10182,Complete,-123.234517,49.254147
Housing,Academy - Highrise,ACD1,5728 Berton Avenue,V6S 0E5,VBL10183,Complete,-123.233051,49.255577
Housing,The Wesbrook - Highrise,WSB1,5838 Berton Avenue,V6S 0A5,VBL10184,Complete,-123.234509,49.255096
Housing,Sage - Highrise,SAG1,5782 Berton Avenue,V6S 0C1,VBL10187,Complete,-123.233708,49.255264
Housing,Sail - Building 1,SAL1,5983 Gray Avenue,V6S 0G8,VBL10172,Complete,-123.235232,49.252238
Housing,Sage - Townhouses,SAG2,"5782 Berton Avenue, Building 1",V6S 0C1,VBL10188,Complete,-123.233501,49.254987
StudentHousing,Fairview Crescent Residence - Building 1,FAR1,2600 Fairview Crescent,V6T 2B9,VBL10193,Complete,-123.239653,49.26332
StudentHousing,Fairview Crescent Residence - Building 2,FAR2,2763 Fairview Crescent,V6T 2B8,VBL10198,Complete,-123.239796,49.263001
Housing,Academy - Townhouses,ACD2,"5728 Berton Avenue, Building 1",V6S 0E5,VBL10199,Complete,-123.232786,49.255183
Housing,Binning Tower - Highrise,BINH,3355 Binning Road,V6S 0J1,VBL10210,Complete,-123.231374,49.255441
Operations,Power House,POWR,2040 West Mall,V6T 1Z2,VBL10024,Complete,-123.254802,49.26521
Housing,The Laureates - Highrise,LAR1,5628 Birney Avenue,V6S 0H7,VBL10241,Complete,-123.230797,49.254108
Housing,Eton - Townhouses,ETN3,"5687 Gray Avenue, Building 1",V6S 0K7,VBL10244,Complete,-123.231519,49.253536
Housing,Thames Court - Townhouses,THAC2,5880 Hampton Place,V6T 2E9,VBL10253,Complete,-123.236162,49.257073
Housing,The Laureates - Apartment,LAR2,5638 Birney Avenue,V6S 0H8,VBL10261,Complete,-123.231755,49.254211
Housing,Ivy on the Park - Townhouses,IVYT,5681 Birney Avenue,V6S 0A5,VBL10264,Complete,-123.231834,49.254768
Housing,Ivy on the Park - Highrise,IVYH,5629 Birney Avenue,V6S 0L5,VBL10265,Complete,-123.230999,49.254718
Housing,Chancellor Hall - Townhouses,CHHT,5978 Chancellor Mews,V6T 2L5,VBL10271,Complete,-123.250355,49.272187
Housing,Coast - Townhouses,COST,6090 Chancellor Mews,V6T 2J5,VBL10277,Complete,-123.253054,49.271069
Housing,West Hampstead - Building 1,WHM1,5760 Hampton Place,V6T 2G1,VBL10281,Complete,-123.235241,49.257587
Housing,Chancellor Hall - Apartment,CHHA,5989 Iona Drive,V6T 2L7,VBL10290,Complete,-123.250461,49.271895
Housing,Folio - Duplexes,FOL3,5998 Chancellor Boulevard,V6T 0A1,VBL10291,Complete,-123.250604,49.272415
Housing,Folio - Apartment,FOL1,5955 Iona Drive,V6T 2L4,VBL10309,Complete,-123.24975,49.272098
Housing,Folio - Townhouses,FOL2,5962 Chancellor Mews,V6T 2L5,VBL10316,Complete,-123.250191,49.272249
Housing,Prodigy - Building 2,PRD2,3462 Ross Drive,V6S 0H6,VBL10336,Complete,-123.236605,49.251632
Housing,Prodigy - Building 1,PRD1,6033 Gray Avenue,V6S 0G3,VBL10349,Complete,-123.235957,49.251667
Housing,Pathways - East Building,PTHE,5779 Birney Avenue,V6S 0A3,VBL10239,Complete,-123.23283,49.254669
Housing,Pathways - West Building,PTHW,5777 Birney Avenue,V6S 0A4,VBL10240,Complete,-123.23382,49.254401
Services,Walter H. Gage Residence - Commonsblock,WGR1,"5959 Student Union Boulevard, Building 1",V6T 1K2,VBL10263,Complete,-123.249831,49.269529
Services,Child Care Services - Kittiwake/Salal,CCS2,5655 Osoyoos Crescent,V6T 1S1,VBL10273,Complete,-123.235278,49.259997
Athletics,Rugby Pavilion,RUGB,2584 East Mall,V6T 1Z3,VBL10055,Complete,-123.244014,49.258676
Academic,HR MacMillan Building,MCML,2357 Main Mall,V6T 1Z4,VBL10060,Complete,-123.250746,49.261066
Academic,Chemical and Biological Engineering Building,CHBE,2360 East Mall,V6T 1Z3,VBL10062,Complete,-123.247066,49.262481
Academic,Wayne and William White Engineering Design Centre,EDC,2345 East Mall,V6T 1Z4,VBL10064,Complete,-123.248164,49.262333
Housing,Argyll House West,ARGW,6018 Iona Drive,V6T 2L1,VBL10298,Complete,-123.251327,49.270788
Housing,The Stratford,STRA,5657 Hampton Place,V6T 2H4,VBL10206,Complete,-123.233455,49.259635
Academic,Fred Kaiser Building,KAIS,2332 Main Mall,V6T 1Z4,VBL10085,Complete,-123.250082,49.262371
Academic,Medical Sciences Block C,MEDC,2176 Health Sciences Mall,V6T 1Z3,VBL10094,Complete,-123.247871,49.264969
Academic,Neville Scarfe Building,SCRF,2125 Main Mall,V6T 1Z4,VBL10095,Complete,-123.253091,49.263965
Operations,Lower Mall Header House,LMHH,2331 Lower Mall,V6T 1Z4,VBL10097,Complete,-123.254843,49.260527
Academic,Life Sciences Centre,LSC,2350 Health Sciences Mall,V6T 1Z3,VBL10111,Complete,-123.245112,49.262548
Parking,Thunderbird Parkade,PART,6085 Thunderbird Boulevard,V6T 1Z3,VBL10113,Complete,-123.243062,49.261659
StudentHousing,St. John's College,STJC,2111 Lower Mall,V6T 1Z4,VBL10116,Complete,-123.25679,49.262595
Academic,Forest Sciences Centre,FSC,2424 Main Mall,V6T 1Z4,VBL10119,Complete,-123.247827,49.260597
Academic,Friedman Building,FRDM,2177 Wesbrook Mall,V6T 1Z3,VBL10120,Complete,-123.246237,49.265368
StudentHousing,Thunderbird Residence - Coast,THR4,"6335 Thunderbird Crescent, Building 2",V6T 1Z4,VBL10121,Complete,-123.250361,49.25897
StudentHousing,Thunderbird Residence - Hazelton,THR5,"6335 Thunderbird Crescent, Building 1",V6T 2G9,VBL10122,Complete,-123.250846,49.259569
Operations,Staging Environmental Research Centre,SERC,6045 Nurseries Road,V6T 1W5,VBL10123,Complete,-123.228053,49.245383
StudentHousing,Thunderbird Residence - Monashee,THR2,"6335 Thunderbird Crescent, Building 4",V6T 2G9,VBL10098,Complete,-123.247557,49.259933
Academic,Hector J. MacLeod Building,MCLD,2356 Main Mall,V6T 1Z4,VBL10099,Complete,-123.249401,49.261716
Academic,Music Building,MUSC,6361 Memorial Road,V6T 1Z2,VBL10101,Complete,-123.256781,49.267437
Academic,Allard Hall,ALRD,1822 East Mall,V6T 1Z1,VBL10104,Complete,-123.253297,49.270044
Academic,School of Population & Public Health,SPPH,2206 East Mall,V6T 1Z3,VBL10107,Complete,-123.248416,49.26424
Services,Place Vanier Residence - Commonsblock,VNR03,"1935 Lower Mall, Building 1",V6T 1X1,VBL10108,Complete,-123.258583,49.26465
Housing,Hawthorn Green,HAWT,6318 Hawthorn Lane,V6T 2J6,VBL10144,Complete,-123.248586,49.258174
StudentHousing,Acadia Park Residence - Tennis Crescent,APR5,2621 Tennis Crescent,V6T 2C1,VBL10436,Complete,-123.237716,49.263483
Operations,Environmental Services Facility - PCB Equipment Storage,ENV5,"6025 Nurseries Road, Building 4",V6T 1W5,VBL10406,Complete,-123.228049,49.243362
Operations,Environmental Services Facility - Natural Gas Station,ENV3,"6025 Nurseries Road, Building 7",V6T 1W5,VBL10408,Complete,-123.228203,49.24362
Commercial,Granite Terrace - Commercial,GRT2,5923 Berton Avenue,V6S 0B3,VBL10414,Complete,-123.236109,49.255066
Administrative,Donald Rix Building,RIX,2389 Health Sciences Mall,V6T 1Z3,VBL10129,Complete,-123.2463,49.261972
Services,Djavad Mowafaghian Centre for Brain Health,CBH,2215 Wesbrook Mall,V6T 1Z3,VBL10103,Complete,-123.244569,49.264275
Research,NRC Institute for Fuel Cell Innovation,NRC,4250 Wesbrook Mall,V6T 1W5,VBL10243,Complete,-123.232287,49.245182
Other,Vancouver School of Theology,VST,6015 Walter Gage Road,V6T 1Z1,VBL10302,Complete,-123.251044,49.270391
Services,UBC Hospital - Detwiller Pavilion,DPAV,2255 Wesbrook Mall,V6T 1Z3,VBL10334,Complete,-123.244471,49.26356
Housing,St. Andrew's Hall,STH,6040 Iona Drive,V6T 2E8,VBL10114,Complete,-123.251748,49.270143
StudentHousing,Fraser Hall,FRAS,2550 Wesbrook Mall,V6T 1Z3,VBL10117,Complete,-123.240766,49.261506
Services,Abdul Ladha Science Student Centre,ALSC,2055 East Mall,V6T 1Z1,VBL10163,Complete,-123.251356,49.266083
StudentHousing,Green College - B East,GRN5,"6201 Cecil Green Park Road, Building 7",V6T 1Z1,VBL10174,Complete,-123.25601,49.270843
StudentHousing,Green College - D Coach House,GRN6,"6201 Cecil Green Park Road, Building 2",V6T 1Z1,VBL10176,Complete,-123.256534,49.271144
Academic,Liu Institute for Global Issues,LIU,6476 NW Marine Drive,V6T 1Z2,VBL10177,Complete,-123.259267,49.267549
StudentHousing,Green College - Guest House,GRN9,"6201 Cecil Green Park Road, Building 1",V6T 1Z1,VBL10180,Complete,-123.256515,49.27086
Services,The Barn - Owl Child Care,BARN,2323 Main Mall,V6T 1Z4,VBL10181,Complete,-123.251115,49.261931
StudentHousing,Green College - Principal's Residence,GRN10,6205 Cecil Green Park Road,V6T 1Z1,VBL10190,Complete,-123.256949,49.270911
Operations,Main Substation,MSUB,2446 Health Sciences Mall,V6T 1Z3,VBL10192,Complete,-123.24437,49.261347
Academic,Henry Angus Building,ANGU,2053 Main Mall,V6T 1Z2,VBL10067,Complete,-123.253876,49.265106
Academic,Coal and Mineral Processing Laboratory,MINL,2332 West Mall,V6T 1Z4,VBL10068,Complete,-123.252039,49.261169
Academic,David Strangway Building,STRG,5950 University Boulevard,V6T 1Z3,VBL10070,Complete,-123.246167,49.265838
Academic,Engineering Student Centre,ESC,2335 Engineering Road,V6T 1Z4,VBL10073,Complete,-123.249278,49.262188
StudentHousing,Spirit Park Apartments,SPPA,2705 Osoyoos Crescent,V6T 1X7,VBL10074,Complete,-123.239374,49.261491
StudentHousing,Sopron House,SOPR,2730 Acadia Road,V6T 1R9,VBL10075,Complete,-123.23534,49.262179
Operations,South Campus Warehouse,SCWH,6116 Nurseries Road,V6T 1W5,VBL10077,Complete,-123.231863,49.246256
Academic,Institute for Computing Information and Cognitive Systems / Computer Science,ICCS,2366 Main Mall,V6T 1Z4,VBL10078,Complete,-123.248832,49.261174
StudentHousing,Thunderbird Residence - Cassiar,THR1,"6335 Thunderbird Crescent, Building 5",V6T 2G9,VBL10079,Complete,-123.246685,49.260243
Academic,Irving K. Barber Learning Centre,IBLC,1961 East Mall,V6T 1Z1,VBL10080,Complete,-123.252738,49.267595
Academic,Jack Bell Building for the School of Social Work,SOWK,2080 West Mall,V6T 1Z2,VBL10081,Complete,-123.2551,49.264474
Academic,Continuing Studies Building,CSB,2121 West Mall,V6T 1Z4,VBL10083,Complete,-123.255014,49.263338
Academic,Biomedical Research Centre,BRC,2222 Health Sciences Mall,V6T 1Z3,VBL10084,Complete,-123.247194,49.264116
Academic,West Mall Swing Space Building,SWNG,2175 West Mall,V6T 1Z4,VBL10304,Complete,-123.254385,49.262795
Services,Child Care Services Administration Building,CCSA,2881 Acadia Road,V6T 1S1,VBL10306,Complete,-123.234257,49.26093
Athletics,Doug Mitchell Thunderbird Sports Centre,THUN,6066 Thunderbird Boulevard,V6T 1Z3,VBL10307,Complete,-123.241931,49.260341
StudentHousing,Acadia House,ACAH,2700 Acadia Road,V6T 1R9,VBL10308,Complete,-123.235908,49.26288
Services,Morris and Helen Belkin Art Gallery,BART,1825 Main Mall,V6T 1Z2,VBL10315,Complete,-123.25619,49.268169
Academic,Buchanan Building,BUCH,1866 Main Mall,V6T 1Z1,VBL10323,Complete,-123.254441,49.268701
Academic,Buchanan Tower,BUTO,1873 East Mall,V6T 1Z1,VBL10324,Complete,-123.253487,49.268579
StudentHousing,Green College - Admin,GRN4,"6201 Cecil Green Park Road, Building 8",V6T 1Z1,VBL10200,Complete,-123.256308,49.270987
Academic,Mary Bollert Hall,MBOL,6253 NW Marine Drive,V6T 1Z1,VBL10201,Complete,-123.25602,49.270572
Academic,Anthropology and Sociology Building,ANSO,6303 NW Marine Drive,V6T 1Z1,VBL10204,Complete,-123.257691,49.270316
Academic,Theatre-Film Production Building,TFPB,6358 University Boulevard,V6T 1Z4,VBL10209,Complete,-123.253928,49.263869
Athletics,Thunderbird Stadium,STAD,6288 Stadium Road,V6T 1Z4,VBL10214,Complete,-123.244579,49.254767
StudentHousing,Thunderbird Residence - Selkirk,THR3,"6335 Thunderbird Crescent, Building 3",V6T 2G9,VBL10215,Complete,-123.249493,49.259278
Academic,Mathematics Annex,MATX,1986 Mathematics Road,V6T 1Z2,VBL10216,Complete,-123.254848,49.266103
Academic,Totem Field Studios,TFS,2613 West Mall,V6T 1Z4,VBL10223,Complete,-123.249001,49.256128
Academic,Asian Centre,ACEN,1871 West Mall,V6T 1Z2,VBL10227,Complete,-123.25871,49.266752
Academic,Auditorium Annexes,AUDX,1924 West Mall,V6T 1Z2,VBL10228,Complete,-123.256625,49.266582
Academic,Mathematics Building,MATH,1984 Mathematics Road,V6T 1Z2,VBL10229,Complete,-123.255556,49.26645
Academic,Stores Road Annex,STRX,6368 Stores Road,V6T 1Z4,VBL10124,Complete,-123.252359,49.261667
Athletics,Student Recreation Centre,SRC,6000 Student Union Boulevard,V6T 1Z1,VBL10125,Complete,-123.248976,49.268304
Academic,Dorothy Somerset Studios,DSOM,6361 University Boulevard,V6T 1Z2,VBL10130,Complete,-123.254584,49.264696
Academic,Douglas T. Kenny Building,KENN,2136 West Mall,V6T 1Z4,VBL10131,Complete,-123.253841,49.263318
Academic,B.C. Binning Studios,BINN,6373 University Boulevard,V6T 1Z2,VBL10134,Complete,-123.254871,49.264604
Administrative,Old Administration Building,OAB,6328 Memorial Road,V6T 1Z2,VBL10138,Complete,-123.255511,49.267105
Operations,Old Fire Hall,FIRE,2038 West Mall,V6T 1Z2,VBL10139,Complete,-123.255566,49.265032
StudentHousing,Point Grey Apartments,PGRA,2875 Osoyoos Crescent,V6T 2G3,VBL10145,Complete,-123.237998,49.259968
Administrative,Ponderosa Office Annex A,PONA,2011 West Mall,V6T 1Z2,VBL10146,Complete,-123.256382,49.265167
Administrative,Ponderosa Office Annex E,PONE,2034 Lower Mall,V6T 1Z2,VBL10151,Complete,-123.256694,49.264675
Administrative,Ponderosa Office Annex F,PONF,2008 Lower Mall,V6T 1Z2,VBL10152,Complete,-123.257153,49.26492
Administrative,Ponderosa Office Annex G,PONG,2044 Lower Mall,V6T 1Z2,VBL10153,Complete,-123.256434,49.264507
Administrative,Berwick Child Development Centre,BERW,2765 Osoyoos Crescent,V6T 1X7,VBL10155,Complete,-123.238932,49.260588
Athletics,War Memorial Gymnasium,MGYM,6081 University Boulevard,V6T 1Z1,VBL10161,Complete,-123.24767,49.266767
Academic,Centre for Interactive Research on Sustainability,CIRS,2260 West Mall,V6T 1Z4,VBL10162,Complete,-123.25308,49.262051
StudentHousing,Green College - A North,GRN1,"6201 Cecil Green Park Road, Building 5",V6T 1Z1,VBL10194,Complete,-123.255667,49.271155
Operations,UBC Botanical Garden Nursery - Workshop,BON2,"3929 Wesbrook Mall, Building 1",V6T 1W5,VBL10195,Complete,-123.234449,49.249533
Operations,UBC Botanical Garden Nursery - Greenhouses,BON1,"3929 Wesbrook Mall, Building 2",V6T 1W5,VBL10196,Complete,-123.234972,49.249451
Academic,Wesbrook Building,WESB,6174 University Boulevard,V6T 1Z3,VBL10266,Complete,-123.249156,49.265251
StudentHousing,Place Vanier Residence - Okanagan House,VNR08,"1935 Lower Mall, Building 2",V6T 1X1,VBL10270,Complete,-123.257764,49.264345
Academic,David Lam Management Research Centre,DLAM,2033 Main Mall,V6T 1Z2,VBL10278,Complete,-123.25432,49.265712
Services,Chan Centre for the Performing Arts,CHAN,6265 Crescent Road,V6T 1Z1,VBL10282,Complete,-123.25511,49.269771
Academic,West Mall Annex,WMAX,1933 West Mall,V6T 1Z2,VBL10283,Complete,-123.257156,49.26625
Parking,West Parkade,PARW,2140 Lower Mall,V6T 1Z4,VBL10284,Complete,-123.255016,49.262597
Academic,Wood Drying Laboratory,WDL,2324 West Mall,V6T 1Z4,VBL10285,Complete,-123.252249,49.261475
Academic,Iona Building,IONA,6000 Iona Drive,V6T 1L4,VBL10292,Complete,-123.250309,49.270988
Academic,Robert F. Osborne Centre - Unit 2,OSB2,"6108 Thunderbird Boulevard, Building 2",V6T 1Z3,VBL10296,Complete,-123.244315,49.259976
StudentHousing,Walter H. Gage Residence - Gage Apartments,WGR2,"5959 Student Union Boulevard, Building 5",V6T 1K2,VBL10301,Complete,-123.249022,49.270145
StudentHousing,Place Vanier Residence - Tweedsmuir House,VNR13,"1935 Lower Mall, Building 5",V6T 1X1,VBL10369,Complete,-123.258301,49.263472
Services,International House,INTL,1783 West Mall,V6T 1Z2,VBL10371,Complete,-123.25896,49.2678
Services,Kids Club,KIDS,2855 Acadia Road,V6T 1S1,VBL10374,Complete,-123.234805,49.261725
Services,Ladner Clock Tower,CLCK,1956 Main Mall,V6T 1Z1,VBL10376,Complete,-123.253657,49.267351
Academic,Landscape Architecture Annex,LAX,2371 Main Mall,V6T 1Z4,VBL10377,Complete,-123.250061,49.260657
Academic,UBC Farm - Yurt,YURT,3465 Ross Drive,V6T 1W5,VBL10391,Complete,-123.239913,49.25126
Operations,Environmental Services Facility - Solvent Storage Area,ENV6,"6025 Nurseries Road, Building 3",V6T 1W5,VBL10413,Complete,-123.228605,49.243731
StudentHousing,Green College - A South,GRN3,"6201 Cecil Green Park Road, Building 6",V6T 1Z1,VBL10415,Complete,-123.255231,49.270941
Operations,Vanier Pump Station,VNRP,"1935 Lower Mall, Building 14",V6T 1X1,VBL10416,Complete,-123.260266,49.26482
Athletics,Cecil Green Squash Court,CGSQ,"6251 Cecil Green Park Road, Building 1",V6T 1Z1,VBL10418,Complete,-123.257059,49.271421
Services,UBC Botanical Garden - Shop/Gatehouse Entrance,BOT1,"6804 SW Marine Drive, Building 1",V6T 1Z4,VBL10419,Complete,-123.250549,49.254038
Operations,UBC Farm - Greenhouse 1,FRM4,"3461 Ross Drive, Building 3",V6T 1W5,VBL10009,Complete,-123.238931,49.251148
Academic,Robert F. Osborne Centre - Unit 1,OSB1,"6108 Thunderbird Boulevard, Building 1",V6T 1Z3,VBL10251,Complete,-123.243731,49.260289
Services,Child Care Services - Acadia,CCS1,2865 Revelstoke Court,V6T 1S1,VBL10272,Complete,-123.234734,49.260896
Academic,UBC Research Ponds,RESP,4069 Wesbrook Mall,V6T 1W5,VBL10222,Complete,-123.232721,49.247161
Parking,Fraser River Parkade,PARF,6440 Memorial Road,V6T 1Z2,VBL10397,Complete,-123.258042,49.266067
Operations,Environmental Services Facility - Office,ENV4,"6025 Nurseries Road, Building 1",V6T 1W5,VBL10400,Complete,-123.228986,49.243471
Operations,Environmental Services Facility - Lab,ENV1,"6025 Nurseries Road, Building 5",V6T 1W5,VBL10401,Complete,-123.228656,49.243333
Operations,Environmental Services Facility - Incinerator,ENV2,"6025 Nurseries Road, Building 2",V6T 1W5,VBL10402,Complete,-123.229006,49.243679
Services,Frederic Wood Theatre,FRWO,6354 Crescent Road,V6T 1Z2,VBL10405,Complete,-123.256958,49.268053
Academic,Gas Gun Facility,GASG,6301 Stadium Road,V6T 1Z4,VBL10410,Complete,-123.246052,49.256017
Academic,Geography Building,GEOG,1984 West Mall,V6T 1Z2,VBL10411,Complete,-123.256128,49.265984
Housing,Norman MacKenzie House,MCKH,6565 NW Marine Drive,V6T 1A7,VBL10233,Complete,-123.261175,49.267676
Services,Museum of Anthropology,MOA,6393 NW Marine Drive,V6T 1Z2,VBL10235,Complete,-123.259417,49.269507
Academic,UBC Farm - Harvest Hut / Market,FRM2,"3461 Ross Drive, Building 5",V6T 1W5,VBL10245,Complete,-123.237933,49.250758
Athletics,UBC Football Academic Centre,FOOT,6298 Stadium Road,V6T 1Z4,VBL10246,Complete,-123.24502,49.255246
Academic,UBC Life Building,LIFE,6138 Student Union Boulevard,V6T 1Z1,VBL10248,Complete,-123.250062,49.267434
Services,Thea Koerner House,THEA,6371 Crescent Road,V6T 1Z2,VBL10249,Complete,-123.257878,49.268439
StudentHousing,Ritsumeikan-UBC House,RITS,6460 Agronomy Road,V6T 1Z4,VBL10250,Complete,-123.252997,49.260102
StudentHousing,Acadia Park Residence - Highrise,APRH,2725 Melfa Road,V6T 1N4,VBL10260,Complete,-123.236813,49.26237
Academic,Woodward Library,WLIB,2198 Health Sciences Mall,V6T 1Z3,VBL10262,Complete,-123.24757,49.264563
Academic,Chemistry A Physics,CHPH,6221 University Boulevard,V6T 1Z1,VBL10327,Complete,-123.251513,49.265736
Academic,Civil and Mechanical Engineering Building,CEME,6250 Applied Science Lane,V6T 1Z4,VBL10329,Complete,-123.248881,49.262545
Academic,Civil and Mechanical Engineering Laboratories,CEML,2275 East Mall,V6T 1Z4,VBL10330,Complete,-123.24934,49.263129
Services,Brock Hall,BRCK,1874 East Mall,V6T 1Z1,VBL10331,Complete,-123.252062,49.268639
Administrative,Campus & Community Planning,CCP,2210 West Mall,V6T 1Z4,VBL10332,Complete,-123.253282,49.262441
Services,Old Auditorium,AUDI,6344 Memorial Road,V6T 1Z2,VBL10335,Complete,-123.256101,49.266902
Operations,Building Operations Nursery,BONR,6029 Nurseries Road,V6T 1W5,VBL10337,Complete,-123.229225,49.244432
Academic,C.K. Choi Building,CHOI,1855 West Mall,V6T 1Z2,VBL10338,Complete,-123.257947,49.267262
Administrative,Cecil Green Park Coach House,CGPC,6323 Cecil Green Park Road,V6T 1Z1,VBL10341,Complete,-123.25847,49.271001
Services,Cecil Green Park House,CGPH,6251 Cecil Green Park Road,V6T 1Z1,VBL10342,Complete,-123.25769,49.271387
Administrative,Ponderosa Office Annex B,PONB,2029 West Mall,V6T 1Z2,VBL10343,Complete,-123.255962,49.264844
Administrative,Ponderosa Office Annex C,PONC,2021 West Mall,V6T 1Z2,VBL10344,Complete,-123.256275,49.264854
Academic,Sing Tao Building,STAO,6388 Crescent Road,V6T 1Z2,VBL10348,Complete,-123.257756,49.267833
Parking,Health Sciences Parkade,PARH,2250 Health Sciences Mall,V6T 1Z3,VBL10357,Complete,-123.247842,49.263405
Academic,Hennings Building,HENN,6224 Agricultural Road,V6T 1Z1,VBL10359,Complete,-123.252198,49.266445
Academic,Horticulture Building,HORT,6394 Stores Road,V6T 1Z4,VBL10362,Complete,-123.252773,49.261402
Academic,Hugh Dempster Pavilion,DMP,6245 Agronomy Road,V6T 1Z4,VBL10363,Complete,-123.248057,49.261242
Operations,In-Vessel Composting Facility,COMP,6035 Nurseries Road,V6T 1W5,VBL10364,Complete,-123.228014,49.244905
StudentHousing,Place Vanier Residence - Sherwood Lett House,VNR11,"1935 Lower Mall, Building 4",V6T 1X1,VBL10365,Complete,-123.257513,49.26339
Academic,JB Macdonald Building,MCDN,2199 Wesbrook Mall,V6T 1Z3,VBL10366,Complete,-123.24533,49.265345
Other,Carey College Lot 42,CRYC2,,,VBL10450,PreConstruction,-123.248739,49.271016
Other,Carey College Lot 40,CRYC1,,,VBL10449,PreConstruction,-123.24857,49.271747
Housing,Binning Tower - Townhouses,BINT,,,VBL10299,Complete,-123.231641,49.255275
