ADD_UID,SITE_NAME,LOCALITY,POSTAL_CODE,PROVINCE_CODE,BLDG_UID,ADDRESS_DESCRIPTOR,MAIL_PROVIDER,FULL_ADDRESS,LAT,LONG
VAD10026,Logan Lane (A9),Vancouver,V6T 2K8,BC,VBL10226,Residential,CanadaPost,2561 East Mall,-123.245146,49.25873
VAD10028,Logan Lane (E4),Vancouver,V6T 2K9,BC,VBL10226,Residential,CanadaPost,6278 Logan Lane,-123.246518,49.259002
VAD10792,Westchester (C1),Vancouver,V6T 2J9,BC,VBL10220,Residential,CanadaPost,2578 West Mall,-123.249378,49.257294
VAD10182,Nine on the Park (4),Vancouver,V6T 0A3,BC,VBL10158,Residential,CanadaPost,6292 Eagles Drive,-123.247162,49.259315
VAD10150,Logan Lane (E6),Vancouver,V6T 2K9,BC,VBL10226,Residential,CanadaPost,6282 Logan Lane,-123.246602,49.258972
VAD10187,Nine on the Park (3),Vancouver,V6T 0A3,BC,VBL10158,Residential,CanadaPost,6294 Eagles Drive,-123.247195,49.259356
VAD10031,Logan Lane (D1),Vancouver,V6T 2K9,BC,VBL10226,Residential,CanadaPost,6258 Logan Lane,-123.245628,49.258573
VAD10154,Logan Lane (D4),Vancouver,V6T 2K9,BC,VBL10226,Residential,CanadaPost,6254 Logan Lane,-123.245693,49.258657
VAD10385,Prodigy - Building 1,Vancouver,V6S 0G3,BC,VBL10349,NeighbourhoodBldg,CanadaPost,6033 Gray Avenue,-123.235902,49.251705
VAD10404,Sail - Building 1,Vancouver,V6S 0G8,BC,VBL10172,NeighbourhoodBldg,CanadaPost,5983 Gray Avenue,-123.234866,49.252382
VAD10904,Chancellor Hall -  Apartment,Vancouver,V6T 2L7,BC,VBL10290,NeighbourhoodBldg,CanadaPost,5989 Iona Drive,-123.250297,49.271662
VAD10001,Hawthorn Green (A1),Vancouver,V6T 2J6,BC,VBL10144,Residential,CanadaPost,6358 Hawthorn Lane,-123.248877,49.258138
VAD11025,Logan Lane (B4),Vancouver,V6T 2K8,BC,VBL10226,Residential,CanadaPost,2555 East Mall,-123.2453,49.258926
VAD10405,Sitka,Vancouver,V6T 0B5,BC,VBL10112,NeighbourhoodBldg,CanadaPost,5868 Agronomy Road,-123.2419,49.263016
VAD10388,Promontory,Vancouver,V6T 2J8,BC,VBL10149,NeighbourhoodBldg,CanadaPost,2688 West Mall,-123.247881,49.255898
VAD10487,Yu,Vancouver,V6S 0C5,BC,VBL10167,NeighbourhoodBldg,CanadaPost,5955 Birney Avenue,-123.235833,49.253505
VAD10205,Larkspur House,Vancouver,V6S 0G9,BC,VBL10018,NeighbourhoodBldg,CanadaPost,3428 Wesbrook Mall,-123.234235,49.253493
VAD10193,Nobel House,Vancouver,V6S 0G6,BC,VBL10379,NeighbourhoodBldg,CanadaPost,3655 Wesbrook Mall,-123.23301,49.250874
VAD10159,Logan Lane (C4),Vancouver,V6T 2K9,BC,VBL10226,Residential,CanadaPost,6206 Logan Lane,-123.245729,49.259275
VAD10162,Logan Lane (A3),Vancouver,V6T 2K8,BC,VBL10226,Residential,CanadaPost,2575 East Mall,-123.245016,49.25858
VAD10186,Nine on the Park (2),Vancouver,V6T 0A3,BC,VBL10158,Residential,CanadaPost,6296 Eagles Drive,-123.247231,49.2594
VAD10192,Nine on the Park (9),Vancouver,V6T 0A3,BC,VBL10158,Residential,CanadaPost,6282 Eagles Drive,-123.246989,49.259105
VAD10200,Logan Lane (C10),Vancouver,V6T 2K9,BC,VBL10226,Residential,CanadaPost,6220 Logan Lane,-123.245962,49.259189
VAD10201,Logan Lane (A4),Vancouver,V6T 2K8,BC,VBL10226,Residential,CanadaPost,2573 East Mall,-123.245053,49.258617
VAD10804,Westchester (B3),Vancouver,V6T 2J9,BC,VBL10220,Residential,CanadaPost,2588 West Mall,-123.249222,49.257084
VAD10149,Keenleyside,Vancouver,V6S 0A2,BC,VBL10040,NeighbourhoodBldg,CanadaPost,5788 Birney Avenue,-123.233148,49.25402
VAD10137,Magnolia House,Vancouver,V6S 0H1,BC,VBL10191,NeighbourhoodBldg,CanadaPost,3565 Wesbrook Mall,-123.233477,49.251703
VAD10264,Folio - Apartment,Vancouver,V6T 2L4,BC,VBL10309,NeighbourhoodBldg,CanadaPost,5955 Iona Drive,-123.249619,49.271824
VAD10260,Gardenia House,Vancouver,V6T 0C2,BC,VBL10224,NeighbourhoodBldg,CanadaPost,6309 Larkin Drive,-123.248868,49.258922
VAD10585,West Hampstead,Vancouver,V6T 2G1,BC,VBL10281,NeighbourhoodBldg,CanadaPost,5760 Hampton Place,-123.235269,49.257797
VAD10225,Granite Terrace,Vancouver,V6S 0B4,BC,VBL10164,NeighbourhoodBldg,CanadaPost,3233 Wesbrook Mall,-123.236445,49.255118
VAD10116,Legacy,Vancouver,V6T 0A7,BC,VBL10160,NeighbourhoodBldg,CanadaPost,6333 Larkin Drive,-123.247765,49.257336
VAD10008,Hawthorn Green (D2),Vancouver,V6T 2J6,BC,VBL10144,Residential,CanadaPost,6328 Hawthorn Lane,-123.248499,49.258272
VAD10030,Logan Lane (B6),Vancouver,V6T 2K8,BC,VBL10226,Residential,CanadaPost,2549 East Mall,-123.245348,49.258976
VAD10003,Hawthorn Green (B1),Vancouver,V6T 2J6,BC,VBL10144,Residential,CanadaPost,6352 Hawthorn Lane,-123.248758,49.258181
VAD10038,Logan Lane (B1),Vancouver,V6T 2K8,BC,VBL10226,Residential,CanadaPost,2559 East Mall,-123.245228,49.258838
VAD10123,Logan Lane (E7),Vancouver,V6T 2K9,BC,VBL10226,Residential,CanadaPost,6284 Logan Lane,-123.246619,49.258966
VAD10125,Logan Lane (C11),Vancouver,V6T 2K9,BC,VBL10226,Residential,CanadaPost,6224 Logan Lane,-123.24599,49.259179
VAD10129,Logan Lane (E5),Vancouver,V6T 2K9,BC,VBL10226,Residential,CanadaPost,6280 Logan Lane,-123.246535,49.258996
VAD10130,Logan Lane (C8),Vancouver,V6T 2K9,BC,VBL10226,Residential,CanadaPost,6214 Logan Lane,-123.245885,49.25922
VAD10557,Corus - Townhouse (8),Vancouver,V6T 0A9,BC,VBL10303,Residential,CanadaPost,5991 Walter Gage Road,-123.249446,49.270525
VAD10558,Corus - Townhouse (9),Vancouver,V6T 0A9,BC,VBL10303,Residential,CanadaPost,5993 Walter Gage Road,-123.249504,49.270505
VAD10163,Logan Lane (A8),Vancouver,V6T 2K8,BC,VBL10226,Residential,CanadaPost,2565 East Mall,-123.245133,49.258715
VAD10132,Logan Lane (D14),Vancouver,V6T 2K9,BC,VBL10226,Residential,CanadaPost,6236 Logan Lane,-123.245914,49.258903
VAD10131,Logan Lane (B7),Vancouver,V6T 2K8,BC,VBL10226,Residential,CanadaPost,2545 East Mall,-123.245359,49.25899
VAD10139,Logan Lane (C3),Vancouver,V6T 2K9,BC,VBL10226,Residential,CanadaPost,6208 Logan Lane,-123.245673,49.25929
VAD10141,Logan Lane (A7),Vancouver,V6T 2K8,BC,VBL10226,Residential,CanadaPost,2567 East Mall,-123.245099,49.258681
VAD10143,Logan Lane (E1),Vancouver,V6T 2K9,BC,VBL10226,Residential,CanadaPost,6272 Logan Lane,-123.246319,49.259081
VAD10144,Logan Lane (C5),Vancouver,V6T 2K9,BC,VBL10226,Residential,CanadaPost,6210 Logan Lane,-123.245749,49.259268
VAD10146,Logan Lane (A1),Vancouver,V6T 2K8,BC,VBL10226,Residential,CanadaPost,2579 East Mall,-123.244997,49.258497
VAD10148,Logan Lane (D13),Vancouver,V6T 2K9,BC,VBL10226,Residential,CanadaPost,6234 Logan Lane,-123.245871,49.258874
VAD10151,Logan Lane (C7),Vancouver,V6T 2K9,BC,VBL10226,Residential,CanadaPost,6216 Logan Lane,-123.24583,49.259235
VAD10152,Logan Lane (C9),Vancouver,V6T 2K9,BC,VBL10226,Residential,CanadaPost,6218 Logan Lane,-123.245905,49.259213
VAD10147,Logan Lane (C1),Vancouver,V6T 2K9,BC,VBL10226,Residential,CanadaPost,6202 Logan Lane,-123.245589,49.259325
VAD10133,Logan Lane (D16),Vancouver,V6T 2K9,BC,VBL10226,Residential,CanadaPost,6230 Logan Lane,-123.245945,49.258964
VAD10153,Logan Lane (B8),Vancouver,V6T 2K8,BC,VBL10226,Residential,CanadaPost,2547 East Mall,-123.245383,49.259027
VAD10785,Westchester (A2),Vancouver,V6T 2J9,BC,VBL10220,Residential,CanadaPost,2596 West Mall,-123.249105,49.25695
VAD10786,Westchester (B1),Vancouver,V6T 2J9,BC,VBL10220,Residential,CanadaPost,2592 West Mall,-123.249154,49.257004
VAD10787,Westchester (B2),Vancouver,V6T 2J9,BC,VBL10220,Residential,CanadaPost,2590 West Mall,-123.249191,49.257046
VAD10790,Westchester (B5),Vancouver,V6T 2J9,BC,VBL10220,Residential,CanadaPost,2582 West Mall,-123.249294,49.25718
VAD10791,Westchester (B6),Vancouver,V6T 2J9,BC,VBL10220,Residential,CanadaPost,2580 West Mall,-123.249307,49.257196
VAD10009,Hawthorn Green (E1),Vancouver,V6T 2J6,BC,VBL10144,Residential,CanadaPost,6326 Hawthorn Lane,-123.2484,49.258307
VAD11055,Webber House,Vancouver,V6S 0J8,BC,VBL10171,NeighbourhoodBldg,CanadaPost,3388 Webber Lane,-123.23688,49.253206
VAD11144,Virtuoso,Vancouver,V6S 0K5,BC,VBL10345,NeighbourhoodBldg,CanadaPost,3581 Ross Drive,-123.234256,49.250948
VAD11137,Village Square,Vancouver,V6S 0J7,BC,VBL10170,NeighbourhoodBldg,CanadaPost,3338 Webber Lane,-123.236818,49.253893
VAD11029,Dahlia House,Vancouver,V6S 0H2,BC,VBL10096,NeighbourhoodBldg,CanadaPost,3515 Wesbrook Mall,-123.233826,49.252286
VAD11074,The Regency,Vancouver,V6T 2H6,BC,VBL10287,NeighbourhoodBldg,CanadaPost,5639 Hampton Place,-123.233077,49.259051
VAD11073,The Pemberley,Vancouver,V6T 2H2,BC,VBL10205,NeighbourhoodBldg,CanadaPost,5605 Hampton Place,-123.232514,49.257893
VAD10219,Central - Retail,Vancouver,V6T 0C4,BC,VBL10356,Commercial,CanadaPost,6001 University Boulevard,-123.246875,49.266422
VAD10094,Central - Retail,Vancouver,V6T 0C4,BC,VBL10356,Commercial,CanadaPost,6025 University Boulevard,-123.247143,49.266255
VAD10092,Central - Retail,Vancouver,V6T 0C4,BC,VBL10356,Commercial,CanadaPost,6035 University Boulevard,-123.247244,49.266242
VAD10078,The Mews - Retail,Vancouver,V6S 0B1,BC,VBL10165,Commercial,CanadaPost,3317 Wesbrook Mall,-123.235675,49.254776
VAD11138,Village Square - Retail,Vancouver,V6S 0J7,BC,VBL10170,Commercial,CanadaPost,5958 Webber Lane,-123.236231,49.254135
VAD10101,Pine House,Vancouver,V6S 0K3,BC,VBL10321,NeighbourhoodBldg,CanadaPost,3588 Ross Drive,-123.234276,49.25123
VAD10444,Stirling House - Townhouse,Vancouver,V6T 0A4,BC,VBL10289,Residential,CanadaPost,6068 Iona Drive,-123.252333,49.270609
VAD10002,Hawthorn Green (A2),Vancouver,V6T 2J6,BC,VBL10144,Residential,CanadaPost,6356 Hawthorn Lane,-123.248852,49.258147
VAD10004,Hawthorn Green (B2),Vancouver,V6T 2J6,BC,VBL10144,Residential,CanadaPost,6346 Hawthorn Lane,-123.248736,49.258188
VAD10005,Hawthorn Green (C2),Vancouver,V6T 2J6,BC,VBL10144,Residential,CanadaPost,6336 Hawthorn Lane,-123.248611,49.258233
VAD10006,Hawthorn Green (C1),Vancouver,V6T 2J6,BC,VBL10144,Residential,CanadaPost,6338 Hawthorn Lane,-123.248639,49.258223
VAD10007,Hawthorn Green (D1),Vancouver,V6T 2J6,BC,VBL10144,Residential,CanadaPost,6332 Hawthorn Lane,-123.248523,49.258264
VAD10190,Nine on the Park (7),Vancouver,V6T 0A3,BC,VBL10158,Residential,CanadaPost,6286 Eagles Drive,-123.247058,49.259189
VAD10191,Nine on the Park (8),Vancouver,V6T 0A3,BC,VBL10158,Residential,CanadaPost,6284 Eagles Drive,-123.247023,49.259146
VAD10073,Tapestry North,Vancouver,V6S 0A6,BC,VBL10137,NeighbourhoodBldg,CanadaPost,3338 Wesbrook Mall,-123.235148,49.25461
VAD10068,The Bristol,Vancouver,V6T 2G8,BC,VBL10286,NeighbourhoodBldg,CanadaPost,5735 Hampton Place,-123.234704,49.258527
VAD10381,Coast West - Apartment,Vancouver,V6T 0B2,BC,VBL10297,NeighbourhoodBldg,CanadaPost,6093 Iona Drive,-123.253072,49.270629
VAD10362,Pathways - West,Vancouver,V6S 0A4,BC,VBL10240,NeighbourhoodBldg,CanadaPost,5777 Birney Avenue,-123.233377,49.254528
VAD10902,Corus - Townhouse (1),Vancouver,V6T 0A9,BC,VBL10303,Residential,CanadaPost,5977 Walter Gage Road,-123.248958,49.270697
VAD10914,Corus - Townhouse (2),Vancouver,V6T 0A9,BC,VBL10303,Residential,CanadaPost,5979 Walter Gage Road,-123.24903,49.270672
VAD10915,Corus - Townhouse (3),Vancouver,V6T 0A9,BC,VBL10303,Residential,CanadaPost,5981 Walter Gage Road,-123.249113,49.270642
VAD11168,David Strangway - Retail,Vancouver,V6T 1Z3,BC,VBL10070,Commercial,CanadaPost,5988 University Boulevard,-123.246605,49.265982
VAD10896,Coast - Duplex (5B),Vancouver,V6T 1E7,BC,VBL10399,Residential,CanadaPost,6060 Chancellor Boulevard,-123.252904,49.271581
VAD10883,Coast - Duplex (1A),Vancouver,V6T 1E7,BC,VBL10399,NeighbourhoodBldg,CanadaPost,6098 Chancellor Boulevard,-123.253699,49.271119
VAD10884,Coast - Duplex (1B),Vancouver,V6T 1E7,BC,VBL10399,Residential,CanadaPost,6092 Chancellor Boulevard,-123.253612,49.271174
VAD10885,Coast - Duplex (2A),Vancouver,V6T 1E7,BC,VBL10399,Residential,CanadaPost,6088 Chancellor Boulevard,-123.2535,49.271256
VAD10887,Coast - Duplex (2B),Vancouver,V6T 1E7,BC,VBL10399,Residential,CanadaPost,6082 Chancellor Boulevard,-123.253413,49.271294
VAD10895,Coast - Duplex (5A),Vancouver,V6T 1E7,BC,VBL10399,Residential,CanadaPost,6050 Chancellor Boulevard,-123.252811,49.271633
VAD11164,David Strangway - Retail,Vancouver,V6T 1Z3,BC,VBL10070,Commercial,CanadaPost,5998 University Boulevard,-123.246772,49.265843
VAD10486,Yu - Retail,Vancouver,V6S 0G7,BC,VBL10167,Commercial,CanadaPost,5933 Birney Avenue,-123.235614,49.253537
VAD10197,MBA House - Retail,Vancouver,V6S 0B9,BC,VBL10403,Commercial,CanadaPost,3396 Shrum Lane,-123.235255,49.253713
VAD10903,Corus - Townhouse (10),Vancouver,V6T 0A9,BC,VBL10303,Residential,CanadaPost,5995 Walter Gage Road,-123.249564,49.270484
VAD10809,Argyll House West,Vancouver,V6T 2L1,BC,VBL10298,NeighbourhoodBldg,CanadaPost,6018 Iona Drive,-123.251222,49.270917
VAD10393,Somerset (I2),Vancouver,V6T 2K6,BC,VBL10147,Residential,CanadaPost,2616 West Mall,-123.248375,49.256063
VAD10396,Somerset (G1),Vancouver,V6T 2K6,BC,VBL10147,Residential,CanadaPost,2602 West Mall,-123.248777,49.256553
VAD10013,Hennings Building,Vancouver,V6T 1Z1,BC,VBL10359,CampusBuilding,CampusMail,6224 Agricultural Road,-123.252319,49.26661
VAD10793,Westchester (C2),Vancouver,V6T 2J9,BC,VBL10220,Residential,CanadaPost,2576 West Mall,-123.249389,49.257307
VAD10794,Westchester (C3),Vancouver,V6T 2J9,BC,VBL10220,Residential,CanadaPost,2572 West Mall,-123.249445,49.257375
VAD10797,Westchester (D2),Vancouver,V6T 2J9,BC,VBL10220,Residential,CanadaPost,2566 West Mall,-123.249531,49.25748
VAD10798,Westchester (D3),Vancouver,V6T 2J9,BC,VBL10220,Residential,CanadaPost,2562 West Mall,-123.249587,49.257549
VAD10799,Westchester (D4),Vancouver,V6T 2J9,BC,VBL10220,Residential,CanadaPost,2560 West Mall,-123.249618,49.257586
VAD10451,Stirling House - Townhouse,Vancouver,V6T 0A4,BC,VBL10289,Residential,CanadaPost,6078 Iona Drive,-123.252416,49.270601
VAD11065,The Mews - Retail,Vancouver,V6S 0B1,BC,VBL10165,Commercial,CanadaPost,3353 Wesbrook Mall,-123.23535,49.254379
VAD10448,Stirling House - Townhouse,Vancouver,V6T 0A4,BC,VBL10289,Residential,CanadaPost,6082 Iona Drive,-123.252601,49.27052
VAD10733,Clement's Green,Vancouver,V6T 0A2,BC,VBL10143,NeighbourhoodBldg,CanadaPost,6268 Eagles Drive,-123.246081,49.258047
VAD10773,Sumac House,Vancouver,V6T 0C1,BC,VBL10041,NeighbourhoodBldg,CanadaPost,6395 Hawthorn Lane,-123.249923,49.258039
VAD10414,Somerset (H2),Vancouver,V6T 2K6,BC,VBL10147,Residential,CanadaPost,2610 West Mall,-123.248545,49.25627
VAD10060,The Mews - Retail,Vancouver,V6S 0B1,BC,VBL10165,Commercial,CanadaPost,3351 Wesbrook Mall,-123.235382,49.254418
VAD10485,Wyndham Hall,Vancouver,V6T 2H3,BC,VBL10293,NeighbourhoodBldg,CanadaPost,5683 Hampton Place,-123.233998,49.259364
VAD10039,Logan Lane (B12),Vancouver,V6T 2K8,BC,VBL10226,Residential,CanadaPost,2539 East Mall,-123.245484,49.259132
VAD10136,Logan Lane (D11),Vancouver,V6T 2K9,BC,VBL10226,Residential,CanadaPost,6240 Logan Lane,-123.24584,49.258814
VAD10113,Logan Lane (C12),Vancouver,V6T 2K9,BC,VBL10226,Residential,CanadaPost,6222 Logan Lane,-123.246053,49.259157
VAD10115,Logan Lane (D15),Vancouver,V6T 2K9,BC,VBL10226,Residential,CanadaPost,6232 Logan Lane,-123.245927,49.258919
VAD10122,Logan Lane (A6),Vancouver,V6T 2K8,BC,VBL10226,Residential,CanadaPost,2571 East Mall,-123.245088,49.258668
VAD10076,The Mews - Retail,Vancouver,V6S 0B1,BC,VBL10165,Commercial,CanadaPost,3339 Wesbrook Mall,-123.235443,49.254476
VAD10554,Corus - Townhouse (5),Vancouver,V6T 0A9,BC,VBL10303,Residential,CanadaPost,5983 Walter Gage Road,-123.249182,49.270618
VAD10562,David Strangway - Retail,Vancouver,V6T 1Z3,BC,VBL10070,Commercial,CanadaPost,5940 University Boulevard,-123.245811,49.266108
VAD10395,Somerset (E1),Vancouver,V6T 2K5,BC,VBL10147,Residential,CanadaPost,6382 Larkin Drive,-123.248071,49.256508
VAD10407,Somerset (C2),Vancouver,V6T 2K5,BC,VBL10147,Residential,CanadaPost,6376 Larkin Drive,-123.247784,49.256314
VAD10411,Somerset (C1),Vancouver,V6T 2K5,BC,VBL10147,Residential,CanadaPost,6372 Larkin Drive,-123.247712,49.256432
VAD10555,Corus - Townhouse (6),Vancouver,V6T 0A9,BC,VBL10303,Residential,CanadaPost,5985 Walter Gage Road,-123.249238,49.270598
VAD10892,Coast - Duplex (3B),Vancouver,V6T 1E7,BC,VBL10399,Residential,CanadaPost,6078 Chancellor Boulevard,-123.253304,49.271376
VAD10549,Chancellor House - Duplex (2B),Vancouver,V6T 1E7,BC,VBL10385,Residential,CanadaPost,6012 Chancellor Boulevard,-123.251799,49.272053
VAD10548,Chancellor House - Duplex (2A),Vancouver,V6T 1E7,BC,VBL10385,Residential,CanadaPost,6016 Chancellor Boulevard,-123.251987,49.271976
VAD10553,Academy,Vancouver,V6S 0E5,BC,VBL10183,NeighbourhoodBldg,CanadaPost,5728 Berton Avenue,-123.233144,49.255706
VAD10561,David Strangway - Retail,Vancouver,V6T 1Z3,BC,VBL10070,Commercial,CanadaPost,5960 University Boulevard,-123.246183,49.266044
VAD10416,Somerset (D1),Vancouver,V6T 2K5,BC,VBL10147,Residential,CanadaPost,6378 Larkin Drive,-123.247854,49.256265
VAD10207,MBA House - Retail,Vancouver,V6S 0B9,BC,VBL10403,Commercial,CanadaPost,3392 Shrum Lane,-123.235303,49.253771
VAD10547,Chancellor House - Duplex (1B),Vancouver,V6T 1E7,BC,VBL10385,Residential,CanadaPost,6020 Chancellor Boulevard,-123.252032,49.271961
VAD10546,Chancellor House - Duplex (1A),Vancouver,V6T 1E7,BC,VBL10385,Residential,CanadaPost,6028 Chancellor Boulevard,-123.252208,49.271927
VAD10550,Chancellor House - Duplex (3A),Vancouver,V6T 1E7,BC,VBL10385,NeighbourhoodBldg,CanadaPost,6002 Chancellor Boulevard,-123.251632,49.272157
VAD10890,Coast - Duplex (3A),Vancouver,V6T 1E7,BC,VBL10399,Residential,CanadaPost,6072 Chancellor Boulevard,-123.253215,49.271415
VAD10894,Coast - Duplex (4B),Vancouver,V6T 1E7,BC,VBL10399,Residential,CanadaPost,6068 Chancellor Boulevard,-123.253106,49.271486
VAD10893,Coast - Duplex (4A),Vancouver,V6T 1E7,BC,VBL10399,Residential,CanadaPost,6062 Chancellor Boulevard,-123.253013,49.271526
VAD11121,Ultima,Vancouver,V6S 0B7,BC,VBL10340,NeighbourhoodBldg,CanadaPost,3479 Wesbrook Mall,-123.234231,49.252782
VAD10403,Somerset (A2),Vancouver,V6T 2K5,BC,VBL10147,Residential,CanadaPost,6362 Larkin Drive,-123.248059,49.256787
VAD10425,Somerset (B2),Vancouver,V6T 2K5,BC,VBL10147,Residential,CanadaPost,6368 Larkin Drive,-123.247909,49.256604
VAD11145,Vista Point,Vancouver,V6T 0B8,BC,VBL10011,NeighbourhoodBldg,CanadaPost,5828 Thunderbird Boulevard,-123.240399,49.261797
VAD11080,The Stratford,Vancouver,V6T 2H4,BC,VBL10206,NeighbourhoodBldg,CanadaPost,5657 Hampton Place,-123.233531,49.25951
VAD10188,Nine on the Park (5),Vancouver,V6T 0A3,BC,VBL10158,Residential,CanadaPost,6290 Eagles Drive,-123.247127,49.259273
VAD10189,Nine on the Park (6),Vancouver,V6T 0A3,BC,VBL10158,Residential,CanadaPost,6288 Eagles Drive,-123.247091,49.259229
VAD10155,Logan Lane (C6),Vancouver,V6T 2K9,BC,VBL10226,Residential,CanadaPost,6212 Logan Lane,-123.245803,49.259245
VAD10061,The Mews - Retail,Vancouver,V6S 0B1,BC,VBL10165,Commercial,CanadaPost,3335 Wesbrook Mall,-123.235504,49.25455
VAD10066,The Mews - Retail,Vancouver,V6S 0B9,BC,VBL10165,Commercial,CanadaPost,3322 Shrum Lane,-123.235906,49.254571
VAD11139,Village Square - Retail,Vancouver,V6S 0J7,BC,VBL10170,Commercial,CanadaPost,3339 Shrum Lane,-123.235873,49.254085
VAD11058,The Balmoral,Vancouver,V6T 2H1,BC,VBL10175,NeighbourhoodBldg,CanadaPost,5615 Hampton Place,-123.232971,49.258451
VAD10112,Logan Lane (D8),Vancouver,V6T 2K9,BC,VBL10226,Residential,CanadaPost,6246 Logan Lane,-123.245776,49.258758
VAD10117,Logan Lane (D9),Vancouver,V6T 2K9,BC,VBL10226,Residential,CanadaPost,6242 Logan Lane,-123.245785,49.25877
VAD10119,Logan Lane (D10),Vancouver,V6T 2K9,BC,VBL10226,Residential,CanadaPost,6244 Logan Lane,-123.245826,49.258797
VAD10081,The Mews - Retail,Vancouver,V6S 0B1,BC,VBL10165,Commercial,CanadaPost,3323 Wesbrook Mall,-123.235626,49.254699
VAD10082,Tapestry South - Retail,Vancouver,V6S 0A8,BC,VBL10182,Commercial,CanadaPost,3378 Wesbrook Mall,-123.234808,49.254163
VAD10040,TRIUMF House,Vancouver,V6T 2L6,BC,VBL10320,OtherBuilding,CanadaPost,5835 Thunderbird Boulevard,-123.241092,49.262078
VAD10114,MBA House - Retail,Vancouver,V6S 0B9,BC,VBL10403,Commercial,CanadaPost,3388 Shrum Lane,-123.235411,49.253903
VAD10120,MBA House - Retail,Vancouver,V6S 0B1,BC,VBL10403,Commercial,CanadaPost,3381 Wesbrook Mall,-123.235083,49.254027
VAD10077,The Mews - Retail,Vancouver,V6S 0B1,BC,VBL10165,Commercial,CanadaPost,3311 Wesbrook Mall,-123.235727,49.254838
VAD10560,David Strangway - Retail,Vancouver,V6T 1Z3,BC,VBL10070,Commercial,CanadaPost,5970 University Boulevard,-123.24641,49.266011
VAD10563,David Strangway - Retail,Vancouver,V6T 1Z3,BC,VBL10070,Commercial,CanadaPost,5990 University Boulevard,-123.246716,49.265965
VAD11169,David Strangway - Retail,Vancouver,V6T 1Z3,BC,VBL10070,Commercial,CanadaPost,5980 University Boulevard,-123.246515,49.265997
VAD10789,Westchester (B4),Vancouver,V6T 2J9,BC,VBL10220,Residential,CanadaPost,2586 West Mall,-123.249266,49.257149
VAD10795,Westchester (C4),Vancouver,V6T 2J9,BC,VBL10220,Residential,CanadaPost,2570 West Mall,-123.249474,49.257411
VAD11022,Logan Lane (B5),Vancouver,V6T 2K8,BC,VBL10226,Residential,CanadaPost,2551 East Mall,-123.245311,49.258939
VAD10778,Westchester (G1),Vancouver,V6T 2K1,BC,VBL10220,Residential,CanadaPost,6381 Larkin Drive,-123.248847,49.257386
VAD10779,Westchester (G2),Vancouver,V6T 2K1,BC,VBL10220,Residential,CanadaPost,6383 Larkin Drive,-123.248859,49.257361
VAD10140,Logan Lane (D7),Vancouver,V6T 2K9,BC,VBL10226,Residential,CanadaPost,6248 Logan Lane,-123.245756,49.258711
VAD10806,Westchester (F2),Vancouver,V6T 2K1,BC,VBL10220,Residential,CanadaPost,6373 Larkin Drive,-123.249065,49.257512
VAD10160,Logan Lane (D2),Vancouver,V6T 2K9,BC,VBL10226,Residential,CanadaPost,6260 Logan Lane,-123.24566,49.258594
VAD10452,Stirling House - Townhouse,Vancouver,V6T 0A4,BC,VBL10289,Residential,CanadaPost,6088 Iona Drive,-123.252757,49.270457
VAD10064,Tapestry North - Retail,Vancouver,V6S 0A8,BC,VBL10137,Commercial,CanadaPost,3308 Wesbrook Mall,-123.235411,49.254953
VAD10071,The Mews - Retail,Vancouver,V6S 0B1,BC,VBL10165,Commercial,CanadaPost,3340 Shrum Lane,-123.235478,49.254273
VAD10780,Westchester (G3),Vancouver,V6T 2K1,BC,VBL10220,Residential,CanadaPost,6385 Larkin Drive,-123.248901,49.257269
VAD10788,Westchester (G4),Vancouver,V6T 2K1,BC,VBL10220,Residential,CanadaPost,6387 Larkin Drive,-123.248913,49.257244
VAD11141,Village Square - Retail,Vancouver,V6S 0J7,BC,VBL10170,Commercial,CanadaPost,3337 Shrum Lane,-123.235952,49.254185
VAD10391,Somerset (E2),Vancouver,V6T 2K5,BC,VBL10147,Residential,CanadaPost,6380 Larkin Drive,-123.247983,49.256378
VAD11056,The Mews - Retail,Vancouver,V6S 0E4,BC,VBL10165,Commercial,CanadaPost,5920 Berton Avenue,-123.235988,49.254787
VAD10110,Logan Lane (D5),Vancouver,V6T 2K9,BC,VBL10226,Residential,CanadaPost,6250 Logan Lane,-123.245704,49.258671
VAD10803,Westchester (E4),Vancouver,V6T 2K1,BC,VBL10220,Residential,CanadaPost,6367 Larkin Drive,-123.24909,49.257582
VAD10800,Westchester (E1),Vancouver,V6T 2K1,BC,VBL10220,Residential,CanadaPost,6361 Larkin Drive,-123.249206,49.25774
VAD10801,Westchester (E2),Vancouver,V6T 2K1,BC,VBL10220,Residential,CanadaPost,6363 Larkin Drive,-123.249206,49.257683
VAD10805,Westchester (F1),Vancouver,V6T 2K1,BC,VBL10220,Residential,CanadaPost,6371 Larkin Drive,-123.249074,49.257563
VAD10802,Westchester (E3),Vancouver,V6T 2K1,BC,VBL10220,Residential,CanadaPost,6365 Larkin Drive,-123.249152,49.257617
VAD10035,Logan Lane (D6),Vancouver,V6T 2K9,BC,VBL10226,Residential,CanadaPost,6252 Logan Lane,-123.245744,49.258696
VAD10807,Westchester (F3),Vancouver,V6T 2K1,BC,VBL10220,Residential,CanadaPost,6375 Larkin Drive,-123.249007,49.257441
VAD11042,Westchester (F4),Vancouver,V6T 2K1,BC,VBL10220,Residential,CanadaPost,6377 Larkin Drive,-123.248953,49.257406
VAD11060,Tapestry North - Retail,Vancouver,V6S 0A8,BC,VBL10137,Commercial,CanadaPost,3348 Wesbrook Mall,-123.235059,49.25447
VAD11066,The Mews - Retail,Vancouver,V6S 0E4,BC,VBL10165,Commercial,CanadaPost,5910 Berton Avenue,-123.23587,49.254828
VAD10614,Granite Terrace 2 - Retail,Vancouver,V6S 0B3,BC,VBL10414,Commercial,CanadaPost,5905 Berton Avenue,-123.235979,49.255001
VAD11068,The Mews - Retail,Vancouver,V6S 0B9,BC,VBL10165,Commercial,CanadaPost,3332 Shrum Lane,-123.235871,49.254466
VAD11064,The Mews - Retail,Vancouver,V6S 0B1,BC,VBL10165,Commercial,CanadaPost,3337 Wesbrook Mall,-123.235475,49.254515
VAD11070,Tapestry North - Retail,Vancouver,V6S 0A8,BC,VBL10137,Commercial,CanadaPost,3358 Wesbrook Mall,-123.234979,49.254372
VAD11072,Telus Hub,Vancouver,V6T 1W5,BC,VBL10179,OtherBuilding,CanadaPost,5895 Berton Avenue,-123.235485,49.255187
VAD11059,The Chatham,Vancouver,V6T 2G6,BC,VBL10254,NeighbourhoodBldg,CanadaPost,5775 Hampton Place,-123.236135,49.258558
VAD11027,Cypress House,Vancouver,V6S 0K4,BC,VBL10322,NeighbourhoodBldg,CanadaPost,5988 Gray Avenue,-123.234847,49.251996
VAD10397,Somerset (B1),Vancouver,V6T 2K5,BC,VBL10147,Residential,CanadaPost,6366 Larkin Drive,-123.247985,49.256698
VAD10413,Somerset (I1),Vancouver,V6T 2K6,BC,VBL10147,Residential,CanadaPost,2612 West Mall,-123.24844,49.256142
VAD10399,Somerset (F2),Vancouver,V6T 2K5,BC,VBL10147,Residential,CanadaPost,6386 Larkin Drive,-123.248252,49.256695
VAD10400,Somerset (B3),Vancouver,V6T 2K5,BC,VBL10147,Residential,CanadaPost,6370 Larkin Drive,-123.247813,49.256488
VAD10392,Somerset (G2),Vancouver,V6T 2K6,BC,VBL10147,Residential,CanadaPost,2606 West Mall,-123.248713,49.256474
VAD10726,Coast - East Apartment,Vancouver,V6T 0B1,BC,VBL10300,NeighbourhoodBldg,CanadaPost,6063 Iona Drive,-123.252459,49.270844
VAD10431,Somerset (H1),Vancouver,V6T 2K6,BC,VBL10147,Residential,CanadaPost,2608 West Mall,-123.248607,49.256345
VAD10206,Logan Lane (E2),Vancouver,V6T 2K9,BC,VBL10226,Residential,CanadaPost,6274 Logan Lane,-123.246369,49.259054
VAD10208,Logan Lane (E9),Vancouver,V6T 2K9,BC,VBL10226,Residential,CanadaPost,6288 Logan Lane,-123.246731,49.258927
VAD10213,Logan Lane (B9),Vancouver,V6T 2K8,BC,VBL10226,Residential,CanadaPost,2543 East Mall,-123.245394,49.259041
VAD10199,Logan Lane (B2),Vancouver,V6T 2K8,BC,VBL10226,Residential,CanadaPost,2557 East Mall,-123.245262,49.258871
VAD10203,Logan Lane (B10),Vancouver,V6T 2K8,BC,VBL10226,Residential,CanadaPost,2541 East Mall,-123.245431,49.259077
VAD10394,Somerset (F1),Vancouver,V6T 2K5,BC,VBL10147,Residential,CanadaPost,6388 Larkin Drive,-123.248364,49.256831
VAD10442,Stirling House,Vancouver,V6T 0A4,BC,VBL10289,NeighbourhoodBldg,CanadaPost,6080 Iona Drive,-123.252501,49.270551
VAD10437,St. James House,Vancouver,V6T 2G2,BC,VBL10115,NeighbourhoodBldg,CanadaPost,5835 Hampton Place,-123.237018,49.257983
VAD10067,The Mews - Retail,Vancouver,V6S 0B1,BC,VBL10165,Commercial,CanadaPost,3329 Wesbrook Mall,-123.235584,49.254647
VAD11124,University Hill Secondary School,Vancouver,V6S 0C6,BC,VBL10242,OtherBuilding,CanadaPost,3228 Ross Drive,-123.23976,49.253872
VAD10209,Logan Lane (A2),Vancouver,V6T 2K8,BC,VBL10226,Residential,CanadaPost,2577 East Mall,-123.244995,49.258507
VAD10211,Logan Lane (D12),Vancouver,V6T 2K9,BC,VBL10226,Residential,CanadaPost,6238 Logan Lane,-123.245859,49.258859
VAD10212,Logan Lane (C2),Vancouver,V6T 2K9,BC,VBL10226,Residential,CanadaPost,6204 Logan Lane,-123.24565,49.259299
VAD10202,Logan Lane (E8),Vancouver,V6T 2K9,BC,VBL10226,Residential,CanadaPost,6286 Logan Lane,-123.246709,49.258934
VAD10204,Logan Lane (B11),Vancouver,V6T 2K8,BC,VBL10226,Residential,CanadaPost,2537 East Mall,-123.245441,49.259089
VAD10361,Pathways - East,Vancouver,V6S 0A3,BC,VBL10239,NeighbourhoodBldg,CanadaPost,5779 Birney Avenue,-123.233108,49.254535
VAD10198,Logan Lane (B3),Vancouver,V6T 2K8,BC,VBL10226,Residential,CanadaPost,2553 East Mall,-123.245274,49.258886
VAD10100,Old Barn Community Centre,Vancouver,V6T 1Z4,BC,VBL10157,NeighbourhoodBldg,CanadaPost,6308 Thunderbird Boulevard,-123.248274,49.259014
VAD10134,MBA House,Vancouver,V6T 1Z4,BC,VBL10403,CampusBuilding,CanadaPost,3385 Wesbrook Mall,-123.235018,49.253948
VAD10552,Coast - Cityhome,Vancouver,V6T 2J5,BC,VBL10297,Residential,CanadaPost,6094 Chancellor Mews,-123.253423,49.270898
VAD10741,TRIUMF,Vancouver,V6T 2A3,BC,VBL10132,Complex,CampusMail,4004 Wesbrook Mall,-123.230881,49.247585
VAD10774,Wesbrook Professional Centre,Vancouver,V6S 0C8,BC,VBL10166,NeighbourhoodBldg,CanadaPost,3313 Shrum Lane,-123.236414,49.254385
VAD10781,Wesbrook Community Centre,Vancouver,V6S 0H3,BC,VBL10168,NeighbourhoodBldg,CanadaPost,3335 Webber Lane,-123.237267,49.254053
VAD10826,Carey Centre,Vancouver,V6T 1J6,BC,VBL10257,OtherBuilding,CanadaPost,5920 Iona Drive,-123.249012,49.271434
VAD10828,Carey Hall (Carey Theological College),Vancouver,V6T 1J6,BC,VBL10208,OtherBuilding,CanadaPost,1815 Wesbrook Mall,-123.248494,49.271734
VAD11034,Donald Rix Building,Vancouver,V6T 1Z3,BC,VBL10129,OtherBuilding,CampusMail,2389 Health Sciences Mall,-123.246379,49.2622
VAD11179,Walter H. Gage Residence - Temporary Front Desk,Vancouver,V6T 1K2,BC,VBL10263,Complex,CampusMail,6002 Walter Gage Road,-123.249901,49.270101
VAD10453,Stirling House - Townhouse,Vancouver,V6T 0A4,BC,VBL10289,Residential,CanadaPost,6086 Iona Drive,-123.252682,49.270491
VAD10530,Chancellor Hall - Cityhome (3),Vancouver,V6T 2L5,BC,VBL10290,Residential,CanadaPost,5982 Chancellor Mews,-123.250599,49.272191
VAD10531,Chancellor Hall - Cityhome (4),Vancouver,V6T 2L5,BC,VBL10290,Residential,CanadaPost,5984 Chancellor Mews,-123.250685,49.272154
VAD10532,Chancellor Hall - Cityhome (5),Vancouver,V6T 2L5,BC,VBL10290,Residential,CanadaPost,5986 Chancellor Mews,-123.250751,49.272131
VAD10533,Chancellor Hall - Cityhome (6),Vancouver,V6T 2L5,BC,VBL10290,Residential,CanadaPost,5988 Chancellor Mews,-123.250777,49.272129
VAD10901,Coast - Townhouse (5),Vancouver,V6T 2J5,BC,VBL10277,Residential,CanadaPost,6070 Chancellor Mews,-123.252923,49.271203
VAD10900,Coast - Townhouse (4),Vancouver,V6T 2J5,BC,VBL10277,Residential,CanadaPost,6076 Chancellor Mews,-123.253012,49.271157
VAD10899,Coast - Townhouse (3),Vancouver,V6T 2J5,BC,VBL10277,Residential,CanadaPost,6080 Chancellor Mews,-123.253083,49.271117
VAD10898,Coast - Townhouse (2),Vancouver,V6T 2J5,BC,VBL10277,Residential,CanadaPost,6086 Chancellor Mews,-123.253148,49.271079
VAD10156,Logan Lane (C13),Vancouver,V6T 2K9,BC,VBL10226,Residential,CanadaPost,6228 Logan Lane,-123.246071,49.25915
VAD10157,Logan Lane (A10),Vancouver,V6T 2K8,BC,VBL10226,Residential,CanadaPost,2563 East Mall,-123.245171,49.258769
VAD10220,Central - Retail,Vancouver,V6T 0C4,BC,VBL10356,Commercial,CanadaPost,6005 University Boulevard,-123.246873,49.266293
VAD10265,Folio - Cityhome (A),Vancouver,V6T 2L5,BC,VBL10309,Residential,CanadaPost,5952 Chancellor Mews,-123.249934,49.272398
VAD10266,Folio - Cityhome (B),Vancouver,V6T 2L5,BC,VBL10309,Residential,CanadaPost,5958 Chancellor Mews,-123.249975,49.272383
VAD10033,3800 Wesbrook,Vancouver,V6S 2L9,BC,VBL10236,OtherBuilding,CanadaPost,3800 Wesbrook Mall,-123.231067,49.250109
VAD10897,Coast - Townhouse (1),Vancouver,V6T 2J5,BC,VBL10277,NeighbourhoodBldg,CanadaPost,6090 Chancellor Mews,-123.253221,49.271035
VAD10105,Pacific,Vancouver,V6S 0B5,BC,VBL10169,NeighbourhoodBldg,CanadaPost,5928 Birney Avenue,-123.235166,49.253427
VAD11051,Eton - Apartments,Vancouver,V6S 0K7,BC,VBL10136,NeighbourhoodBldg,CanadaPost,5687 Gray Avenue,-123.231247,49.253124
VAD11061,Eton - Highrise,Vancouver,V6S 0K8,BC,VBL10135,NeighbourhoodBldg,CanadaPost,3487 Binning Road,-123.230361,49.253455
VAD11077,The Residences at Nobel Park - Highrise,Vancouver,V6S 0L3,BC,VBL10353,NeighbourhoodBldg,CanadaPost,3533 Ross Drive,-123.235299,49.250845
VAD11078,The Residences at Nobel Park - Apartment,Vancouver,V6S 0L3,BC,VBL10353,NeighbourhoodBldg,CanadaPost,3563 Ross Drive,-123.234875,49.250894
VAD10012,Hebb Building,Vancouver,V6T 1Z1,BC,VBL10047,CampusBuilding,CampusMail,2045 East Mall,-123.251824,49.26617
VAD10099,Old Auditorium,Vancouver,V6T 1Z2,BC,VBL10335,CampusBuilding,CampusMail,6344 Memorial Road,-123.255824,49.266996
VAD10142,Hector J. MacLeod Building,Vancouver,V6T 1Z4,BC,VBL10099,CampusBuilding,CampusMail,2356 Main Mall,-123.249485,49.261486
VAD10228,Green College - Principal's Residence,Vancouver,V6T 1Z1,BC,VBL10190,CampusBuilding,CampusMail,6205 Cecil Green Park Road,-123.256917,49.270922
VAD10906,Chemistry Physics Building,Vancouver,V6T 1Z1,BC,VBL10327,CampusBuilding,CampusMail,6221 University Boulevard,-123.25128,49.265738
VAD10626,AYO Smart Home,Vancouver,V6T 1Z3,BC,VBL10294,CampusBuilding,CampusMail,5935 Agronomy Road,-123.243355,49.262982
VAD10426,St Mark's Duplex (5B),Vancouver,V6T 0A1,BC,VBL10279,Residential,CanadaPost,5932 Chancellor Boulevard,-123.249736,49.272739
VAD10285,Folio - Duplex (1B),Vancouver,V6T 0A1,BC,VBL10291,Residential,CanadaPost,5992 Chancellor Boulevard,-123.250982,49.272398
VAD10816,Berwick Child Development Centre,Vancouver,V6T 1X7,BC,VBL10155,CampusBuilding,CampusMail,2765 Osoyoos Crescent,-123.238824,49.260906
VAD10840,Brock Hall,Vancouver,V6T 1Z1,BC,VBL10331,CampusBuilding,CampusMail,1874 East Mall,-123.251856,49.268518
VAD10276,Forest Sciences Centre,Vancouver,V6T 1Z4,BC,VBL10119,CampusBuilding,CampusMail,2424 Main Mall,-123.248814,49.260474
VAD10358,Frederic Wood Theatre,Vancouver,V6T 1Z2,BC,VBL10405,CampusBuilding,CampusMail,6354 Crescent Road,-123.256754,49.268225
VAD10421,Sopron House,Vancouver,V6T 1R9,BC,VBL10075,CampusBuilding,CampusMail,2730 Acadia Road,-123.23529,49.262198
VAD10027,Landscape Operations Building,Vancouver,V6T 1Z4,BC,VBL10097,IndoorArea,CampusMail,2333 Lower Mall,-123.254794,49.260522
VAD10908,Acadia Park Residence - Tennis Crescent (2639),Vancouver,V6T 2C1,BC,VBL10436,Residential,CampusMail,2639 Tennis Crescent,-123.237867,49.263574
VAD10909,Acadia Park Residence - Melfa Lane (2508),Vancouver,V6T 2C6,BC,VBL10258,Residential,CampusMail,2508 Melfa Lane,-123.237679,49.265149
VAD10910,Acadia Park Residence - Melfa Lane (2636),Vancouver,V6T 2C6,BC,VBL10258,Residential,CampusMail,2636 Melfa Lane,-123.236507,49.263604
VAD10911,Acadia Park Residence - Montgomery Place (5630),Vancouver,V6T 2C7,BC,VBL10439,Residential,CampusMail,5630 Montgomery Place,-123.239002,49.264629
VAD10912,Acadia Park Residence - Melfa Lane (2515),Vancouver,V6T 2C5,BC,VBL10258,Residential,CampusMail,2515 Melfa Lane,-123.237641,49.264754
VAD10913,Acadia Park Residence - Montgomery Place (5612),Vancouver,V6T 2C7,BC,VBL10439,Residential,CampusMail,5612 Montgomery Place,-123.238442,49.264763
VAD10916,Acadia Park Residence - Tennis Crescent (2632),Vancouver,V6T 2E1,BC,VBL10436,Residential,CampusMail,2632 Tennis Crescent,-123.237786,49.263689
VAD10917,Acadia Park Residence - Tennis Crescent (2653),Vancouver,V6T 2C1,BC,VBL10436,Residential,CampusMail,2653 Tennis Crescent,-123.237626,49.263282
VAD10918,Acadia Park Residence - Melfa Lane (2616),Vancouver,V6T 2C6,BC,VBL10258,Residential,CampusMail,2616 Melfa Lane,-123.236779,49.26406
VAD10919,Acadia Park Residence - Melfa Lane (2642),Vancouver,V6T 2C6,BC,VBL10258,Residential,CampusMail,2642 Melfa Lane,-123.236324,49.263382
VAD10920,Acadia Park Residence - Montgomery Place (5606),Vancouver,V6T 2C7,BC,VBL10439,Residential,CampusMail,5606 Montgomery Place,-123.238314,49.264848
VAD10921,Acadia Park Residence - Melfa Lane (2503),Vancouver,V6T 2C5,BC,VBL10258,Residential,CampusMail,2503 Melfa Lane,-123.237858,49.264937
VAD10922,Acadia Park Residence - Melfa Lane (2629),Vancouver,V6T 2C5,BC,VBL10258,Residential,CampusMail,2629 Melfa Lane,-123.236818,49.263645
VAD10923,Acadia Park Residence - Yalta Place (5510),Vancouver,V6T 2C2,BC,VBL10438,Residential,CampusMail,5510 Yalta Place,-123.237452,49.264307
VAD10924,Acadia Park Residence - Yalta Place (5504),Vancouver,V6T 2C2,BC,VBL10438,Residential,CampusMail,5504 Yalta Place,-123.237287,49.264345
VAD10925,Acadia Park Residence - Melfa Lane (2618),Vancouver,V6T 2C6,BC,VBL10258,Residential,CampusMail,2618 Melfa Lane,-123.236655,49.264026
VAD10926,Acadia Park Residence - Tennis Crescent (2664),Vancouver,V6T 2E1,BC,VBL10436,Residential,CampusMail,2664 Tennis Crescent,-123.237211,49.263069
VAD10927,Acadia Park Residence - Montgomery Place (5638),Vancouver,V6T 2C7,BC,VBL10439,Residential,CampusMail,5638 Montgomery Place,-123.239195,49.264535
VAD10928,Acadia Park Residence - Montgomery Place (5631),Vancouver,V6T 2C8,BC,VBL10439,Residential,CampusMail,5631 Montgomery Place,-123.239151,49.264771
VAD10929,Acadia Park Residence - Yalta Place (5606),Vancouver,V6T 2C2,BC,VBL10438,Residential,CampusMail,5606 Yalta Place,-123.237829,49.264235
VAD10930,Acadia Park Residence - Melfa Lane (2624),Vancouver,V6T 2C6,BC,VBL10258,Residential,CampusMail,2624 Melfa Lane,-123.236709,49.263826
VAD10656,Fairview Crescent Residence (Unit 25),Vancouver,V6T 2B8,BC,VBL10198,Residential,CampusMail,2611 Fairview Crescent,-123.240732,49.26304
VAD10657,Fairview Crescent Residence (Unit 25),Vancouver,V6T 2B8,BC,VBL10198,Residential,CampusMail,2613 Fairview Crescent,-123.240675,49.263037
VAD10658,Fairview Crescent Residence (Unit 25),Vancouver,V6T 2B8,BC,VBL10198,Residential,CampusMail,2601 Fairview Crescent,-123.240784,49.263089
VAD10659,Fairview Crescent Residence (Unit 25),Vancouver,V6T 2B8,BC,VBL10198,Residential,CampusMail,2605 Fairview Crescent,-123.240804,49.263028
VAD10660,Fairview Crescent Residence (Unit 25),Vancouver,V6T 2B8,BC,VBL10198,Residential,CampusMail,2607 Fairview Crescent,-123.240798,49.263018
VAD10661,Fairview Crescent Residence (Unit 25),Vancouver,V6T 2B8,BC,VBL10198,Residential,CampusMail,2609 Fairview Crescent,-123.240776,49.263012
VAD10662,Fairview Crescent Residence (Unit 25) ,Vancouver,V6T 2B8,BC,VBL10198,Residential,CampusMail,2603 Fairview Crescent,-123.24078,49.263035
VAD10664,Fairview Crescent Residence (Unit 26),Vancouver,V6T 2B9,BC,VBL10193,Residential,CampusMail,2602 Fairview Crescent,-123.240926,49.263175
VAD10665,Fairview Crescent Residence (Unit 26),Vancouver,V6T 2B9,BC,VBL10193,Residential,CampusMail,2606 Fairview Crescent,-123.240996,49.263223
VAD10666,Fairview Crescent Residence (Unit 26),Vancouver,V6T 2B9,BC,VBL10193,Residential,CampusMail,2610 Fairview Crescent,-123.240956,49.263234
VAD10931,Acadia Park Residence - Tennis Crescent (2650),Vancouver,V6T 2E1,BC,VBL10436,Residential,CampusMail,2650 Tennis Crescent,-123.23743,49.263335
VAD10932,Acadia Park Residence - Yalta Place (5601),Vancouver,V6T 1L7,BC,VBL10438,Residential,CampusMail,5601 Yalta Place,-123.237677,49.264437
VAD10933,Acadia Park Residence - Montgomery Place (5621),Vancouver,V6T 2C8,BC,VBL10439,Residential,CampusMail,5621 Montgomery Place,-123.238947,49.264829
VAD10934,Acadia Park Residence - Tennis Crescent (2637),Vancouver,V6T 2C1,BC,VBL10436,Residential,CampusMail,2637 Tennis Crescent,-123.237965,49.263646
VAD10935,Acadia Park Residence - Tennis Crescent (2623),Vancouver,V6T 2C1,BC,VBL10436,Residential,CampusMail,2623 Tennis Crescent,-123.238208,49.263905
VAD10936,Acadia Park Residence - Montgomery Place (5628),Vancouver,V6T 2C7,BC,VBL10439,Residential,CampusMail,5628 Montgomery Place,-123.23883,49.26447
VAD10937,Acadia Park Residence - Melfa Lane (2602),Vancouver,V6T 2C6,BC,VBL10258,Residential,CampusMail,2602 Melfa Lane,-123.23718,49.264522
VAD10938,Acadia Park Residence - Montgomery Place (5601),Vancouver,V6T 2C8,BC,VBL10439,Residential,CampusMail,5601 Montgomery Place,-123.238134,49.265064
VAD10482,Acadia House - 3 (106-110),Vancouver,V6T 1R9,BC,VBL10308,Residential,CampusMail,2720 Acadia Road,-123.235502,49.262682
VAD10831,Networks of Centres of Excellence,Vancouver,V6T 1Z4,BC,VBL10065,Occupant,CampusMail,2125 East Mall,-123.25026,49.265013
VAD10544,Chancellor House - Townhouse (3),Vancouver,V6T 2J5,BC,VBL10387,Residential,CanadaPost,6010 Chancellor Mews,-123.25161,49.271809
VAD10541,Chancellor House - Townhouse (2),Vancouver,V6T 2J5,BC,VBL10387,Residential,CanadaPost,6018 Chancellor Mews,-123.251708,49.271774
VAD10538,Chancellor House - Townhouse (1),Vancouver,V6T 2J5,BC,VBL10387,Residential,CanadaPost,6022 Chancellor Mews,-123.251832,49.271734
VAD10545,Chancellor House - Townhouse (4),Vancouver,V6T 2J5,BC,VBL10387,Residential,CanadaPost,6006 Chancellor Mews,-123.251532,49.27185
VAD10268,Folio - Duplex (2C),Vancouver,V6T 0A1,BC,VBL10291,Residential,CanadaPost,5988 Chancellor Boulevard,-123.2509,49.272445
VAD10874,Acadia Park Presidents Row (102F),Vancouver,V6T 1L5,BC,VBL10295,Residential,CampusMail,5519 Presidents Row,-123.238803,49.265334
VAD10875,Acadia Park Presidents Row (102G),Vancouver,V6T 1L5,BC,VBL10295,Residential,CampusMail,5517 Presidents Row,-123.238762,49.265349
VAD10876,Acadia Park Presidents Row (103B),Vancouver,V6T 1L5,BC,VBL10295,Residential,CampusMail,5615 Presidents Row,-123.239788,49.265016
VAD10877,Acadia Park Presidents Row (103C),Vancouver,V6T 1L5,BC,VBL10295,Residential,CampusMail,5611 Presidents Row,-123.239757,49.265027
VAD10878,Acadia Park Presidents Row (103D),Vancouver,V6T 1L5,BC,VBL10295,Residential,CampusMail,5609 Presidents Row,-123.239665,49.26506
VAD10879,Acadia Park Presidents Row (103E),Vancouver,V6T 1L5,BC,VBL10295,Residential,CampusMail,5607 Presidents Row,-123.239632,49.265071
VAD10880,Acadia Park Presidents Row (103G),Vancouver,V6T 1L5,BC,VBL10295,Residential,CampusMail,5603 Presidents Row,-123.239434,49.265113
VAD10881,Acadia Park Presidents Row (103F),Vancouver,V6T 1L5,BC,VBL10295,Residential,CampusMail,5605 Presidents Row,-123.239469,49.2651
VAD10891,Acadia Park Presidents Row (103A),Vancouver,V6T 1L5,BC,VBL10295,Residential,CampusMail,5617 Presidents Row,-123.239944,49.264948
VAD10948,Acadia Park Residence - Melfa Lane (2504),Vancouver,V6T 2C6,BC,VBL10258,Residential,CampusMail,2504 Melfa Lane,-123.23773,49.265214
VAD10949,Acadia Park Residence - Montgomery Place (5634),Vancouver,V6T 2C7,BC,VBL10439,Residential,CampusMail,5634 Montgomery Place,-123.239098,49.264582
VAD10950,Acadia Park Residence - Yalta Place (5644),Vancouver,V6T 2C2,BC,VBL10438,Residential,CampusMail,5644 Yalta Place,-123.238709,49.263823
VAD10677,Fairview Crescent Residence (Unit 28),Vancouver,V6T 2B9,BC,VBL10193,Residential,CampusMail,2628 Fairview Crescent,-123.240646,49.263364
VAD10678,Fairview Crescent Residence (Unit 28),Vancouver,V6T 2B9,BC,VBL10193,Residential,CampusMail,2626 Fairview Crescent,-123.240647,49.263364
VAD10679,Fairview Crescent Residence (Unit 28),Vancouver,V6T 2B9,BC,VBL10193,Residential,CampusMail,2622 Fairview Crescent,-123.240674,49.2633
VAD10680,Fairview Crescent Residence (Unit 28),Vancouver,V6T 2B9,BC,VBL10193,Residential,CampusMail,2624 Fairview Crescent,-123.240649,49.263335
VAD10681,Acadia Park Residence - Tennis Crescent (2638),Vancouver,V6T 2E1,BC,VBL10436,Residential,CampusMail,2638 Tennis Crescent,-123.237681,49.263597
VAD10682,Acadia Park Residence - Yalta Place (5603),Vancouver,V6T 1L7,BC,VBL10438,Residential,CampusMail,5603 Yalta Place,-123.237735,49.264436
VAD10684,Acadia Park Residence - Montgomery Place (5603),Vancouver,V6T 2C8,BC,VBL10439,Residential,CampusMail,5603 Montgomery Place,-123.238279,49.265013
VAD10696,Acadia Park Residence - Fairview Place (5603),Vancouver,V6T 2E2,BC,VBL10437,Residential,CampusMail,5603 Fairview Place,-123.236792,49.263245
VAD10697,Acadia Park Residence - Melfa Lane (2502),Vancouver,V6T 2C6,BC,VBL10258,Residential,CampusMail,2502 Melfa Lane,-123.237758,49.265251
VAD10698,Acadia Park Residence - Melfa Lane (2609),Vancouver,V6T 2C5,BC,VBL10258,Residential,CampusMail,2609 Melfa Lane,-123.237011,49.26402
VAD10961,Acadia Park Residence - Yalta Place (5615),Vancouver,V6T 1L7,BC,VBL10438,Residential,CampusMail,5615 Yalta Place,-123.238076,49.264355
VAD10962,Acadia Park Residence - Montgomery Place (5626),Vancouver,V6T 2C7,BC,VBL10439,Residential,CampusMail,5626 Montgomery Place,-123.238758,49.264537
VAD10963,Acadia Park Residence - Montgomery Place (5623),Vancouver,V6T 2C8,BC,VBL10439,Residential,CampusMail,5623 Montgomery Place,-123.238989,49.264912
VAD10964,Acadia Park Residence - Montgomery Place (5643),Vancouver,V6T 2C8,BC,VBL10439,Residential,CampusMail,5643 Montgomery Place,-123.239652,49.264657
VAD10965,Acadia Park Residence - Montgomery Place (5600),Vancouver,V6T 2C7,BC,VBL10439,Residential,CampusMail,5600 Montgomery Place,-123.238155,49.264917
VAD10966,Acadia Park Residence - Montgomery Place (5619),Vancouver,V6T 2C8,BC,VBL10439,Residential,CampusMail,5619 Montgomery Place,-123.238821,49.264826
VAD10968,Acadia Park Residence - Yalta Place (5611),Vancouver,V6T 1L7,BC,VBL10438,Residential,CampusMail,5611 Yalta Place,-123.237975,49.264404
VAD10969,Acadia Park Residence - Yalta Place (5647),Vancouver,V6T 1L7,BC,VBL10438,Residential,CampusMail,5647 Yalta Place,-123.238927,49.264019
VAD10970,Acadia Park Residence - Yalta Place (5652),Vancouver,V6T 2C2,BC,VBL10438,Residential,CampusMail,5652 Yalta Place,-123.23895,49.263749
VAD10699,Acadia Park Residence - Tennis Crescent (2658),Vancouver,V6T 2E1,BC,VBL10436,Residential,CampusMail,2658 Tennis Crescent,-123.237356,49.263186
VAD10700,Acadia Park Residence - Fairview Place (5601),Vancouver,V6T 2E2,BC,VBL10437,Residential,CampusMail,5601 Fairview Place,-123.236732,49.263267
VAD10701,Acadia Park Residence - Fairview Place (5611),Vancouver,V6T 2E2,BC,VBL10437,Residential,CampusMail,5611 Fairview Place,-123.236996,49.263163
VAD10702,Acadia Park Residence - Montgomery Place (5605),Vancouver,V6T 2C8,BC,VBL10439,Residential,CampusMail,5605 Montgomery Place,-123.23841,49.265019
VAD10703,Acadia Park Residence - Pearkes Lane (2525),Vancouver,V6T 2C5,BC,VBL10440,Residential,CampusMail,2525 Pearkes Lane,-123.239367,49.26421
VAD10704,Acadia Park Residence - Yalta Place (5619),Vancouver,V6T 1L7,BC,VBL10438,Residential,CampusMail,5619 Yalta Place,-123.238176,49.264312
VAD10707,Acadia Park Residence - Tennis Crescent (2657),Vancouver,V6T 2C1,BC,VBL10436,Residential,CampusMail,2657 Tennis Crescent,-123.237674,49.263111
VAD10685,Acadia Park Residence - Melfa Lane (2603),Vancouver,V6T 2C5,BC,VBL10258,Residential,CampusMail,2603 Melfa Lane,-123.237427,49.26451
VAD10686,Acadia Park Residence - Pearkes Lane (2603),Vancouver,V6T 2C5,BC,VBL10440,Residential,CampusMail,2603 Pearkes Lane,-123.239171,49.263974
VAD10688,Acadia Park Residence - Montgomery Place (5607),Vancouver,V6T 2C8,BC,VBL10439,Residential,CampusMail,5607 Montgomery Place,-123.238442,49.265093
VAD10951,Acadia Park Residence - Montgomery Place (5632),Vancouver,V6T 2C7,BC,VBL10439,Residential,CampusMail,5632 Montgomery Place,-123.239058,49.264609
VAD10952,Acadia Park Residence - Melfa Lane (2505),Vancouver,V6T 2C5,BC,VBL10258,Residential,CampusMail,2505 Melfa Lane,-123.237832,49.264899
VAD10953,Acadia Park Residence - Yalta Place (5645),Vancouver,V6T 1L7,BC,VBL10438,Residential,CampusMail,5645 Yalta Place,-123.238892,49.264045
VAD10954,Acadia Park Residence - Tennis Crescent (2655),Vancouver,V6T 2C1,BC,VBL10436,Residential,CampusMail,2655 Tennis Crescent,-123.237628,49.263206
VAD10955,Acadia Park Residence - Montgomery Place (5644),Vancouver,V6T 2C7,BC,VBL10439,Residential,CampusMail,5644 Montgomery Place,-123.239344,49.264459
VAD10956,Acadia Park Residence - Melfa Lane (2623),Vancouver,V6T 2C5,BC,VBL10258,Residential,CampusMail,2623 Melfa Lane,-123.236866,49.263769
VAD10957,Acadia Park Residence - Yalta Place (5638),Vancouver,V6T 2C2,BC,VBL10438,Residential,CampusMail,5638 Yalta Place,-123.238534,49.264002
VAD10959,Acadia Park Residence - Yalta Place (5648),Vancouver,V6T 2C2,BC,VBL10438,Residential,CampusMail,5648 Yalta Place,-123.238839,49.263781
VAD10960,Acadia Park Residence - Melfa Lane (2512),Vancouver,V6T 2C6,BC,VBL10258,Residential,CampusMail,2512 Melfa Lane,-123.237705,49.265094
VAD10689,Acadia Park Residence - Tennis Crescent (2627),Vancouver,V6T 2C1,BC,VBL10436,Residential,CampusMail,2627 Tennis Crescent,-123.238175,49.263833
VAD10690,Acadia Park Residence - Montgomery Place (5624),Vancouver,V6T 2C7,BC,VBL10439,Residential,CampusMail,5624 Montgomery Place,-123.238701,49.264556
VAD10691,Acadia Park Residence - Montgomery Place (5642),Vancouver,V6T 2C7,BC,VBL10439,Residential,CampusMail,5642 Montgomery Place,-123.239268,49.264491
VAD10692,Acadia Park Residence - Pearkes Lane (2506),Vancouver,V6T 2C4,BC,VBL10440,Residential,CampusMail,2506 Pearkes Lane,-123.239146,49.264204
VAD10693,Acadia Park Residence - Melfa Lane (2511),Vancouver,V6T 2C5,BC,VBL10258,Residential,CampusMail,2511 Melfa Lane,-123.237713,49.264813
VAD10694,Acadia Park Residence - Melfa Lane (2608),Vancouver,V6T 2C6,BC,VBL10258,Residential,CampusMail,2608 Melfa Lane,-123.237068,49.264423
VAD10695,Acadia Park Residence - Melfa Lane (2607),Vancouver,V6T 2C5,BC,VBL10258,Residential,CampusMail,2607 Melfa Lane,-123.237042,49.264061
VAD10940,Acadia Park Residence - Montgomery Place (5614),Vancouver,V6T 2C7,BC,VBL10439,Residential,CampusMail,5614 Montgomery Place,-123.238498,49.264743
VAD10667,Fairview Crescent Residence (Unit 26),Vancouver,V6T 2B9,BC,VBL10193,Residential,CampusMail,2608 Fairview Crescent,-123.24099,49.263235
VAD10668,Fairview Crescent Residence (Unit 28),Vancouver,V6T 2B9,BC,VBL10193,Residential,CampusMail,2634 Fairview Crescent,-123.240581,49.263291
VAD10669,Fairview Crescent Residence (Unit 26),Vancouver,V6T 2B9,BC,VBL10193,Residential,CampusMail,2612 Fairview Crescent,-123.240897,49.263221
VAD10670,Fairview Crescent Residence (Unit 26) ,Vancouver,V6T 2B9,BC,VBL10193,Residential,CampusMail,2604 Fairview Crescent,-123.240998,49.263219
VAD10671,Fairview Crescent Residence (Unit 28),Vancouver,V6T 2B9,BC,VBL10193,Residential,CampusMail,2630 Fairview Crescent,-123.240628,49.263361
VAD10672,Fairview Crescent Residence (Unit 27),Vancouver,V6T 2B9,BC,VBL10193,Residential,CampusMail,2616 Fairview Crescent,-123.240823,49.263241
VAD10673,Fairview Crescent Residence (Unit 28),Vancouver,V6T 2B9,BC,VBL10193,Residential,CampusMail,2632 Fairview Crescent,-123.240607,49.263336
VAD10674,Fairview Crescent Residence (Unit 27),Vancouver,V6T 2B9,BC,VBL10193,Residential,CampusMail,2620 Fairview Crescent,-123.240756,49.263264
VAD10675,Fairview Crescent Residence (Unit 27),Vancouver,V6T 2B9,BC,VBL10193,Residential,CampusMail,2618 Fairview Crescent,-123.240825,49.2633
VAD10676,Fairview Crescent Residence (Unit 27),Vancouver,V6T 2B9,BC,VBL10193,Residential,CampusMail,2614 Fairview Crescent,-123.240841,49.263241
VAD10941,Acadia Park Residence - Melfa Lane (2520),Vancouver,V6T 2C6,BC,VBL10258,Residential,CampusMail,2520 Melfa Lane,-123.237394,49.264834
VAD10942,Acadia Park Residence - Yalta Place (5612),Vancouver,V6T 2C2,BC,VBL10438,Residential,CampusMail,5612 Yalta Place,-123.237906,49.264091
VAD10943,Acadia Park Residence - Melfa Lane (2604),Vancouver,V6T 2C6,BC,VBL10258,Residential,CampusMail,2604 Melfa Lane,-123.237149,49.264486
VAD10944,Acadia Park Residence - Melfa Lane (2614),Vancouver,V6T 2C6,BC,VBL10258,Residential,CampusMail,2614 Melfa Lane,-123.236809,49.264098
VAD10945,Acadia Park Residence - Pearkes Lane (2515),Vancouver,V6T 2C5,BC,VBL10440,Residential,CampusMail,2515 Pearkes Lane,-123.239561,49.264417
VAD10946,Acadia Park Residence - Tennis Crescent (2645),Vancouver,V6T 2C1,BC,VBL10436,Residential,CampusMail,2645 Tennis Crescent,-123.237745,49.263424
VAD10947,Acadia Park Residence - Tennis Crescent (2661),Vancouver,V6T 2C1,BC,VBL10436,Residential,CampusMail,2661 Tennis Crescent,-123.237546,49.26303
VAD10746,Acadia Park Residence - Yalta Place (5631),Vancouver,V6T 1L7,BC,VBL10438,Residential,CampusMail,5631 Yalta Place,-123.238494,49.264158
VAD10747,Acadia Park Residence - Melfa Lane (2517),Vancouver,V6T 2C5,BC,VBL10258,Residential,CampusMail,2517 Melfa Lane,-123.237616,49.264716
VAD10748,Acadia Park Residence - Tennis Crescent (2626),Vancouver,V6T 2E1,BC,VBL10436,Residential,CampusMail,2626 Tennis Crescent,-123.237892,49.26379
VAD10993,Acadia Park Residence - Montgomery Place (5610),Vancouver,V6T 2C7,BC,VBL10439,Residential,CampusMail,5610 Montgomery Place,-123.238411,49.264791
VAD10994,Acadia Park Residence - Tennis Crescent (2649),Vancouver,V6T 2C1,BC,VBL10436,Residential,CampusMail,2649 Tennis Crescent,-123.237711,49.263344
VAD10996,Acadia Park Residence - Yalta Place (5607),Vancouver,V6T 1L7,BC,VBL10438,Residential,CampusMail,5607 Yalta Place,-123.237851,49.264417
VAD10997,Acadia Park Residence - Pearkes Lane (2609),Vancouver,V6T 2C5,BC,VBL10440,Residential,CampusMail,2609 Pearkes Lane,-123.239152,49.263823
VAD10998,Acadia Park Residence - Yalta Place (5609),Vancouver,V6T 1L7,BC,VBL10438,Residential,CampusMail,5609 Yalta Place,-123.237906,49.264413
VAD10999,Acadia Park Residence - Tennis Crescent (2635),Vancouver,V6T 2C1,BC,VBL10436,Residential,CampusMail,2635 Tennis Crescent,-123.238113,49.263653
VAD11000,Acadia Park Residence - Montgomery Place (5639),Vancouver,V6T 2C8,BC,VBL10439,Residential,CampusMail,5639 Montgomery Place,-123.23953,49.264738
VAD11001,Acadia Park Residence - Melfa Lane (2501),Vancouver,V6T 2C5,BC,VBL10258,Residential,CampusMail,2501 Melfa Lane,-123.237966,49.264982
VAD11002,Acadia Park Residence - Pearkes Lane (2601),Vancouver,V6T 2C5,BC,VBL10440,Residential,CampusMail,2601 Pearkes Lane,-123.239192,49.264014
VAD11003,Acadia Park Residence - Melfa Lane (2639),Vancouver,V6T 2C5,BC,VBL10258,Residential,CampusMail,2639 Melfa Lane,-123.236526,49.263338
VAD10749,Acadia Park Residence - Yalta Place (5643),Vancouver,V6T 1L7,BC,VBL10438,Residential,CampusMail,5643 Yalta Place,-123.238833,49.26406
VAD10750,Acadia Park Residence - Melfa Lane (2620),Vancouver,V6T 2C6,BC,VBL10258,Residential,CampusMail,2620 Melfa Lane,-123.236816,49.263981
VAD10751,Acadia Park Residence - Pearkes Lane (2504),Vancouver,V6T 2C4,BC,VBL10440,Residential,CampusMail,2504 Pearkes Lane,-123.239166,49.264239
VAD10752,Acadia Park Residence - Melfa Lane (2625),Vancouver,V6T 2C5,BC,VBL10258,Residential,CampusMail,2625 Melfa Lane,-123.236833,49.263729
VAD10753,Acadia Park Residence - Yalta Place (5505),Vancouver,V6T 1L7,BC,VBL10438,Residential,CampusMail,5505 Yalta Place,-123.237611,49.264447
VAD10754,Acadia Park Residence - Pearkes Lane (2521),Vancouver,V6T 2C5,BC,VBL10440,Residential,CampusMail,2521 Pearkes Lane,-123.239454,49.264319
VAD10755,Acadia Park Residence - Tennis Crescent (2622),Vancouver,V6T 2E1,BC,VBL10436,Residential,CampusMail,2622 Tennis Crescent,-123.237953,49.263852
VAD10756,Acadia Park Residence - Melfa Lane (2635),Vancouver,V6T 2C5,BC,VBL10258,Residential,CampusMail,2635 Melfa Lane,-123.236785,49.263487
VAD10757,Acadia Park Residence - Montgomery Place (5611),Vancouver,V6T 2C8,BC,VBL10439,Residential,CampusMail,5611 Montgomery Place,-123.238563,49.265008
VAD10758,Acadia Park Residence - Fairview Place (5605),Vancouver,V6T 2E2,BC,VBL10437,Residential,CampusMail,5605 Fairview Place,-123.236825,49.263214
VAD11004,Acadia Park Residence - Montgomery Place (5615),Vancouver,V6T 2C8,BC,VBL10439,Residential,CampusMail,5615 Montgomery Place,-123.238613,49.26495
VAD11006,Acadia Park Residence - Tennis Crescent (2629),Vancouver,V6T 2C1,BC,VBL10436,Residential,CampusMail,2629 Tennis Crescent,-123.238159,49.263792
VAD11007,Acadia Park Residence - Montgomery Place (5641),Vancouver,V6T 2C8,BC,VBL10439,Residential,CampusMail,5641 Montgomery Place,-123.239593,49.264674
VAD11009,Acadia Park Residence - Pearkes Lane (2605),Vancouver,V6T 2C5,BC,VBL10440,Residential,CampusMail,2605 Pearkes Lane,-123.239168,49.263936
VAD11010,Acadia Park Residence - Yalta Place (5616),Vancouver,V6T 2C2,BC,VBL10438,Residential,CampusMail,5616 Yalta Place,-123.237984,49.26403
VAD11011,Acadia Park Residence - Yalta Place (5625),Vancouver,V6T 1L7,BC,VBL10438,Residential,CampusMail,5625 Yalta Place,-123.238355,49.264199
VAD11012,Acadia Park Residence - Pearkes Lane (2502),Vancouver,V6T 2C4,BC,VBL10440,Residential,CampusMail,2502 Pearkes Lane,-123.239194,49.264276
VAD11013,Acadia Park Residence - Montgomery Place (5629),Vancouver,V6T 2C8,BC,VBL10439,Residential,CampusMail,5629 Montgomery Place,-123.239232,49.264827
VAD11015,Acadia Park Residence - Melfa Lane (2518),Vancouver,V6T 2C6,BC,VBL10258,Residential,CampusMail,2518 Melfa Lane,-123.23752,49.264843
VAD10759,Acadia Park Residence - Yalta Place (5639),Vancouver,V6T 1L7,BC,VBL10438,Residential,CampusMail,5639 Yalta Place,-123.238725,49.264106
VAD10760,Acadia Park Residence - Fairview Place (5505),Vancouver,V6T 2E2,BC,VBL10437,Residential,CampusMail,5505 Fairview Place,-123.236672,49.263264
VAD10761,Acadia Park Residence - Yalta Place (5637),Vancouver,V6T 1L7,BC,VBL10438,Residential,CampusMail,5637 Yalta Place,-123.238672,49.264117
VAD10762,Acadia Park Residence - Montgomery Place (5622),Vancouver,V6T 2C7,BC,VBL10439,Residential,CampusMail,5622 Montgomery Place,-123.238585,49.264556
VAD10763,Acadia Park Residence - Fairview Place (5503),Vancouver,V6T 2E2,BC,VBL10437,Residential,CampusMail,5503 Fairview Place,-123.236609,49.263285
VAD10764,Acadia Park Residence - Yalta Place (5613),Vancouver,V6T 1L7,BC,VBL10438,Residential,CampusMail,5613 Yalta Place,-123.238013,49.264364
VAD10765,Acadia Park Residence - Tennis Crescent (2644),Vancouver,V6T 2E1,BC,VBL10436,Residential,CampusMail,2644 Tennis Crescent,-123.237506,49.26351
VAD10710,Acadia Park Residence - Melfa Lane (2621),Vancouver,V6T 2C5,BC,VBL10258,Residential,CampusMail,2621 Melfa Lane,-123.236902,49.263791
VAD10716,Acadia Park Residence - Montgomery Place (5602),Vancouver,V6T 2C7,BC,VBL10439,Residential,CampusMail,5602 Montgomery Place,-123.23821,49.264896
VAD10717,Acadia Park Residence - Pearkes Lane (2503),Vancouver,V6T 2C5,BC,VBL10440,Residential,CampusMail,2503 Pearkes Lane,-123.239748,49.26462
VAD10971,Acadia Park Residence - Tennis Crescent (2633),Vancouver,V6T 2C1,BC,VBL10436,Residential,CampusMail,2633 Tennis Crescent,-123.238092,49.263727
VAD10972,Acadia Park Residence - Melfa Lane (2600),Vancouver,V6T 2C6,BC,VBL10258,Residential,CampusMail,2600 Melfa Lane,-123.237156,49.264612
VAD10973,Acadia Park Residence - Yalta Place (5654),Vancouver,V6T 2C2,BC,VBL10438,Residential,CampusMail,5654 Yalta Place,-123.239051,49.263708
VAD10974,Acadia Park Residence - Yalta Place (5623),Vancouver,V6T 1L7,BC,VBL10438,Residential,CampusMail,5623 Yalta Place,-123.238291,49.264232
VAD10975,Acadia Park Residence - Pearkes Lane (2527),Vancouver,V6T 2C5,BC,VBL10440,Residential,CampusMail,2527 Pearkes Lane,-123.239309,49.26412
VAD10976,Acadia Park Residence - Pearkes Lane (2607),Vancouver,V6T 2C5,BC,VBL10440,Residential,CampusMail,2607 Pearkes Lane,-123.239148,49.263897
VAD10977,Acadia Park Residence - Pearkes Lane (2519),Vancouver,V6T 2C5,BC,VBL10440,Residential,CampusMail,2519 Pearkes Lane,-123.239484,49.264356
VAD10978,Acadia Park Residence - Montgomery Place (5507),Vancouver,V6T 2C8,BC,VBL10439,Residential,CampusMail,5507 Montgomery Place,-123.238152,49.265194
VAD10979,Acadia Park Residence - Montgomery Place (5616),Vancouver,V6T 2C7,BC,VBL10439,Residential,CampusMail,5616 Montgomery Place,-123.238517,49.264719
VAD10980,Acadia Park Residence - Pearkes Lane (2508),Vancouver,V6T 2C4,BC,VBL10440,Residential,CampusMail,2508 Pearkes Lane,-123.239114,49.264168
VAD10718,Acadia Park Residence - Yalta Place (5636),Vancouver,V6T 2C2,BC,VBL10438,Residential,CampusMail,5636 Yalta Place,-123.23839,49.263992
VAD10719,Acadia Park Residence - Montgomery Place (5503),Vancouver,V6T 2C8,BC,VBL10439,Residential,CampusMail,5503 Montgomery Place,-123.237973,49.265211
VAD10720,Acadia Park Residence - Yalta Place (5650),Vancouver,V6T 2C2,BC,VBL10438,Residential,CampusMail,5650 Yalta Place,-123.238889,49.263763
VAD10721,Acadia Park Residence - Montgomery Place (5620),Vancouver,V6T 2C7,BC,VBL10439,Residential,CampusMail,5620 Montgomery Place,-123.238508,49.264618
VAD10723,Acadia Park Residence - Tennis Crescent (2654),Vancouver,V6T 2E1,BC,VBL10436,Residential,CampusMail,2654 Tennis Crescent,-123.237395,49.263263
VAD10727,Acadia Park Residence - Montgomery Place (5627),Vancouver,V6T 2C8,BC,VBL10439,Residential,CampusMail,5627 Montgomery Place,-123.23911,49.264828
VAD10728,Acadia Park Residence - Yalta Place (5604),Vancouver,V6T 2C2,BC,VBL10438,Residential,CampusMail,5604 Yalta Place,-123.237737,49.264297
VAD10729,Acadia Park Residence - Yalta Place (5635),Vancouver,V6T 1L7,BC,VBL10438,Residential,CampusMail,5635 Yalta Place,-123.238612,49.264131
VAD10730,Acadia Park Residence - Yalta Place (5605),Vancouver,V6T 1L7,BC,VBL10438,Residential,CampusMail,5605 Yalta Place,-123.237789,49.264428
VAD10731,Acadia Park Residence - Tennis Crescent (2634),Vancouver,V6T 2E1,BC,VBL10436,Residential,CampusMail,2634 Tennis Crescent,-123.237729,49.263675
VAD10981,Acadia Park Residence - Yalta Place (5610),Vancouver,V6T 2C2,BC,VBL10438,Residential,CampusMail,5610 Yalta Place,-123.237859,49.26412
VAD10982,Acadia Park Residence - Melfa Lane (2510),Vancouver,V6T 2C6,BC,VBL10258,Residential,CampusMail,2510 Melfa Lane,-123.237549,49.265108
VAD10983,Acadia Park Residence - Tennis Crescent (2636),Vancouver,V6T 2E1,BC,VBL10436,Residential,CampusMail,2636 Tennis Crescent,-123.237686,49.263636
VAD10984,Acadia Park Residence - Tennis Crescent (2660),Vancouver,V6T 2E1,BC,VBL10436,Residential,CampusMail,2660 Tennis Crescent,-123.237361,49.263141
VAD10985,Acadia Park Residence - Yalta Place (5646),Vancouver,V6T 2C2,BC,VBL10438,Residential,CampusMail,5646 Yalta Place,-123.238781,49.263799
VAD10987,Acadia Park Residence - Yalta Place (5502),Vancouver,V6T 2C2,BC,VBL10438,Residential,CampusMail,5502 Yalta Place,-123.237171,49.264341
VAD10988,Acadia Park Residence - Yalta Place (5602),Vancouver,V6T 2C2,BC,VBL10438,Residential,CampusMail,5602 Yalta Place,-123.237575,49.264327
VAD10989,Acadia Park Residence - Montgomery Place (5633),Vancouver,V6T 2C8,BC,VBL10439,Residential,CampusMail,5633 Montgomery Place,-123.239213,49.264701
VAD10990,Acadia Park Residence - Melfa Lane (2633),Vancouver,V6T 2C5,BC,VBL10258,Residential,CampusMail,2633 Melfa Lane,-123.236751,49.263576
VAD10991,Acadia Park Residence - Montgomery Place (5609),Vancouver,V6T 2C8,BC,VBL10439,Residential,CampusMail,5609 Montgomery Place,-123.238505,49.265025
VAD10735,Acadia Park Residence - Yalta Place (5608),Vancouver,V6T 2C2,BC,VBL10438,Residential,CampusMail,5608 Yalta Place,-123.237736,49.264131
VAD10736,Acadia Park Residence - Fairview Place (5609),Vancouver,V6T 2E2,BC,VBL10437,Residential,CampusMail,5609 Fairview Place,-123.236931,49.263185
VAD10737,Acadia Park Residence - Melfa Lane (2610),Vancouver,V6T 2C6,BC,VBL10258,Residential,CampusMail,2610 Melfa Lane,-123.236954,49.264383
VAD10738,Acadia Park Residence - Montgomery Place (5636),Vancouver,V6T 2C7,BC,VBL10439,Residential,CampusMail,5636 Montgomery Place,-123.239153,49.264561
VAD10739,Acadia Park Residence - Melfa Lane (2617),Vancouver,V6T 2C5,BC,VBL10258,Residential,CampusMail,2617 Melfa Lane,-123.236943,49.263864
VAD10740,Acadia Park Residence - Melfa Lane (2619),Vancouver,V6T 2C5,BC,VBL10258,Residential,CampusMail,2619 Melfa Lane,-123.236937,49.26383
VAD10745,Acadia Park Residence - Melfa Lane (2601),Vancouver,V6T 2C5,BC,VBL10258,Residential,CampusMail,2601 Melfa Lane,-123.237499,49.264594
VAD10836,Acadia Park Residence - Melfa Lane (2611),Vancouver,V6T 2C5,BC,VBL10258,Residential,CampusMail,2611 Melfa Lane,-123.237031,49.263976
VAD10837,Acadia Park Residence - Tennis Crescent (2630),Vancouver,V6T 2E1,BC,VBL10436,Residential,CampusMail,2630 Tennis Crescent,-123.237827,49.263727
VAD10843,Acadia Park Residence - Montgomery Place (5625),Vancouver,V6T 2C8,BC,VBL10439,Residential,CampusMail,5625 Montgomery Place,-123.239053,49.264847
VAD11185,Fairview Crescent Residence (Unit 16A),Vancouver,V6T 2B8,BC,VBL10198,Residential,CampusMail,2689A Fairview Crescent,-123.23947,49.263176
VAD10846,Acadia Park Residence - Fairview Place (5607),Vancouver,V6T 2E2,BC,VBL10437,Residential,CampusMail,5607 Fairview Place,-123.236886,49.263193
VAD10847,Acadia Park Residence - Tennis Crescent (2643),Vancouver,V6T 2C1,BC,VBL10436,Residential,CampusMail,2643 Tennis Crescent,-123.237775,49.263462
VAD10848,Acadia Park Residence - Tennis Crescent (2652),Vancouver,V6T 2E1,BC,VBL10436,Residential,CampusMail,2652 Tennis Crescent,-123.237422,49.263301
VAD10853,Acadia Park Residence - Tennis Crescent (2625),Vancouver,V6T 2C1,BC,VBL10436,Residential,CampusMail,2625 Tennis Crescent,-123.238189,49.263865
VAD10854,Acadia Park Residence - Yalta Place (5629),Vancouver,V6T 1L7,BC,VBL10438,Residential,CampusMail,5629 Yalta Place,-123.238436,49.26416
VAD10855,Acadia Park Residence - Melfa Lane (2514),Vancouver,V6T 2C6,BC,VBL10258,Residential,CampusMail,2514 Melfa Lane,-123.237682,49.264988
VAD10627,Abdul Ladha Science Student Centre,Vancouver,V6T 1Z1,BC,VBL10163,CampusBuilding,CampusMail,2055 East Mall,-123.251254,49.266062
VAD10857,Acadia Park Residence - Montgomery Place (5509),Vancouver,V6T 2C8,BC,VBL10439,Residential,CampusMail,5509 Montgomery Place,-123.238076,49.265137
VAD10858,Acadia Park Residence - Yalta Place (5503),Vancouver,V6T 1L7,BC,VBL10438,Residential,CampusMail,5503 Yalta Place,-123.23755,49.264457
VAD10859,Acadia Park Presidents Row (101A),Vancouver,V6T 1L5,BC,VBL10295,Residential,CampusMail,5515 Presidents Row,-123.238573,49.265416
VAD10861,Acadia Park Presidents Row (101B),Vancouver,V6T 1L5,BC,VBL10295,Residential,CampusMail,5511 Presidents Row,-123.238448,49.265488
VAD10862,Acadia Park Presidents Row (101C),Vancouver,V6T 1L5,BC,VBL10295,Residential,CampusMail,5509 Presidents Row,-123.238407,49.265503
VAD10864,Acadia Park Presidents Row (101D),Vancouver,V6T 1L5,BC,VBL10295,Residential,CampusMail,5507 Presidents Row,-123.238325,49.265531
VAD10866,Acadia Park Presidents Row (101E),Vancouver,V6T 1L5,BC,VBL10295,Residential,CampusMail,5505 Presidents Row,-123.238289,49.265544
VAD10867,Acadia Park Presidents Row (101F),Vancouver,V6T 1L5,BC,VBL10295,Residential,CampusMail,5503 Presidents Row,-123.238117,49.265576
VAD10869,Acadia Park Presidents Row (102A),Vancouver,V6T 1L5,BC,VBL10295,Residential,CampusMail,5529 Presidents Row,-123.239241,49.26518
VAD10870,Acadia Park Presidents Row (102B),Vancouver,V6T 1L5,BC,VBL10295,Residential,CampusMail,5527 Presidents Row,-123.239109,49.265255
VAD10871,Acadia Park Presidents Row (102C),Vancouver,V6T 1L5,BC,VBL10295,Residential,CampusMail,5525 Presidents Row,-123.239078,49.265266
VAD10872,Acadia Park Presidents Row (102D),Vancouver,V6T 1L5,BC,VBL10295,Residential,CampusMail,5523 Presidents Row,-123.239001,49.265293
VAD10873,Acadia Park Presidents Row (102E),Vancouver,V6T 1L5,BC,VBL10295,Residential,CampusMail,5521 Presidents Row,-123.238968,49.265305
VAD10766,Acadia Park Residence - Pearkes Lane (2507),Vancouver,V6T 2C5,BC,VBL10440,Residential,CampusMail,2507 Pearkes Lane,-123.23968,49.264556
VAD10767,Acadia Park Residence - Tennis Crescent (2648),Vancouver,V6T 2E1,BC,VBL10436,Residential,CampusMail,2648 Tennis Crescent,-123.237453,49.263376
VAD10768,Acadia Park Residence - Melfa Lane (2622),Vancouver,V6T 2C6,BC,VBL10258,Residential,CampusMail,2622 Melfa Lane,-123.236776,49.263907
VAD11016,Acadia Park Residence - Tennis Crescent (2624),Vancouver,V6T 2E1,BC,VBL10436,Residential,CampusMail,2624 Tennis Crescent,-123.237911,49.263814
VAD11017,Acadia Park Residence - Yalta Place (5642),Vancouver,V6T 2C2,BC,VBL10438,Residential,CampusMail,5642 Yalta Place,-123.238758,49.263903
VAD11018,Acadia Park Residence - Melfa Lane (2509),Vancouver,V6T 2C5,BC,VBL10258,Residential,CampusMail,2509 Melfa Lane,-123.237759,49.264837
VAD11019,Acadia Park Residence - Tennis Crescent (2651),Vancouver,V6T 2C1,BC,VBL10436,Residential,CampusMail,2651 Tennis Crescent,-123.237657,49.263321
VAD11020,Acadia Park Residence - Montgomery Place (5637),Vancouver,V6T 2C8,BC,VBL10439,Residential,CampusMail,5637 Montgomery Place,-123.239483,49.264651
VAD11021,Acadia Park Residence - Melfa Lane (2615),Vancouver,V6T 2C5,BC,VBL10258,Residential,CampusMail,2615 Melfa Lane,-123.236973,49.263904
VAD11153,Acadia Park Residence - Montgomery Place (5635),Vancouver,V6T 2C8,BC,VBL10439,Residential,CampusMail,5635 Montgomery Place,-123.239356,49.264648
VAD11184,Fairview Crescent Residence (Unit 19A),Vancouver,V6T 2B8,BC,VBL10198,Residential,CampusMail,2673A Fairview Crescent,-123.239747,49.263333
VAD11186,Fairview Crescent Residence (Unit 22A),Vancouver,V6T 2B8,BC,VBL10198,Residential,CampusMail,2649A Fairview Crescent,-123.24023,49.263147
VAD11182,Fairview Crescent Residence (Unit 14A),Vancouver,V6T 2B8,BC,VBL10198,Residential,CampusMail,2721A Fairview Crescent,-123.239438,49.262851
VAD10769,Acadia Park Residence - Melfa Lane (2631),Vancouver,V6T 2C5,BC,VBL10258,Residential,CampusMail,2631 Melfa Lane,-123.236783,49.263618
VAD10770,Acadia Park Residence - Tennis Crescent (2647),Vancouver,V6T 2C1,BC,VBL10436,Residential,CampusMail,2647 Tennis Crescent,-123.23774,49.263381
VAD10771,Acadia Park Residence - Yalta Place (5617),Vancouver,V6T 1L7,BC,VBL10438,Residential,CampusMail,5617 Yalta Place,-123.238109,49.264326
VAD10832,Acadia Park Residence - Melfa Lane (2513),Vancouver,V6T 2C5,BC,VBL10258,Residential,CampusMail,2513 Melfa Lane,-123.237684,49.264777
VAD10833,Acadia Park Residence - Pearkes Lane (2501),Vancouver,V6T 2C5,BC,VBL10440,Residential,CampusMail,2501 Pearkes Lane,-123.239845,49.264677
VAD10834,Acadia Park Residence - Melfa Lane (2634),Vancouver,V6T 2C6,BC,VBL10258,Residential,CampusMail,2634 Melfa Lane,-123.236347,49.263651
VAD10835,Acadia Park Residence - Yalta Place (5627),Vancouver,V6T 1L7,BC,VBL10438,Residential,CampusMail,5627 Yalta Place,-123.238377,49.264174
VAD10106,Pharmaceutical Sciences Building,Vancouver,V6T 1Z3,BC,VBL10110,CampusBuilding,CampusMail,2405 Wesbrook Mall,-123.242775,49.262584
VAD10118,Landscape Architecture Annex,Vancouver,V6T 1Z4,BC,VBL10377,CampusBuilding,CampusMail,2371 Main Mall,-123.249975,49.260626
VAD10124,Lower Mall Header House,Vancouver,V6T 1Z4,BC,VBL10097,CampusBuilding,CampusMail,2331 Lower Mall,-123.254967,49.260586
VAD10126,Environmental Services Facility,Vancouver,V6T 1W5,BC,VBL10400,Complex,CampusMail,6025 Nurseries Road,-123.228971,49.243483
VAD11030,David Lam Management Research Centre,Vancouver,V6T 1Z2,BC,VBL10278,CampusBuilding,CampusMail,2033 Main Mall,-123.254071,49.265682
VAD11032,UBC Hospital - Detwiller Pavilion,Vancouver,V6T 1Z3,BC,VBL10334,OtherBuilding,CampusMail,2255 Wesbrook Mall,-123.244481,49.263833
VAD11036,Doug Mitchell Thunderbird Sports Centre,Vancouver,V6T 1Z3,BC,VBL10307,CampusBuilding,CampusMail,6066 Thunderbird Boulevard,-123.242422,49.260911
VAD11040,Earth and Ocean Sciences (EOS),Vancouver,V6T 1Z4,BC,VBL10001,CampusBuilding,CampusMail,6339 Stores Road,-123.252282,49.262549
VAD10454,Stores Road Annex,Vancouver,V6T 1Z4,BC,VBL10124,CampusBuilding,CampusMail,6368 Stores Road,-123.252401,49.261734
VAD10138,Kids Club,Vancouver,V6T 1S1,BC,VBL10374,CampusBuilding,CampusMail,2855 Acadia Road,-123.234914,49.261709
VAD10158,Ladner Clock Tower,Vancouver,V6T 1Z1,BC,VBL10376,CampusBuilding,CampusMail,1956 Main Mall,-123.25365,49.267367
VAD10170,Material Recovery Facility,Vancouver,V6T 1W5,BC,VBL10203,CampusBuilding,CampusMail,6055 Nurseries Road,-123.228543,49.245795
VAD11052,War Memorial Gymnasium,Vancouver,V6T 1Z1,BC,VBL10161,CampusBuilding,CampusMail,6081 University Boulevard,-123.247983,49.266527
VAD11053,Wayne and William White Engineering Design Centre,Vancouver,V6T 1Z4,BC,VBL10064,CampusBuilding,CampusMail,2345 East Mall,-123.247973,49.262318
VAD11054,Wesbrook Building,Vancouver,V6T 1Z3,BC,VBL10266,CampusBuilding,CampusMail,6174 University Boulevard,-123.249559,49.265372
VAD11075,Theatre-Film Production Building,Vancouver,V6T 1Z4,BC,VBL10209,CampusBuilding,CampusMail,6358 University Boulevard,-123.253824,49.263939
VAD10472,Bioenergy Research and Demonstration Facility,Vancouver,V6T 1Z4,BC,VBL10069,CampusBuilding,CampusMail,2337 Lower Mall,-123.254182,49.26031
VAD10490,Allard Hall,Vancouver,V6T 1Z1,BC,VBL10104,CampusBuilding,CampusMail,1822 East Mall,-123.25361,49.269853
VAD10491,Ambulance Station,Vancouver,V6T 1Z3,BC,VBL10186,OtherBuilding,CampusMail,2333 Wesbrook Mall,-123.243553,49.263264
VAD10493,Aquatic Ecosystems Research Laboratory,Vancouver,V6T 1Z4,BC,VBL10087,CampusBuilding,CampusMail,2202 Main Mall,-123.251268,49.263558
VAD10732,Civil and Mechanical Engineering Laboratories,Vancouver,V6T 1Z4,BC,VBL10330,CampusBuilding,CampusMail,2275 East Mall,-123.249617,49.263166
VAD10176,Medical Sciences Block C,Vancouver,V6T 1Z3,BC,VBL10094,CampusBuilding,CampusMail,2176 Health Sciences Mall,-123.247578,49.265
VAD10179,Museum of Anthropology,Vancouver,V6T 1Z2,BC,VBL10235,CampusBuilding,CampusMail,6393 NW Marine Drive,-123.259298,49.269133
VAD10180,Music Building,Vancouver,V6T 1Z2,BC,VBL10101,CampusBuilding,CampusMail,6361 Memorial Road,-123.256543,49.267282
VAD10181,NRC Institute for Fuel Cell Innovation,Vancouver,V6T 1W5,BC,VBL10243,OtherBuilding,CampusMail,4250 Wesbrook Mall,-123.23256,49.245361
VAD10183,National Soccer Development Centre (NSDC),Vancouver,V6T 1Z3,BC,VBL10091,CampusBuilding,CampusMail,3065 Wesbrook Mall,-123.239739,49.257307
VAD10194,Norman MacKenzie House,Vancouver,V6T 1A7,BC,VBL10233,CampusBuilding,CampusMail,6565 NW Marine Drive,-123.261155,49.267577
VAD11092,Thunderbird Stadium,Vancouver,V6T 1Z4,BC,VBL10214,CampusBuilding,CampusMail,6288 Stadium Road,-123.244356,49.254838
VAD10016,Horticulture Building,Vancouver,V6T 1Z4,BC,VBL10362,CampusBuilding,CampusMail,6394 Stores Road,-123.252899,49.261542
VAD10023,Irving K. Barber Learning Centre,Vancouver,V6T 1Z1,BC,VBL10080,CampusBuilding,CampusMail,1961 East Mall,-123.252386,49.267622
VAD10029,Main Substation,Vancouver,V6T 1Z3,BC,VBL10192,CampusBuilding,CampusMail,2446 Health Sciences Mall,-123.244255,49.261223
VAD10034,Lower Mall Research Station,Vancouver,V6T 1Z4,BC,VBL10100,CampusBuilding,CampusMail,2259 Lower Mall,-123.255809,49.260745
VAD10041,TRIUMF - Shipping / Workshop,Vancouver,V6T 2A3,BC,VBL10059,OtherBuilding,CampusMail,6095 Nurseries Road,-123.230144,49.246395
VAD10021,International House,Vancouver,V6T 1Z2,BC,VBL10371,CampusBuilding,CampusMail,1783 West Mall,-123.258836,49.267884
VAD10356,FPInnovations,Vancouver,V6T 1Z4,BC,VBL10021,OtherBuilding,CampusMail,2665 East Mall,-123.244104,49.256948
VAD10359,FERIC,Vancouver,V6T 1Z4,BC,VBL10020,OtherBuilding,CampusMail,2601 East Mall,-123.244453,49.257633
VAD10063,The Barn,Vancouver,V6T 1Z4,BC,VBL10181,CampusBuilding,CampusMail,2323 Main Mall,-123.251064,49.261957
VAD10375,Point Grey Apartments,Vancouver,V6T 2G3,BC,VBL10145,CampusBuilding,CampusMail,2875 Osoyoos Crescent,-123.237929,49.259982
VAD10377,Ponderosa Office Annex B,Vancouver,V6T 1Z2,BC,VBL10343,CampusBuilding,CampusMail,2029 West Mall,-123.256018,49.265013
VAD10378,Ponderosa Office Annex C,Vancouver,V6T 1Z2,BC,VBL10344,CampusBuilding,CampusMail,2021 West Mall,-123.256267,49.264948
VAD10380,Ponderosa Office Annex F,Vancouver,V6T 1Z2,BC,VBL10152,CampusBuilding,CampusMail,2008 Lower Mall,-123.257004,49.26497
VAD10382,Continuing Studies Building,Vancouver,V6T 1Z4,BC,VBL10083,CampusBuilding,CampusMail,2121 West Mall,-123.254774,49.263494
VAD10383,Ponderosa Office Annex G,Vancouver,V6T 1Z2,BC,VBL10153,CampusBuilding,CampusMail,2044 Lower Mall,-123.256327,49.264604
VAD10389,Pulp and Paper Centre,Vancouver,V6T 1Z4,BC,VBL10045,CampusBuilding,CampusMail,2385 East Mall,-123.247302,49.26154
VAD10402,Rodney Graham Millennium Sculpture Pavilion,Vancouver,V6T 1Z1,BC,VBL10051,CampusBuilding,CampusMail,1940 Main Mall,-123.254524,49.26755
VAD10070,The Brimacombe Building,Vancouver,V6T 1Z4,BC,VBL10066,CampusBuilding,CampusMail,2355 East Mall,-123.247781,49.262168
VAD10080,Technology Enterprise Facility (TEF) 3,Vancouver,V6T 1Z3,BC,VBL10346,OtherBuilding,CampusMail,6190 Agronomy Road,-123.246243,49.261431
VAD11024,Library PARC@UBC,Vancouver,V6T 1W5,BC,VBL10351,CampusBuilding,CampusMail,6049 Nurseries Road,-123.22983,49.244946
VAD10406,Rugby Pavilion,Vancouver,V6T 1Z3,BC,VBL10055,CampusBuilding,CampusMail,2584 East Mall,-123.244106,49.258581
VAD10412,Ritsumeikan-UBC House,Vancouver,V6T 1Z4,BC,VBL10250,CampusBuilding,CampusMail,6460 Agronomy Road,-123.253121,49.260282
VAD10415,Robert H. Lee Alumni Centre,Vancouver,V6T 1Z1,BC,VBL10256,CampusBuilding,CampusMail,6163 University Boulevard,-123.249876,49.265863
VAD10422,South Campus Warehouse,Vancouver,V6T 1W5,BC,VBL10077,CampusBuilding,CampusMail,6116 Nurseries Road,-123.232168,49.246347
VAD10438,St. John Hospice,Vancouver,V6T 1Z4,BC,VBL10156,OtherBuilding,CampusMail,6389 Stadium Road,-123.247229,49.255319
VAD10439,St. John's College,Vancouver,V6T 1Z4,BC,VBL10116,CampusBuilding,CampusMail,2111 Lower Mall,-123.25655,49.262984
VAD10441,Staging Environmental Research Centre (SERC),Vancouver,V6T 1W5,BC,VBL10123,CampusBuilding,CampusMail,6045 Nurseries Road,-123.228117,49.245382
VAD10712,Child Care Services - Little Raven/Pacific Spirit,Vancouver,V6T 2E6,BC,VBL10275,CampusBuilding,CampusMail,5580 Osoyoos Crescent,-123.23389,49.26032
VAD10261,Gas Gun Facility,Vancouver,V6T 1Z4,BC,VBL10410,CampusBuilding,CampusMail,6301 Stadium Road,-123.246102,49.256087
VAD10274,"Food, Nutrition and Health Building",Vancouver,V6T 1Z4,BC,VBL10082,CampusBuilding,CampusMail,2205 East Mall,-123.249572,49.264113
VAD10277,Frank Forward Building,Vancouver,V6T 1Z4,BC,VBL10044,CampusBuilding,CampusMail,6350 Stores Road,-123.251761,49.261772
VAD10852,Centre for Comparative Medicine,Vancouver,V6T 1W5,BC,VBL10017,CampusBuilding,CampusMail,4145 Wesbrook Mall,-123.233064,49.246303
VAD10622,Fairview Crescent Residence (Unit 2),Vancouver,V6T 2B9,BC,VBL10193,Residential,CampusMail,2720 Fairview Crescent,-123.239281,49.263471
VAD10624,Fairview Crescent Residence (Unit 20),Vancouver,V6T 2B8,BC,VBL10198,Residential,CampusMail,2667 Fairview Crescent,-123.239967,49.263328
VAD10625,Fairview Crescent Residence (Unit 20),Vancouver,V6T 2B8,BC,VBL10198,Residential,CampusMail,2665 Fairview Crescent,-123.24005,49.26333
VAD10629,Fairview Crescent Residence (Unit 20),Vancouver,V6T 2B8,BC,VBL10198,Residential,CampusMail,2669 Fairview Crescent,-123.239988,49.263369
VAD10630,Fairview Crescent Residence (Unit 21),Vancouver,V6T 2B8,BC,VBL10198,Residential,CampusMail,2661 Fairview Crescent,-123.240103,49.263243
VAD10631,Fairview Crescent Residence (Unit 21),Vancouver,V6T 2B8,BC,VBL10198,Residential,CampusMail,2657 Fairview Crescent,-123.240078,49.263199
VAD10632,Fairview Crescent Residence (Unit 21),Vancouver,V6T 2B8,BC,VBL10198,Residential,CampusMail,2655 Fairview Crescent,-123.240093,49.263194
VAD10633,Fairview Crescent Residence (Unit 21),Vancouver,V6T 2B8,BC,VBL10198,Residential,CampusMail,2651 Fairview Crescent,-123.240181,49.263217
VAD10635,Fairview Crescent Residence (Unit 21),Vancouver,V6T 2B8,BC,VBL10198,Residential,CampusMail,2659 Fairview Crescent,-123.240071,49.263214
VAD10254,Fairview Crescent Residence (Unit 4),Vancouver,V6T 2B9,BC,VBL10193,Residential,CampusMail,2738 Fairview Crescent,-123.239151,49.263262
VAD10255,Fairview Crescent Residence (Unit 4),Vancouver,V6T 2B9,BC,VBL10193,Residential,CampusMail,2748 Fairview Crescent,-123.239197,49.263197
VAD10256,Fairview Crescent Residence (Unit 7),Vancouver,V6T 2B9,BC,VBL10193,Residential,CampusMail,2778 Fairview Crescent,-123.238878,49.262881
VAD10257,Fairview Crescent Residence (Unit 7),Vancouver,V6T 2B9,BC,VBL10193,Residential,CampusMail,2766 Fairview Crescent,-123.238982,49.262923
VAD10258,Fairview Crescent Residence (Unit 7),Vancouver,V6T 2B9,BC,VBL10193,Residential,CampusMail,2776 Fairview Crescent,-123.238873,49.262919
VAD11093,Totem Field Studios,Vancouver,V6T 1Z4,BC,VBL10223,CampusBuilding,CampusMail,2613 West Mall,-123.249093,49.256113
VAD11102,UBC Baseball Rose Indoor Training Centre,Vancouver,V6T 1Z4,BC,VBL10237,CampusBuilding,CampusMail,3085 Wesbrook Mall,-123.239787,49.256403
VAD11113,UBC Botanical Garden - Workshop (Trailer),Vancouver,V6T 1Z4,BC,VBL10005,CampusBuilding,CampusMail,6450 Stadium Road,-123.247549,49.254757
VAD11117,UBC Football Academic Centre,Vancouver,V6T 1Z4,BC,VBL10246,CampusBuilding,CampusMail,6298 Stadium Road,-123.244936,49.255266
VAD10777,West Mall Annex,Vancouver,V6T 1Z2,BC,VBL10283,CampusBuilding,CampusMail,1933 West Mall,-123.257093,49.266272
VAD10782,West Mall Swing Space Building,Vancouver,V6T 1Z4,BC,VBL10304,CampusBuilding,CampusMail,2175 West Mall,-123.254319,49.262899
VAD10810,Asian Centre,Vancouver,V6T 1Z2,BC,VBL10227,CampusBuilding,CampusMail,1871 West Mall,-123.258459,49.266831
VAD10559,David Lam Management Research Centre,Vancouver,V6T 1Z2,BC,VBL10278,Occupant,CampusMail,2015 Main Mall,-123.254304,49.265931
VAD10820,Biomedical Research Centre,Vancouver,V6T 1Z3,BC,VBL10084,CampusBuilding,CampusMail,2222 Health Sciences Mall,-123.24738,49.264014
VAD10822,Building Operations Nursery,Vancouver,V6T 1W5,BC,VBL10337,CampusBuilding,CampusMail,6029 Nurseries Road,-123.228868,49.244229
VAD10823,C. K. Choi Building for the Institute of Asian Research,Vancouver,V6T 1Z2,BC,VBL10338,CampusBuilding,CampusMail,1855 West Mall,-123.257828,49.267239
VAD10824,Campus Energy Centre,Vancouver,V6T 1Z3,BC,VBL10339,CampusBuilding,CampusMail,6130 Agronomy Road,-123.245283,49.261804
VAD10259,Friedman Building,Vancouver,V6T 1Z3,BC,VBL10120,CampusBuilding,CampusMail,2177 Wesbrook Mall,-123.245942,49.265574
VAD10308,Fairview Crescent Residence (Unit 11),Vancouver,V6T 2B8,BC,VBL10198,Residential,CampusMail,2757 Fairview Crescent,-123.239111,49.262639
VAD10309,Fairview Crescent Residence (Unit 12),Vancouver,V6T 2B8,BC,VBL10198,Residential,CampusMail,2753 Fairview Crescent,-123.239208,49.26263
VAD10310,Fairview Crescent Residence (Unit 12),Vancouver,V6T 2B8,BC,VBL10198,Residential,CampusMail,2745 Fairview Crescent,-123.239256,49.262629
VAD10311,Fairview Crescent Residence (Unit 12),Vancouver,V6T 2B8,BC,VBL10198,Residential,CampusMail,2743 Fairview Crescent,-123.23924,49.262675
VAD10312,Fairview Crescent Residence (Unit 12),Vancouver,V6T 2B8,BC,VBL10198,Residential,CampusMail,2747 Fairview Crescent,-123.239279,49.262616
VAD10313,Fairview Crescent Residence (Unit 12),Vancouver,V6T 2B8,BC,VBL10198,Residential,CampusMail,2749 Fairview Crescent,-123.239268,49.262614
VAD10314,Fairview Crescent Residence (Unit 12),Vancouver,V6T 2B8,BC,VBL10198,Residential,CampusMail,2751 Fairview Crescent,-123.239238,49.262611
VAD10315,Fairview Crescent Residence (Unit 12),Vancouver,V6T 2B8,BC,VBL10198,Residential,CampusMail,2755 Fairview Crescent,-123.239139,49.262642
VAD10316,Fairview Crescent Residence (Unit 13),Vancouver,V6T 2B8,BC,VBL10198,Residential,CampusMail,2741 Fairview Crescent,-123.239259,49.262696
VAD10319,Fairview Crescent Residence (Unit 13),Vancouver,V6T 2B8,BC,VBL10198,Residential,CampusMail,2735 Fairview Crescent,-123.239357,49.262722
VAD10320,Fairview Crescent Residence (Unit 13),Vancouver,V6T 2B8,BC,VBL10198,Residential,CampusMail,2739 Fairview Crescent,-123.239331,49.262712
VAD10321,Fairview Crescent Residence (Unit 13),Vancouver,V6T 2B8,BC,VBL10198,Residential,CampusMail,2731 Fairview Crescent,-123.239323,49.262742
VAD10322,Fairview Crescent Residence (Unit 13),Vancouver,V6T 2B8,BC,VBL10198,Residential,CampusMail,2733 Fairview Crescent,-123.239352,49.262738
VAD10323,Fairview Crescent Residence (Unit 13),Vancouver,V6T 2B8,BC,VBL10198,Residential,CampusMail,2729 Fairview Crescent,-123.239297,49.262792
VAD10329,Fairview Crescent Residence (Unit 15),Vancouver,V6T 2B8,BC,VBL10198,Residential,CampusMail,2717 Fairview Crescent,-123.239398,49.263004
VAD10324,Fairview Crescent Residence (Unit 14),Vancouver,V6T 2B8,BC,VBL10198,Residential,CampusMail,2721 Fairview Crescent,-123.239343,49.262954
VAD10325,Fairview Crescent Residence (Unit 14),Vancouver,V6T 2B8,BC,VBL10198,Residential,CampusMail,2727 Fairview Crescent,-123.239326,49.262841
VAD10326,Fairview Crescent Residence (Unit 14),Vancouver,V6T 2B8,BC,VBL10198,Residential,CampusMail,2723 Fairview Crescent,-123.23932,49.262914
VAD10327,Fairview Crescent Residence (Unit 14),Vancouver,V6T 2B8,BC,VBL10198,Residential,CampusMail,2725 Fairview Crescent,-123.239373,49.262891
VAD10328,Fairview Crescent Residence (Unit 15),Vancouver,V6T 2B8,BC,VBL10198,Residential,CampusMail,2713 Fairview Crescent,-123.239412,49.263025
VAD10330,Fairview Crescent Residence (Unit 15),Vancouver,V6T 2B8,BC,VBL10198,Residential,CampusMail,2719 Fairview Crescent,-123.239358,49.262972
VAD10331,Fairview Crescent Residence (Unit 15),Vancouver,V6T 2B8,BC,VBL10198,Residential,CampusMail,2711 Fairview Crescent,-123.239429,49.263059
VAD10332,Fairview Crescent Residence (Unit 15),Vancouver,V6T 2B8,BC,VBL10198,Residential,CampusMail,2715 Fairview Crescent,-123.239455,49.262992
VAD10333,Fairview Crescent Residence (Unit 16),Vancouver,V6T 2B8,BC,VBL10198,Residential,CampusMail,2699 Fairview Crescent,-123.239495,49.26313
VAD10334,Fairview Crescent Residence (Unit 16),Vancouver,V6T 2B8,BC,VBL10198,Residential,CampusMail,2701 Fairview Crescent,-123.239534,49.263133
VAD10335,Fairview Crescent Residence (Unit 16),Vancouver,V6T 2B8,BC,VBL10198,Residential,CampusMail,2703 Fairview Crescent,-123.239544,49.26311
VAD10336,Fairview Crescent Residence (Unit 16),Vancouver,V6T 2B8,BC,VBL10198,Residential,CampusMail,2705 Fairview Crescent,-123.239541,49.2631
VAD10337,Fairview Crescent Residence (Unit 16),Vancouver,V6T 2B8,BC,VBL10198,Residential,CampusMail,2709 Fairview Crescent,-123.239446,49.263079
VAD10338,Fairview Crescent Residence (Unit 16),Vancouver,V6T 2B8,BC,VBL10198,Residential,CampusMail,2707 Fairview Crescent,-123.239513,49.263103
VAD10339,Fairview Crescent Residence (Unit 16),Vancouver,V6T 2B8,BC,VBL10198,Residential,CampusMail,2697 Fairview Crescent,-123.239451,49.263157
VAD10340,Fairview Crescent Residence (Unit 17),Vancouver,V6T 2B8,BC,VBL10198,Residential,CampusMail,2693 Fairview Crescent,-123.23953,49.263247
VAD10287,Fairview Crescent Residence (Unit 4),Vancouver,V6T 2B9,BC,VBL10193,Residential,CampusMail,2742 Fairview Crescent,-123.239103,49.263246
VAD10288,Fairview Crescent Residence (Unit 5),Vancouver,V6T 2B9,BC,VBL10193,Residential,CampusMail,2752 Fairview Crescent,-123.239132,49.263123
VAD10289,Fairview Crescent Residence (Unit 5),Vancouver,V6T 2B9,BC,VBL10193,Residential,CampusMail,2754 Fairview Crescent,-123.23917,49.263087
VAD10290,Fairview Crescent Residence (Unit 5),Vancouver,V6T 2B9,BC,VBL10193,Residential,CampusMail,2750 Fairview Crescent,-123.239168,49.263167
VAD10636,Fairview Crescent Residence (Unit 21),Vancouver,V6T 2B8,BC,VBL10198,Residential,CampusMail,2663 Fairview Crescent,-123.240127,49.263279
VAD10637,Fairview Crescent Residence (Unit 21) ,Vancouver,V6T 2B8,BC,VBL10198,Residential,CampusMail,2653 Fairview Crescent,-123.240137,49.263207
VAD10638,Fairview Crescent Residence (Unit 22),Vancouver,V6T 2B8,BC,VBL10198,Residential,CampusMail,2645 Fairview Crescent,-123.24025,49.26314
VAD10639,Fairview Crescent Residence (Unit 22),Vancouver,V6T 2B8,BC,VBL10198,Residential,CampusMail,2649 Fairview Crescent,-123.240202,49.26321
VAD10640,Fairview Crescent Residence (Unit 22),Vancouver,V6T 2B8,BC,VBL10198,Residential,CampusMail,2647 Fairview Crescent,-123.240226,49.263202
VAD10642,Fairview Crescent Residence (Unit 23),Vancouver,V6T 2B8,BC,VBL10198,Residential,CampusMail,2641 Fairview Crescent,-123.240428,49.263085
VAD10643,Fairview Crescent Residence (Unit 23),Vancouver,V6T 2B8,BC,VBL10198,Residential,CampusMail,2631 Fairview Crescent,-123.240429,49.263017
VAD10644,Fairview Crescent Residence (Unit 23),Vancouver,V6T 2B8,BC,VBL10198,Residential,CampusMail,2629 Fairview Crescent,-123.240486,49.263027
VAD10645,Fairview Crescent Residence (Unit 23),Vancouver,V6T 2B8,BC,VBL10198,Residential,CampusMail,2633 Fairview Crescent,-123.240389,49.263001
VAD10291,Fairview Crescent Residence (Unit 5),Vancouver,V6T 2B9,BC,VBL10193,Residential,CampusMail,2756 Fairview Crescent,-123.239152,49.263047
VAD10292,Fairview Crescent Residence (Unit 6),Vancouver,V6T 2B9,BC,VBL10193,Residential,CampusMail,2758 Fairview Crescent,-123.239136,49.263028
VAD10293,Fairview Crescent Residence (Unit 6),Vancouver,V6T 2B9,BC,VBL10193,Residential,CampusMail,2762 Fairview Crescent,-123.239041,49.263012
VAD10294,Fairview Crescent Residence (Unit 6),Vancouver,V6T 2B9,BC,VBL10193,Residential,CampusMail,2760 Fairview Crescent,-123.239127,49.263017
VAD10295,Fairview Crescent Residence (Unit 6),Vancouver,V6T 2B9,BC,VBL10193,Residential,CampusMail,2764 Fairview Crescent,-123.239007,49.262957
VAD10297,Fairview Crescent Residence (Unit 7),Vancouver,V6T 2B9,BC,VBL10193,Residential,CampusMail,2770 Fairview Crescent,-123.238895,49.262955
VAD10298,Fairview Crescent Residence (Unit 7),Vancouver,V6T 2B9,BC,VBL10193,Residential,CampusMail,2768 Fairview Crescent,-123.238914,49.26293
VAD10299,Fairview Crescent Residence (Unit 4),Vancouver,V6T 2B9,BC,VBL10193,Residential,CampusMail,2746 Fairview Crescent,-123.239166,49.263234
VAD10300,Fairview Crescent Residence (Unit 10),Vancouver,V6T 2B9,BC,VBL10193,Residential,CampusMail,2798 Fairview Crescent,-123.238701,49.262638
VAD10646,Fairview Crescent Residence (Unit 23),Vancouver,V6T 2B8,BC,VBL10198,Residential,CampusMail,2635 Fairview Crescent,-123.240382,49.263009
VAD10647,Fairview Crescent Residence (Unit 23),Vancouver,V6T 2B8,BC,VBL10198,Residential,CampusMail,2637 Fairview Crescent,-123.240366,49.263033
VAD10648,Fairview Crescent Residence (Unit 23),Vancouver,V6T 2B8,BC,VBL10198,Residential,CampusMail,2639 Fairview Crescent,-123.240397,49.263044
VAD10649,Fairview Crescent Residence (Unit 24),Vancouver,V6T 2B8,BC,VBL10198,Residential,CampusMail,2625 Fairview Crescent,-123.240543,49.262987
VAD10650,Fairview Crescent Residence (Unit 24),Vancouver,V6T 2B8,BC,VBL10198,Residential,CampusMail,2615 Fairview Crescent,-123.240633,49.263016
VAD10652,Fairview Crescent Residence (Unit 24),Vancouver,V6T 2B8,BC,VBL10198,Residential,CampusMail,2623 Fairview Crescent,-123.240556,49.262956
VAD10653,Fairview Crescent Residence (Unit 24),Vancouver,V6T 2B8,BC,VBL10198,Residential,CampusMail,2617 Fairview Crescent,-123.240585,49.262998
VAD10654,Fairview Crescent Residence (Unit 24),Vancouver,V6T 2B8,BC,VBL10198,Residential,CampusMail,2619 Fairview Crescent,-123.240603,49.262969
VAD10655,Fairview Crescent Residence (Unit 24),Vancouver,V6T 2B8,BC,VBL10198,Residential,CampusMail,2627 Fairview Crescent,-123.240517,49.263019
VAD10301,Fairview Crescent Residence (Unit 11),Vancouver,V6T 2B8,BC,VBL10198,Residential,CampusMail,2765 Fairview Crescent,-123.238999,49.262586
VAD10302,Fairview Crescent Residence (Unit 11),Vancouver,V6T 2B8,BC,VBL10198,Residential,CampusMail,2767 Fairview Crescent,-123.239009,49.262607
VAD10303,Fairview Crescent Residence (Unit 10),Vancouver,V6T 2B9,BC,VBL10193,Residential,CampusMail,2804 Fairview Crescent,-123.238589,49.262558
VAD10306,Fairview Crescent Residence (Unit 11),Vancouver,V6T 2B8,BC,VBL10198,Residential,CampusMail,2761 Fairview Crescent,-123.239056,49.26259
VAD10461,Fairview Crescent Residence (Unit 29),Vancouver,V6T 2B9,BC,VBL10193,Residential,CampusMail,2638 Fairview Crescent,-123.24044,49.263347
VAD10462,Fairview Crescent Residence (Unit 29),Vancouver,V6T 2B9,BC,VBL10193,Residential,CampusMail,2636 Fairview Crescent,-123.240497,49.263307
VAD10463,Fairview Crescent Residence (Unit 30),Vancouver,V6T 2B9,BC,VBL10193,Residential,CampusMail,2648 Fairview Crescent,-123.240281,49.263403
VAD10464,Fairview Crescent Residence (Unit 29),Vancouver,V6T 2B9,BC,VBL10193,Residential,CampusMail,2640 Fairview Crescent,-123.240385,49.263314
VAD10465,Fairview Crescent Residence (Unit 3),Vancouver,V6T 2B9,BC,VBL10193,Residential,CampusMail,2728 Fairview Crescent,-123.239191,49.263362
VAD10466,Fairview Crescent Residence (Unit 3),Vancouver,V6T 2B9,BC,VBL10193,Residential,CampusMail,2726 Fairview Crescent,-123.239257,49.263343
VAD10467,Fairview Crescent Residence (Unit 3),Vancouver,V6T 2B9,BC,VBL10193,Residential,CampusMail,2724 Fairview Crescent,-123.239288,49.26338
VAD10468,Fairview Crescent Residence (Unit 3),Vancouver,V6T 2B9,BC,VBL10193,Residential,CampusMail,2734 Fairview Crescent,-123.239214,49.26329
VAD10469,Fairview Crescent Residence (Unit 3),Vancouver,V6T 2B9,BC,VBL10193,Residential,CampusMail,2732 Fairview Crescent,-123.239231,49.263326
VAD10513,Acadia Park Residence - Melfa Lane (2632),Vancouver,V6T 2C6,BC,VBL10258,Residential,CampusMail,2632 Melfa Lane,-123.236483,49.263684
VAD10514,Acadia Park Residence - Melfa Lane (2626),Vancouver,V6T 2C6,BC,VBL10258,Residential,CampusMail,2626 Melfa Lane,-123.236632,49.263757
VAD10515,Acadia Park Residence - Pearkes Lane (2511),Vancouver,V6T 2C5,BC,VBL10440,Residential,CampusMail,2511 Pearkes Lane,-123.239631,49.264489
VAD10516,Acadia Park Residence - Pearkes Lane (2513),Vancouver,V6T 2C5,BC,VBL10440,Residential,CampusMail,2513 Pearkes Lane,-123.239597,49.264442
VAD10517,Acadia Park Residence - Tennis Crescent (2640),Vancouver,V6T 2E1,BC,VBL10436,Residential,CampusMail,2640 Tennis Crescent,-123.237642,49.263558
VAD10518,Acadia Park Residence - Melfa Lane (2516),Vancouver,V6T 2C6,BC,VBL10258,Residential,CampusMail,2516 Melfa Lane,-123.237607,49.264906
VAD10519,Acadia Park Residence - Tennis Crescent (2628),Vancouver,V6T 2E1,BC,VBL10436,Residential,CampusMail,2628 Tennis Crescent,-123.23785,49.263752
VAD10522,Acadia Park Residence - Melfa Lane (2506),Vancouver,V6T 2C6,BC,VBL10258,Residential,CampusMail,2506 Melfa Lane,-123.237697,49.265172
VAD10525,Acadia Park Residence - Melfa Lane (2507),Vancouver,V6T 2C5,BC,VBL10258,Residential,CampusMail,2507 Melfa Lane,-123.237783,49.264871
VAD10526,Acadia Park Residence - Tennis Crescent (2642),Vancouver,V6T 2E1,BC,VBL10436,Residential,CampusMail,2642 Tennis Crescent,-123.237602,49.263564
VAD10527,Acadia Park Residence - Pearkes Lane (2509),Vancouver,V6T 2C5,BC,VBL10440,Residential,CampusMail,2509 Pearkes Lane,-123.23965,49.264519
VAD10528,Acadia Park & Fairview Crescent Residence Complex - Front Desk ,Vancouver,V6T 2E5,BC,VBL10185,Complex,CampusMail,2707 Tennis Crescent,-123.237336,49.262638
VAD10565,Fairview Crescent Residence (Unit 1),Vancouver,V6T 2B9,BC,VBL10193,Residential,CampusMail,2712 Fairview Crescent,-123.23941,49.263547
VAD10231,Fairview Crescent Residence (Unit 31),Vancouver,V6T 2B9,BC,VBL10193,Residential,CampusMail,2658 Fairview Crescent,-123.240179,49.263512
VAD10232,Fairview Crescent Residence (Unit 32),Vancouver,V6T 2B9,BC,VBL10193,Residential,CampusMail,2674 Fairview Crescent,-123.239899,49.263573
VAD10233,Fairview Crescent Residence (Unit 32),Vancouver,V6T 2B9,BC,VBL10193,Residential,CampusMail,2668 Fairview Crescent,-123.240022,49.263529
VAD10577,Acadia Park Residence - Yalta Place (5506),Vancouver,V6T 2C2,BC,VBL10438,Residential,CampusMail,5506 Yalta Place,-123.237344,49.264325
VAD10566,Fairview Crescent Residence (Unit 1),Vancouver,V6T 2B9,BC,VBL10193,Residential,CampusMail,2714 Fairview Crescent,-123.239392,49.263506
VAD10567,Fairview Crescent Residence (Unit 1),Vancouver,V6T 2B9,BC,VBL10193,Residential,CampusMail,2710 Fairview Crescent,-123.239373,49.263582
VAD10568,Fairview Crescent Residence (Unit 10),Vancouver,V6T 2B9,BC,VBL10193,Residential,CampusMail,2802 Fairview Crescent,-123.238608,49.262624
VAD10471,Fairview Crescent Residence (Unit 30),Vancouver,V6T 2B9,BC,VBL10193,Residential,CampusMail,2650 Fairview Crescent,-123.240189,49.263429
VAD10494,Acadia Park Residence - Melfa Lane (2628),Vancouver,V6T 2C6,BC,VBL10258,Residential,CampusMail,2628 Melfa Lane,-123.236479,49.263811
VAD10495,Acadia Park Residence - Melfa Lane (2630),Vancouver,V6T 2C6,BC,VBL10258,Residential,CampusMail,2630 Melfa Lane,-123.236517,49.263721
VAD10496,Acadia Park Residence - Melfa Lane (2640),Vancouver,V6T 2C6,BC,VBL10258,Residential,CampusMail,2640 Melfa Lane,-123.236397,49.263446
VAD10497,Acadia Park Residence - Montgomery Place (5608),Vancouver,V6T 2C7,BC,VBL10439,Residential,CampusMail,5608 Montgomery Place,-123.238349,49.264813
VAD10498,Acadia Park Residence - Yalta Place (5649),Vancouver,V6T 1L7,BC,VBL10438,Residential,CampusMail,5649 Yalta Place,-123.238986,49.264004
VAD10499,Acadia Park Residence - Melfa Lane (2522),Vancouver,V6T 2C6,BC,VBL10258,Residential,CampusMail,2522 Melfa Lane,-123.237367,49.264798
VAD10500,Acadia Park Residence - Yalta Place (5621),Vancouver,V6T 1L7,BC,VBL10438,Residential,CampusMail,5621 Yalta Place,-123.238341,49.264307
VAD10501,Acadia Park Residence - Pearkes Lane (2505),Vancouver,V6T 2C5,BC,VBL10440,Residential,CampusMail,2505 Pearkes Lane,-123.239718,49.264584
VAD10502,Acadia Park Residence - Montgomery Place (5604),Vancouver,V6T 2C7,BC,VBL10439,Residential,CampusMail,5604 Montgomery Place,-123.238252,49.264869
VAD10503,Acadia Park Residence - Tennis Crescent (2641),Vancouver,V6T 2C1,BC,VBL10436,Residential,CampusMail,2641 Tennis Crescent,-123.237817,49.263513
VAD10504,Acadia Park Residence - Melfa Lane (2613),Vancouver,V6T 2C5,BC,VBL10258,Residential,CampusMail,2613 Melfa Lane,-123.236997,49.263933
VAD10505,Acadia Park Residence - Melfa Lane (2638),Vancouver,V6T 2C6,BC,VBL10258,Residential,CampusMail,2638 Melfa Lane,-123.236463,49.263526
VAD10506,Acadia Park Residence - Melfa Lane (2606),Vancouver,V6T 2C6,BC,VBL10258,Residential,CampusMail,2606 Melfa Lane,-123.237097,49.26446
VAD10507,Acadia Park Residence - Montgomery Place (5618),Vancouver,V6T 2C7,BC,VBL10439,Residential,CampusMail,5618 Montgomery Place,-123.238591,49.264689
VAD10508,Acadia Park Residence - Tennis Crescent (2659),Vancouver,V6T 2C1,BC,VBL10436,Residential,CampusMail,2659 Tennis Crescent,-123.237572,49.263068
VAD10509,Acadia Park Residence - Yalta Place (5618),Vancouver,V6T 2C2,BC,VBL10438,Residential,CampusMail,5618 Yalta Place,-123.238029,49.263959
VAD10510,Acadia Park Residence - Tennis Crescent (2646),Vancouver,V6T 2E1,BC,VBL10436,Residential,CampusMail,2646 Tennis Crescent,-123.237443,49.263463
VAD10511,Acadia Park Residence - Pearkes Lane (2517),Vancouver,V6T 2C5,BC,VBL10440,Residential,CampusMail,2517 Pearkes Lane,-123.239533,49.26438
VAD10512,Acadia Park Residence - Melfa Lane (2627),Vancouver,V6T 2C5,BC,VBL10258,Residential,CampusMail,2627 Melfa Lane,-123.236849,49.263686
VAD10341,Fairview Crescent Residence (Unit 17),Vancouver,V6T 2B8,BC,VBL10198,Residential,CampusMail,2695 Fairview Crescent,-123.239474,49.263194
VAD10342,Fairview Crescent Residence (Unit 17),Vancouver,V6T 2B8,BC,VBL10198,Residential,CampusMail,2691 Fairview Crescent,-123.239483,49.263267
VAD10343,Fairview Crescent Residence (Unit 17),Vancouver,V6T 2B8,BC,VBL10198,Residential,CampusMail,2689 Fairview Crescent,-123.239495,49.263305
VAD10344,Fairview Crescent Residence (Unit 18),Vancouver,V6T 2B8,BC,VBL10198,Residential,CampusMail,2687 Fairview Crescent,-123.239513,49.263326
VAD10345,Fairview Crescent Residence (Unit 8),Vancouver,V6T 2B9,BC,VBL10193,Residential,CampusMail,2786 Fairview Crescent,-123.238823,49.262806
VAD10346,Fairview Crescent Residence (Unit 8),Vancouver,V6T 2B9,BC,VBL10193,Residential,CampusMail,2784 Fairview Crescent,-123.238789,49.262845
VAD10347,Fairview Crescent Residence (Unit 7),Vancouver,V6T 2B9,BC,VBL10193,Residential,CampusMail,2774 Fairview Crescent,-123.238852,49.262946
VAD10348,Fairview Crescent Residence (Unit 8),Vancouver,V6T 2B9,BC,VBL10193,Residential,CampusMail,2782 Fairview Crescent,-123.238844,49.262825
VAD10349,Fairview Crescent Residence (Unit 8),Vancouver,V6T 2B9,BC,VBL10193,Residential,CampusMail,2780 Fairview Crescent,-123.23888,49.262855
VAD10351,Fairview Crescent Residence (Unit 9),Vancouver,V6T 2B9,BC,VBL10193,Residential,CampusMail,2788 Fairview Crescent,-123.238805,49.262765
VAD10352,Fairview Crescent Residence (Unit 9),Vancouver,V6T 2B9,BC,VBL10193,Residential,CampusMail,2796 Fairview Crescent,-123.238715,49.262656
VAD10353,Fairview Crescent Residence (Unit 9),Vancouver,V6T 2B9,BC,VBL10193,Residential,CampusMail,2790 Fairview Crescent,-123.238751,49.262716
VAD10354,Fairview Crescent Residence (Unit 9),Vancouver,V6T 2B9,BC,VBL10193,Residential,CampusMail,2794 Fairview Crescent,-123.238737,49.262695
VAD10355,Fairview Crescent Residence - Beanery (Unit 1),Vancouver,V6T 2B9,BC,VBL10193,Commercial,CampusMail,2706 Fairview Crescent,-123.239468,49.263599
VAD10456,Fairview Crescent Residence (Unit 31),Vancouver,V6T 2B9,BC,VBL10193,Residential,CampusMail,2652 Fairview Crescent,-123.240112,49.263454
VAD10457,Fairview Crescent Residence (Unit 31),Vancouver,V6T 2B9,BC,VBL10193,Residential,CampusMail,2656 Fairview Crescent,-123.240184,49.263502
VAD10458,Fairview Crescent Residence (Unit 31),Vancouver,V6T 2B9,BC,VBL10193,Residential,CampusMail,2660 Fairview Crescent,-123.240171,49.263529
VAD10460,Fairview Crescent Residence (Unit 29),Vancouver,V6T 2B9,BC,VBL10193,Residential,CampusMail,2642 Fairview Crescent,-123.240328,49.263333
VAD10611,Fairview Crescent Residence (Unit 19),Vancouver,V6T 2B8,BC,VBL10198,Residential,CampusMail,2677 Fairview Crescent,-123.239807,49.263384
VAD10612,Fairview Crescent Residence (Unit 19),Vancouver,V6T 2B8,BC,VBL10198,Residential,CampusMail,2679 Fairview Crescent,-123.239752,49.263429
VAD10618,Fairview Crescent Residence (Unit 19),Vancouver,V6T 2B8,BC,VBL10198,Residential,CampusMail,2673 Fairview Crescent,-123.239904,49.263404
VAD10619,Fairview Crescent Residence (Unit 2),Vancouver,V6T 2B9,BC,VBL10193,Residential,CampusMail,2716 Fairview Crescent,-123.239376,49.263487
VAD10620,Fairview Crescent Residence (Unit 2),Vancouver,V6T 2B9,BC,VBL10193,Residential,CampusMail,2718 Fairview Crescent,-123.239342,49.263455
VAD10621,Fairview Crescent Residence (Unit 2),Vancouver,V6T 2B9,BC,VBL10193,Residential,CampusMail,2722 Fairview Crescent,-123.239312,49.263409
VAD10796,Westchester (D1),Vancouver,V6T 2J9,BC,VBL10220,Residential,CanadaPost,2568 West Mall,-123.249503,49.257446
VAD10267,Folio - Townhouse (A1),Vancouver,V6T 2L5,BC,VBL10316,NeighbourhoodBldg,CanadaPost,5962 Chancellor Mews,-123.250196,49.272301
VAD10019,Indian Residential School History and Dialogue Centre (IRSHDC),Vancouver,V6T 1Z1,BC,VBL10109,CampusBuilding,CampusMail,1985 Learners' Walk,-123.253601,49.267101
VAD10813,Azalea House,Vancouver,V6T 0B9,BC,VBL10133,NeighbourhoodBldg,CanadaPost,6388 Hawthorn Lane,-123.249826,49.257825
VAD11079,The Residences at Nobel Park - Townhouses,Vancouver,V6S 0L3,BC,VBL10352,NeighbourhoodBldg,CanadaPost,3483 Ross Drive,-123.23627,49.251014
VAD10284,Folio - Duplex (1A),Vancouver,V6T 0A1,BC,VBL10291,NeighbourhoodBldg,CanadaPost,5998 Chancellor Boulevard,-123.251127,49.272349
VAD10784,Westchester (A1),Vancouver,V6T 2J9,BC,VBL10220,Residential,CanadaPost,2598 West Mall,-123.249047,49.256884
VAD11118,UBC Tennis Centre,Vancouver,V6T 1Z3,BC,VBL10090,CampusBuilding,CampusMail,6160 Thunderbird Boulevard,-123.243612,49.25969
VAD10269,Folio - Duplex (2D),Vancouver,V6T 0A1,BC,VBL10291,Residential,CanadaPost,5982 Chancellor Boulevard,-123.250744,49.272496
VAD10010,Hawthorn Green (E2),Vancouver,V6T 2J6,BC,VBL10144,Residential,CanadaPost,6318 Hawthorn Lane,-123.24838,49.258314
VAD10410,Somerset (A1),Vancouver,V6T 2K5,BC,VBL10147,Residential,CanadaPost,6360 Larkin Drive,-123.248157,49.256906
VAD10185,Nine on the Park (1),Vancouver,V6T 0A3,BC,VBL10158,Residential,CanadaPost,6298 Eagles Drive,-123.247265,49.259442
VAD10271,Folio - Duplex (3F),Vancouver,V6T 0A1,BC,VBL10291,Residential,CanadaPost,5972 Chancellor Boulevard,-123.250493,49.272575
VAD10036,Logan Lane (C14),Vancouver,V6T 2K9,BC,VBL10226,Residential,CanadaPost,6226 Logan Lane,-123.246122,49.259137
VAD10272,Folio - Duplex (4G),Vancouver,V6T 0A1,BC,VBL10291,Residential,CanadaPost,5968 Chancellor Boulevard,-123.250389,49.272605
VAD10535,Chancellor Hall - Townhome (2),Vancouver,V6T 2L5,BC,VBL10271,Residential,CanadaPost,5980 Chancellor Mews,-123.250447,49.272213
VAD10435,St Mark's Duplex (8B),Vancouver,V6T 0A1,BC,VBL10279,Residential,CanadaPost,5908 Chancellor Boulevard,-123.249167,49.272864
VAD10432,St Mark's Duplex (7A),Vancouver,V6T 0A1,BC,VBL10279,Residential,CanadaPost,5912 Chancellor Boulevard,-123.249255,49.272847
VAD10275,Folio - Townhouse (A2),Vancouver,V6T 2L5,BC,VBL10316,Residential,CanadaPost,5966 Chancellor Mews,-123.250259,49.272279
VAD10283,Folio - Townhouse (A3),Vancouver,V6T 2L5,BC,VBL10316,Residential,CanadaPost,5968 Chancellor Mews,-123.250319,49.272258
VAD10433,St Mark's Duplex (7B),Vancouver,V6T 0A1,BC,VBL10279,Residential,CanadaPost,5918 Chancellor Boulevard,-123.249418,49.2728
VAD10424,St Mark's Duplex (5A),Vancouver,V6T 0A1,BC,VBL10279,Residential,CanadaPost,5938 Chancellor Boulevard,-123.2499,49.272689
VAD10430,St Mark's Duplex (6B),Vancouver,V6T 0A1,BC,VBL10279,Residential,CanadaPost,5922 Chancellor Boulevard,-123.249495,49.272797
VAD10428,St Mark's Duplex (6A),Vancouver,V6T 0A1,BC,VBL10279,Residential,CanadaPost,5928 Chancellor Boulevard,-123.24966,49.272748
VAD10534,Chancellor Hall - Townhome (1),Vancouver,V6T 2L5,BC,VBL10271,NeighbourhoodBldg,CanadaPost,5978 Chancellor Mews,-123.250384,49.272235
VAD10569,Fairview Crescent Residence (Unit 10),Vancouver,V6T 2B9,BC,VBL10193,Residential,CampusMail,2800 Fairview Crescent,-123.238658,49.262607
VAD10571,Acadia Park Residence - Tennis Crescent (2662),Vancouver,V6T 2E1,BC,VBL10436,Residential,CampusMail,2662 Tennis Crescent,-123.23733,49.263106
VAD10572,Acadia Park Residence - Montgomery Place (5505),Vancouver,V6T 2C8,BC,VBL10439,Residential,CampusMail,5505 Montgomery Place,-123.238031,49.265193
VAD10573,Acadia Park Residence - Tennis Crescent (2631),Vancouver,V6T 2C1,BC,VBL10436,Residential,CampusMail,2631 Tennis Crescent,-123.238112,49.263768
VAD10575,Acadia Park Residence - Yalta Place (5640),Vancouver,V6T 2C2,BC,VBL10438,Residential,CampusMail,5640 Yalta Place,-123.238653,49.263973
VAD10576,Acadia Park Residence - Montgomery Place (5613),Vancouver,V6T 2C8,BC,VBL10439,Residential,CampusMail,5613 Montgomery Place,-123.238691,49.265005
VAD10234,Fairview Crescent Residence (Unit 32),Vancouver,V6T 2B9,BC,VBL10193,Residential,CampusMail,2670 Fairview Crescent,-123.23999,49.263594
VAD10235,Fairview Crescent Residence (Unit 32),Vancouver,V6T 2B9,BC,VBL10193,Residential,CampusMail,2666 Fairview Crescent,-123.240037,49.263524
VAD10237,Fairview Crescent Residence (Unit 33),Vancouver,V6T 2B9,BC,VBL10193,Residential,CampusMail,2680 Fairview Crescent,-123.23984,49.263647
VAD10238,Fairview Crescent Residence (Unit 33),Vancouver,V6T 2B9,BC,VBL10193,Residential,CampusMail,2678 Fairview Crescent,-123.239854,49.263588
VAD10239,Fairview Crescent Residence (Unit 33),Vancouver,V6T 2B9,BC,VBL10193,Residential,CampusMail,2684 Fairview Crescent,-123.239733,49.263631
VAD10240,Fairview Crescent Residence (Unit 33),Vancouver,V6T 2B9,BC,VBL10193,Residential,CampusMail,2676 Fairview Crescent,-123.239871,49.263582
VAD10241,Fairview Crescent Residence (Unit 33),Vancouver,V6T 2B9,BC,VBL10193,Residential,CampusMail,2682 Fairview Crescent,-123.239789,49.263615
VAD10242,Fairview Crescent Residence (Unit 34),Vancouver,V6T 2B9,BC,VBL10193,Residential,CampusMail,2690 Fairview Crescent,-123.239678,49.263704
VAD10243,Fairview Crescent Residence (Unit 34),Vancouver,V6T 2B9,BC,VBL10193,Residential,CampusMail,2688 Fairview Crescent,-123.239686,49.263648
VAD10578,Acadia Park Residence - Yalta Place (5641),Vancouver,V6T 1L7,BC,VBL10438,Residential,CampusMail,5641 Yalta Place,-123.238792,49.26409
VAD10582,Acadia Park Residence - Pearkes Lane (2523),Vancouver,V6T 2C5,BC,VBL10440,Residential,CampusMail,2523 Pearkes Lane,-123.239414,49.264267
VAD10583,Acadia Park Residence - Yalta Place (5614),Vancouver,V6T 2C2,BC,VBL10438,Residential,CampusMail,5614 Yalta Place,-123.237938,49.264058
VAD10589,Fairview Crescent Residence (Unit 30),Vancouver,V6T 2B9,BC,VBL10193,Residential,CampusMail,2646 Fairview Crescent,-123.240283,49.263349
VAD10590,Fairview Crescent Residence (Unit 31),Vancouver,V6T 2B9,BC,VBL10193,Residential,CampusMail,2662 Fairview Crescent,-123.240142,49.263521
VAD10591,Fairview Crescent Residence (Unit 31),Vancouver,V6T 2B9,BC,VBL10193,Residential,CampusMail,2654 Fairview Crescent,-123.240132,49.263491
VAD10592,Fairview Crescent Residence (Unit 31),Vancouver,V6T 2B9,BC,VBL10193,Residential,CampusMail,2664 Fairview Crescent,-123.240073,49.263511
VAD10593,Acadia Park Residence - Yalta Place (5633),Vancouver,V6T 1L7,BC,VBL10438,Residential,CampusMail,5633 Yalta Place,-123.238561,49.264143
VAD10594,Acadia Park Residence - Montgomery Place (5617),Vancouver,V6T 2C8,BC,VBL10439,Residential,CampusMail,5617 Montgomery Place,-123.238675,49.26488
VAD10595,Acadia Park Residence - Melfa Lane (2637),Vancouver,V6T 2C5,BC,VBL10258,Residential,CampusMail,2637 Melfa Lane,-123.23661,49.263454
VAD10244,Fairview Crescent Residence (Unit 34),Vancouver,V6T 2B9,BC,VBL10193,Residential,CampusMail,2686 Fairview Crescent,-123.239703,49.263642
VAD10245,Fairview Crescent Residence (Unit 34),Vancouver,V6T 2B9,BC,VBL10193,Residential,CampusMail,2696 Fairview Crescent,-123.239566,49.26369
VAD10246,Fairview Crescent Residence (Unit 34),Vancouver,V6T 2B9,BC,VBL10193,Residential,CampusMail,2694 Fairview Crescent,-123.23962,49.263673
VAD10247,Fairview Crescent Residence (Unit 34),Vancouver,V6T 2B9,BC,VBL10193,Residential,CampusMail,2692 Fairview Crescent,-123.239659,49.26371
VAD10248,Fairview Crescent Residence (Unit 35),Vancouver,V6T 2B9,BC,VBL10193,Residential,CampusMail,2704 Fairview Crescent,-123.239422,49.263788
VAD10249,Fairview Crescent Residence (Unit 35),Vancouver,V6T 2B9,BC,VBL10193,Residential,CampusMail,2698 Fairview Crescent,-123.239536,49.263701
VAD10250,Fairview Crescent Residence (Unit 35),Vancouver,V6T 2B9,BC,VBL10193,Residential,CampusMail,2702 Fairview Crescent,-123.239513,49.263762
VAD10251,Fairview Crescent Residence (Unit 35) ,Vancouver,V6T 2B9,BC,VBL10193,Residential,CampusMail,2700 Fairview Crescent,-123.239518,49.263707
VAD10252,Fairview Crescent Residence (Unit 4),Vancouver,V6T 2B9,BC,VBL10193,Residential,CampusMail,2740 Fairview Crescent,-123.239104,49.263258
VAD10253,Fairview Crescent Residence (Unit 4),Vancouver,V6T 2B9,BC,VBL10193,Residential,CampusMail,2736 Fairview Crescent,-123.239197,49.263269
VAD10607,Fairview Crescent Residence (Unit 18),Vancouver,V6T 2B8,BC,VBL10198,Residential,CampusMail,2681 Fairview Crescent,-123.239648,49.263398
VAD10608,Fairview Crescent Residence (Unit 18),Vancouver,V6T 2B8,BC,VBL10198,Residential,CampusMail,2683 Fairview Crescent,-123.239609,49.263343
VAD10609,Fairview Crescent Residence (Unit 18),Vancouver,V6T 2B8,BC,VBL10198,Residential,CampusMail,2685 Fairview Crescent,-123.239549,49.263357
VAD10706,Reconciliation Chapel,Vancouver,V6T 1X3,BC,VBL10392,OtherBuilding,CanadaPost,6030 Chancellor Boulevard,-123.252295,49.271429
VAD10556,Corus - Townhouse (7),Vancouver,V6T 0A9,BC,VBL10303,Residential,CanadaPost,5987 Walter Gage Road,-123.249298,49.270577
VAD10025,Logan Lane (E3),Vancouver,V6T 2K9,BC,VBL10226,Residential,CanadaPost,6276 Logan Lane,-123.246388,49.259047
VAD10907,Corus - Townhouse (11),Vancouver,V6T 0A9,BC,VBL10303,Residential,CanadaPost,5997 Walter Gage Road,-123.24962,49.270464
VAD10037,Logan Lane (A5),Vancouver,V6T 2K8,BC,VBL10226,Residential,CanadaPost,2569 East Mall,-123.245064,49.258631
VAD10551,Chancellor House - Duplex (3B),Vancouver,V6T 1E7,BC,VBL10385,Residential,CanadaPost,6008 Chancellor Boulevard,-123.251755,49.272072
VAD10221,MBA House - Retail,Vancouver,V6S 0B9,BC,VBL10403,Commercial,CanadaPost,3380 Shrum Lane,-123.235435,49.253931
VAD10317,Fairview Crescent Residence (Unit 13),Vancouver,V6T 2B8,BC,VBL10198,Residential,CampusMail,2737 Fairview Crescent,-123.239362,49.262708
VAD10641,Fairview Crescent Residence (Unit 22),Vancouver,V6T 2B8,BC,VBL10198,Residential,CampusMail,2643 Fairview Crescent,-123.24032,49.263124
VAD10296,Fairview Crescent Residence (Unit 7),Vancouver,V6T 2B9,BC,VBL10193,Residential,CampusMail,2772 Fairview Crescent,-123.238867,49.262949
VAD10651,Fairview Crescent Residence (Unit 24),Vancouver,V6T 2B8,BC,VBL10198,Residential,CampusMail,2621 Fairview Crescent,-123.240572,49.262961
VAD10307,Fairview Crescent Residence (Unit 11),Vancouver,V6T 2B8,BC,VBL10198,Residential,CampusMail,2759 Fairview Crescent,-123.239046,49.262628
VAD10470,Fairview Crescent Residence (Unit 3),Vancouver,V6T 2B9,BC,VBL10193,Residential,CampusMail,2730 Fairview Crescent,-123.239179,49.263346
VAD10350,Fairview Crescent Residence (Unit 9),Vancouver,V6T 2B9,BC,VBL10193,Residential,CampusMail,2792 Fairview Crescent,-123.238697,49.262733
VAD10459,Fairview Crescent Residence (Unit 30),Vancouver,V6T 2B9,BC,VBL10193,Residential,CampusMail,2644 Fairview Crescent,-123.240305,49.263341
VAD10196,Oakwood Residences,Vancouver,V6S 0L1,BC,VBL10255,NeighbourhoodBldg,CanadaPost,3383 Ross Drive,-123.238694,49.251847
VAD11183,Brock Commons North,Vancouver,V6T 1K2,BC,VBL10423,CampusBuilding,CampusMail,6177 Walter Gage Road,-123.252659,49.269365
VAD11125,UBC Research Ponds,Vancouver,V6T 1W5,BC,VBL10222,CampusBuilding,CampusMail,4069 Wesbrook Mall,-123.232683,49.247208
VAD10270,Folio - Duplex (3E),Vancouver,V6T 0A1,BC,VBL10291,Residential,CanadaPost,5978 Chancellor Boulevard,-123.250657,49.272524
VAD10236,Fairview Crescent Residence (Unit 32) ,Vancouver,V6T 2B9,BC,VBL10193,Residential,CampusMail,2672 Fairview Crescent,-123.239957,49.263555
VAD10610,Fairview Crescent Residence (Unit 19),Vancouver,V6T 2B8,BC,VBL10198,Residential,CampusMail,2675 Fairview Crescent,-123.23986,49.263428
VAD10079,The Mews - Retail,Vancouver,V6S 0B9,BC,VBL10165,Commercial,CanadaPost,3308 Shrum Lane,-123.236094,49.254693
VAD10024,Logan Lane (D3),Vancouver,V6T 2K9,BC,VBL10226,Residential,CanadaPost,6256 Logan Lane,-123.245673,49.258611
VAD10423,Spirit,Vancouver,V6S 0B6,BC,VBL10238,NeighbourhoodBldg,CanadaPost,3478 Wesbrook Mall,-123.233778,49.252924
VAD10273,Folio - Duplex (4H),Vancouver,V6T 0A1,BC,VBL10291,Residential,CanadaPost,5962 Chancellor Boulevard,-123.250221,49.272655
VAD10939,Acadia Park Residence - Tennis Crescent (2656),Vancouver,V6T 2E1,BC,VBL10436,Residential,CampusMail,2656 Tennis Crescent,-123.237388,49.263224
VAD10967,Acadia Park Residence - Montgomery Place (5640),Vancouver,V6T 2C7,BC,VBL10439,Residential,CampusMail,5640 Montgomery Place,-123.239252,49.264516
VAD10856,Acadia Park Residence - Melfa Lane (2612),Vancouver,V6T 2C6,BC,VBL10258,Residential,CampusMail,2612 Melfa Lane,-123.236795,49.264196
VAD11044,Engineering Student Centre (ESC),Vancouver,V6T 1Z4,BC,VBL10073,CampusBuilding,CampusMail,2335 Engineering Road,-123.249171,49.262062
VAD10734,Coal and Mineral Processing Laboratory,Vancouver,V6T 1Z4,BC,VBL10068,CampusBuilding,CampusMail,2332 West Mall,-123.252296,49.261208
VAD10379,Ponderosa Office Annex E,Vancouver,V6T 1Z2,BC,VBL10151,CampusBuilding,CampusMail,2034 Lower Mall,-123.25677,49.264703
VAD10102,Old Fire Hall,Vancouver,V6T 1Z2,BC,VBL10139,CampusBuilding,CampusMail,2038 West Mall,-123.255613,49.265095
VAD10623,Fairview Crescent Residence (Unit 20),Vancouver,V6T 2B8,BC,VBL10198,Residential,CampusMail,2671 Fairview Crescent,-123.239937,49.263392
VAD10286,Fairview Crescent Residence (Unit 4),Vancouver,V6T 2B9,BC,VBL10193,Residential,CampusMail,2744 Fairview Crescent,-123.239113,49.263225
VAD10601,Thunderbird Residence - Front Desk ,Vancouver,V6T 2G9,BC,VBL10215,Complex,CampusMail,6335 Thunderbird Crescent,-123.249193,49.259328
VAD10772,Cascara House,Vancouver,V6T 0C1,BC,VBL10347,NeighbourhoodBldg,CanadaPost,6385 Hawthorn Lane,-123.249554,49.258272
VAD10104,P. A. Woodward Instructional Resources Centre (IRC),Vancouver,V6T 1Z3,BC,VBL10102,CampusBuilding,CampusMail,2194 Health Sciences Mall,-123.247336,49.264803
VAD10865,Nobel Biocare Oral Health Centre,Vancouver,V6T 1Z3,BC,VBL10070,Occupant,CanadaPost,2151 Wesbrook Mall,-123.245555,49.265894
VAD11031,David Strangway Building,Vancouver,V6T 1Z3,BC,VBL10070,CampusBuilding,CanadaPost,5950 University Boulevard,-123.246045,49.266004
VAD10417,Sandringham,Vancouver,V6T 2G5,BC,VBL10106,NeighbourhoodBldg,CanadaPost,5650 Hampton Place,-123.233503,49.258282
VAD11071,Thames Court,Vancouver,V6T 2E9,BC,VBL10253,NeighbourhoodBldg,CanadaPost,5880 Hampton Place,-123.236599,49.257487
VAD11140,UBC Botanical Garden,Vancouver,V6T 1Z4,BC,VBL10419,Complex,CampusMail,6804 SW Marine Drive,-123.250619,49.254049
VAD11112,UBC Botanical Garden - Scholars' Retreat,Vancouver,V6T 1Z4,BC,VBL10004,CampusBuilding,CampusMail,6380 Stadium Road,-123.246835,49.255045
VAD10135,Ivy on the Park - Highrise,Vancouver,V6S 0L5,BC,VBL10265,NeighbourhoodBldg,CanadaPost,5629 Birney Avenue,-123.231046,49.254594
VAD10226,Granite Terrace 2 - Offices,Vancouver,V6S 0B3,BC,VBL10414,NeighbourhoodBldg,CanadaPost,5923 Berton Avenue,-123.236262,49.255085
VAD10581,Sage,Vancouver,V6S 0C1,BC,VBL10187,NeighbourhoodBldg,CanadaPost,5782 Berton Avenue,-123.233783,49.255395
VAD10606,Granite Terrace - Save-on-Foods,Vancouver,V6S 0B3,BC,VBL10164,Commercial,CanadaPost,5945 Berton Avenue,-123.236554,49.254766
VAD11026,Crescent West,Vancouver,V6S 0A9,BC,VBL10219,NeighbourhoodBldg,CanadaPost,5879 Gray Avenue,-123.233025,49.252869
VAD10408,Sail - Building 2,Vancouver,V6S 0G1,BC,VBL10390,NeighbourhoodBldg,CanadaPost,5981 Gray Avenue,-123.234865,49.252638
VAD10172,Mundell House,Vancouver,V6S 0L4,BC,VBL10213,NeighbourhoodBldg,CanadaPost,6038 Birney Avenue,-123.236351,49.253013
VAD10477,Acadia Modular Child Care 2 - Barish,Vancouver,V6T 1S1,BC,VBL10373,CampusBuilding,CampusMail,2835 Revelstoke Court,-123.235169,49.260536
VAD10478,Acadia Modular Child Care 3 - Willow,Vancouver,V6T 1S1,BC,VBL10375,CampusBuilding,CampusMail,2845 Revelstoke Court,-123.235088,49.260768
VAD10222,Georgia Point,Vancouver,V6S 0L2,BC,VBL10247,NeighbourhoodBldg,CanadaPost,3381 Ross Drive,-123.239023,49.251855
VAD11105,UBC Farm,Vancouver,V6T 1W5,BC,VBL10014,Complex,CampusMail,3461 Ross Drive,-123.237372,49.250754
VAD10476,Acadia Modular Child Care 1 - Saw-Whet,Vancouver,V6T 1S1,BC,VBL10372,CampusBuilding,CampusMail,2850 Salmo Court,-123.236127,49.26032
VAD10475,Wood Drying Laboratory,Vancouver,V6T 1Z4,BC,VBL10285,CampusBuilding,CampusMail,2324 West Mall,-123.252322,49.261455
VAD10017,Hugh Dempster Pavilion,Vancouver,V6T 1Z4,BC,VBL10363,CampusBuilding,CampusMail,6245 Agronomy Road,-123.24812,49.261179
VAD10722,Civil and Mechanical Engineering Building,Vancouver,V6T 1Z4,BC,VBL10329,CampusBuilding,CampusMail,6250 Applied Science Lane,-123.249239,49.262685
VAD10065,Engineering High Head Room Laboratory,Vancouver,V6T 1Z4,BC,VBL10330,Occupant,CampusMail,2225 East Mall,-123.248903,49.263568
VAD10844,Earthquake Engineering Research Facility,Vancouver,V6T 1Z4,BC,VBL10330,Occupant,CampusMail,2235 East Mall,-123.248845,49.263509
VAD10111,Life Sciences Centre,Vancouver,V6T 1Z3,BC,VBL10111,CampusBuilding,CampusMail,2350 Health Sciences Mall,-123.246025,49.262394
VAD11126,UBC Hospital - Koerner Pavilion,Vancouver,V6T 1Z3,BC,VBL10318,OtherBuilding,CampusMail,2211 Wesbrook Mall,-123.245555,49.264162
VAD11131,UBC Hospital - Purdy Pavilion,Vancouver,V6T 1Z9,BC,VBL10388,OtherBuilding,CampusMail,2221 Wesbrook Mall,-123.245922,49.263451
VAD11205,Arts Student Centre,Vancouver,V6T 1Z1,BC,VBL10426,CampusBuilding,CampusMail,1860 East Mall,-123.253175,49.269219
VAD10109,"Ivy on the Park - Townhomes (North, South 1 & South 2)",Vancouver,V6S 0A5,BC,VBL10264,NeighbourhoodBldg,CanadaPost,5681 Birney Avenue,-123.231815,49.254572
VAD10305,Fairview Crescent Residence (Unit 11),Vancouver,V6T 2B8,BC,VBL10198,Residential,CampusMail,2769 Fairview Crescent,-123.238953,49.262648
VAD10484,Acadia House - 1 (101-104),Vancouver,V6T 1R9,BC,VBL10308,Residential,CampusMail,2710 Acadia Road,-123.235851,49.262924
VAD10014,Henry Angus Building,Vancouver,V6T 1Z2,BC,VBL10067,CampusBuilding,CampusMail,2053 Main Mall,-123.253537,49.265068
VAD10210,Jack Bell Building for the School of Social Work,Vancouver,V6T 1Z2,BC,VBL10081,CampusBuilding,CampusMail,2080 West Mall,-123.255021,49.264305
VAD10107,Berwick Memorial Centre - Daycare,Vancouver,V6T 1X7,BC,VBL10155,IndoorArea,CampusMail,2767 Osoyoos Crescent,-123.239348,49.260495
VAD10604,Place Vanier Residence - Front Desk,Vancouver,V6T 1X1,BC,VBL10108,Complex,CampusMail,1935 Lower Mall,-123.258822,49.26488
VAD10724,University RCMP,Vancouver,V6T 2B7,BC,VBL10046,OtherBuilding,CampusMail,2990 Wesbrook Mall,-123.238541,49.25902
VAD10725,Vancouver Fire Rescue Services - No. 10 Firehall,Vancouver,V6T 2B7,BC,VBL10046,Occupant,CampusMail,2992 Wesbrook Mall,-123.238245,49.258699
VAD11035,Dorothy Somerset Studios,Vancouver,V6T 1Z2,BC,VBL10130,CampusBuilding,CampusMail,6361 University Boulevard,-123.254709,49.264667
VAD11194,UBC Water Pump Station,Vancouver,V6T 1Z2,BC,VBL10420,CampusBuilding,CampusMail,6355 University Boulevard,-123.254211,49.264664
VAD10882,Acadia Park Highrise,Vancouver,V6T 1N4,BC,VBL10260,CampusBuilding,CampusMail,2725 Melfa Road,-123.236888,49.26242
VAD10958,Acadia Park Residence - Tennis Crescent (2663),Vancouver,V6T 2C1,BC,VBL10436,Residential,CampusMail,2663 Tennis Crescent,-123.237542,49.262951
VAD11008,Acadia Park Residence - Yalta Place (5508),Vancouver,V6T 2C2,BC,VBL10438,Residential,CampusMail,5508 Yalta Place,-123.237405,49.264259
VAD10711,Child Care Services - Little Goslings/Coho,Vancouver,V6T 2E6,BC,VBL10274,CampusBuilding,CampusMail,5590 Osoyoos Crescent,-123.234238,49.259859
VAD11107,Child Care Services - Auklet,Vancouver,V6T 1S1,BC,VBL10276,CampusBuilding,CampusMail,5615 Osoyoos Crescent,-123.234687,49.260096
VAD11101,Child Care Services - Salal,Vancouver,V6T 1S1,BC,VBL10273,CampusBuilding,CampusMail,5655 Osoyoos Crescent,-123.235113,49.25983
VAD11089,Central - Retail,Vancouver,V6T 0C4,BC,VBL10356,Commercial,CanadaPost,6065 University Boulevard,-123.247689,49.266182
VAD11119,Focal - Retail,Vancouver,V6T 0C7,BC,VBL10232,Commercial,CanadaPost,"6111 University Boulevard, Unit 101",-123.248668,49.266106
VAD10091,Central - Retail,Vancouver,V6T 0C4,BC,VBL10356,Commercial,CanadaPost,6055 University Boulevard,-123.247587,49.266199
VAD11127,Focal - Retail,Vancouver,V6T 0C7,BC,VBL10232,Commercial,CanadaPost,"6111 University Boulevard, Unit 102",-123.248412,49.266093
VAD11115,Focal - Retail,Vancouver,V6T 0C7,BC,VBL10232,Commercial,CanadaPost,"6111 University Boulevard, Unit 103",-123.248262,49.266111
VAD10229,Greenwood Commons,Vancouver,V6T 0A5,BC,VBL10010,NeighbourhoodBldg,CanadaPost,2660 Wesbrook Mall,-123.23975,49.26081
VAD10742,Spirit Park Apartments - 2,Vancouver,V6T 1X7,BC,VBL10074,Residential,CampusMail,2715 Osoyoos Crescent,-123.239347,49.2615
VAD10863,Spirit Park Apartments - Huckleberry Daycare,Vancouver,V6T 1X7,BC,VBL10074,IndoorArea,CampusMail,2735 Osoyoos Crescent,-123.239447,49.261151
VAD10090,Central - Retail,Vancouver,V6T 0C4,BC,VBL10356,Commercial,CanadaPost,6045 University Boulevard,-123.247505,49.266209
VAD10744,Spirit Park Apartments,Vancouver,V6T 1X7,BC,VBL10074,CampusBuilding,CampusMail,2705 Osoyoos Crescent,-123.239467,49.261718
VAD10743,Spirit Park Apartments - 3,Vancouver,V6T 1X7,BC,VBL10074,Residential,CampusMail,2725 Osoyoos Crescent,-123.23921,49.261252
VAD11116,Focal - Retail,Vancouver,V6T 0C7,BC,VBL10232,Commercial,CanadaPost,"6111 University Boulevard, Unit 106",-123.248443,49.26627
VAD10145,Robert F. Osborne Centre,Vancouver,V6T 1Z3,BC,VBL10251,Complex,CampusMail,6108 Thunderbird Boulevard,-123.243988,49.260195
VAD10224,Gerald McGavin UBC Rugby Centre,Vancouver,V6T 1Z3,BC,VBL10412,CampusBuilding,CampusMail,2765 Wesbrook Mall,-123.241322,49.259615
VAD10042,Tamarack House,Vancouver,V6T 0C3,BC,VBL10159,NeighbourhoodBldg,CanadaPost,6230 Thunderbird Boulevard,-123.246446,49.259741
VAD10390,Reflections,Vancouver,V6T 2K7,BC,VBL10148,NeighbourhoodBldg,CanadaPost,6279 Eagles Drive,-123.246755,49.258303
VAD10121,Journey,Vancouver,V6T 2K2,BC,VBL10225,NeighbourhoodBldg,CanadaPost,6328 Larkin Drive,-123.247618,49.257973
VAD10184,Neville Scarfe Building,Vancouver,V6T 1Z4,BC,VBL10095,CampusBuilding,CampusMail,2125 Main Mall,-123.252922,49.264141
VAD10165,Ponderosa Commons East,Vancouver,V6T 1Z4,BC,VBL10311,CampusBuilding,CampusMail,6398 University Boulevard,-123.254712,49.263882
VAD10032,Leon and Thea Koerner University Centre,Vancouver,V6T 1Z2,BC,VBL10093,CampusBuilding,CampusMail,6331 Crescent Road,-123.256991,49.268762
VAD10128,Nitobe Memorial Garden,Vancouver,V6T 1Z2,BC,VBL10230,CampusBuilding,CampusMail,1895 Lower Mall,-123.259219,49.266492
VAD11038,Earth Sciences Building (ESB),Vancouver,V6T 1Z4,BC,VBL10072,CampusBuilding,CampusMail,2207 Main Mall,-123.251973,49.263195
VAD10821,Building Operations Storage Shed,Vancouver,V6T 1Z4,BC,VBL10207,CampusBuilding,CampusMail,2214 Lower Mall,-123.254572,49.262084
VAD10015,Hillel House,Vancouver,V6T 1Z1,BC,VBL10361,OtherBuilding,CampusMail,6145 Student Union Boulevard,-123.251292,49.268481
VAD10427,UBC Counselling Services,Vancouver,V6T 1Z1,BC,VBL10421,CampusBuilding,CampusMail,1930 East Mall,-123.251824,49.268169
VAD11213,t xhlelms t kaka (Saltwater) - Front Desk,Vancouver,V6T 1K2,BC,VBL10378,Complex,CampusMail,5955 Student Union Boulevard,-123.248612,49.269118
VAD10613,Walter H. Gage Residence - Front Desk,Vancouver,V6T 1K2,BC,VBL10263,Complex,CampusMail,5959 Student Union Boulevard,-123.249617,49.269436
VAD10455,Student Recreation Centre (SRC),Vancouver,V6T 1Z1,BC,VBL10125,CampusBuilding,CampusMail,6000 Student Union Boulevard,-123.249378,49.268293
VAD10817,Binning Tower,Vancouver,V6S 0J1,BC,VBL10210,NeighbourhoodBldg,CanadaPost,3355 Binning Road,-123.231218,49.255501
VAD11165,Evolve,Vancouver,V6T 1W5,BC,VBL10422,NeighbourhoodBldg,CanadaPost,3518 Wesbrook Mall,-123.233453,49.252343
VAD10069,Tapestry North - Retail,Vancouver,V6S 0A8,BC,VBL10137,Commercial,CanadaPost,3328 Wesbrook Mall,-123.235292,49.254761
VAD10075,Tapestry North - Retail,Vancouver,V6S 0A8,BC,VBL10137,Commercial,CanadaPost,3318 Wesbrook Mall,-123.235361,49.254846
VAD10489,The Laureates - Apartment,Vancouver,V6S 0H8,BC,VBL10261,NeighbourhoodBldg,CanadaPost,5638 Birney Avenue,-123.231298,49.254219
VAD11193,Focal - Retail,Vancouver,V6T 0C7,BC,VBL10232,Commercial,CanadaPost,"6111 University Boulevard, Unit 105",-123.248272,49.266282
VAD11192,Focal - Retail,Vancouver,V6T 0C7,BC,VBL10232,Commercial,CanadaPost,"6111 University Boulevard, Unit 104",-123.248044,49.266259
VAD10488,The Laureates - Highrise,Vancouver,V6S 0H7,BC,VBL10241,NeighbourhoodBldg,CanadaPost,5628 Birney Avenue,-123.230914,49.254206
VAD10387,Prodigy - Building 2,Vancouver,V6S 0H6,BC,VBL10336,NeighbourhoodBldg,CanadaPost,3462 Ross Drive,-123.236762,49.251487
VAD11219,MBA House - Retail,Vancouver,V6S 0B1,BC,VBL10403,Commercial,CanadaPost,3387 Wesbrook Mall,-123.234908,49.253828
VAD11191,The Conservatory,Vancouver,V6S 2L2,BC,VBL10427,NeighbourhoodBldg,CanadaPost,5608 Berton Avenue,-123.23162,49.256222
VAD10584,The Wesbrook,Vancouver,V6S 0A5,BC,VBL10184,NeighbourhoodBldg,CanadaPost,5838 Berton Avenue,-123.234668,49.255178
VAD10282,Frederic Lasserre Building,Vancouver,V6T 1Z2,BC,VBL10042,CampusBuilding,CampusMail,6333 Memorial Road,-123.256207,49.267473
VAD10434,St Mark's Duplex (8A),Vancouver,V6T 0A1,BC,VBL10279,NeighbourhoodBldg,CanadaPost,5902 Chancellor Boulevard,-123.24894,49.27291
VAD10440,St. Mark's College,Vancouver,V6T 1J7,BC,VBL10118,OtherBuilding,CanadaPost,5935 Iona Drive,-123.249324,49.272156
VAD10705,Chancellor House - Apartment,Vancouver,V6T 2J4,BC,VBL10387,NeighbourhoodBldg,CanadaPost,6015 Iona Drive,-123.251261,49.271335
VAD11050,Esse,Vancouver,V6T 2J7,BC,VBL10280,NeighbourhoodBldg,CanadaPost,1863 Wesbrook Mall,-123.248221,49.270935
VAD11090,University Boulevard Lot,Vancouver,V6T 1Z3,BC,VBL10355,CampusBuilding,CampusMail,6131 University Boulevard,-123.24916,49.266431
VAD11212,Recreation Centre North,Vancouver,V6T 1Z1,BC,VBL10441,CampusBuilding,,6140 Student Union Boulevard,-123.250839,49.268017
VAD11129,Focal,Vancouver,V6T 0C7,BC,VBL10232,NeighbourhoodBldg,CanadaPost,6111 University Boulevard,-123.248217,49.26611
VAD10436,St. Andrew's Hall,Vancouver,V6T 2E8,BC,VBL10114,OtherBuilding,CanadaPost,6040 Iona Drive,-123.251638,49.270367
VAD10812,Axis,Vancouver,V6T 0B6,BC,VBL10314,NeighbourhoodBldg,CanadaPost,6090 Iona Drive,-123.252345,49.270112
VAD10851,Central,Vancouver,V6T 0C4,BC,VBL10356,NeighbourhoodBldg,CanadaPost,6015 University Boulevard,-123.247038,49.266286
VAD10479,Woodward Library,Vancouver,V6T 1Z3,BC,VBL10262,CampusBuilding,CampusMail,2198 Health Sciences Mall,-123.247561,49.264801
VAD10166,Mary Bollert Hall,Vancouver,V6T 1Z1,BC,VBL10201,CampusBuilding,CampusMail,6253 NW Marine Drive,-123.256281,49.270543
VAD10830,UBC Security,Vancouver,V6T 1Z4,BC,VBL10065,Occupant,CampusMail,2133 East Mall,-123.250252,49.264946
VAD11103,UBC Bookstore,Vancouver,V6T 1Z4,BC,VBL10065,CampusBuilding,CampusMail,6200 University Boulevard,-123.250649,49.265257
VAD10492,Anthropology and Sociology Building,Vancouver,V6T 1Z1,BC,VBL10204,CampusBuilding,CampusMail,6303 NW Marine Drive,-123.257573,49.270129
VAD10808,Argyll House East,Vancouver,V6T 2L2,BC,VBL10288,NeighbourhoodBldg,CanadaPost,5958 Iona Drive,-123.249768,49.27141
VAD10022,Iona Building,Vancouver,V6T 1L4,BC,VBL10292,CampusBuilding,CampusMail,6000 Iona Drive,-123.250378,49.271068
VAD11114,Vancouver School of Theology (VST),Vancouver,V6T 1Z1,BC,VBL10302,OtherBuilding,CanadaPost,6015 Walter Gage Road,-123.251171,49.270347
VAD10473,Westpoint,Vancouver,V6T 0B3,BC,VBL10305,NeighbourhoodBldg,CanadaPost,6005 Walter Gage Road,-123.250606,49.270092
VAD10062,Corus - Apartment,Vancouver,V6T 0A8,BC,VBL10303,NeighbourhoodBldg,CanadaPost,5989 Walter Gage Road,-123.249382,49.270565
VAD10195,North Parkade,Vancouver,V6T 1Z1,BC,VBL10234,CampusBuilding,CampusMail,6115 Student Union Boulevard,-123.250489,49.268792
VAD10905,Chemistry Building,Vancouver,V6T 1Z1,BC,VBL10328,CampusBuilding,CampusMail,2036 Main Mall,-123.253115,49.265893
VAD11063,Exchange Residence,Vancouver,V6T 2C9,BC,VBL10370,CampusBuilding,CampusMail,5960 Student Union Boulevard,-123.24849,49.268846
VAD10842,Buchanan Tower,Vancouver,V6T 1Z1,BC,VBL10324,CampusBuilding,CampusMail,1873 East Mall,-123.253238,49.268659
VAD10384,Power House,Vancouver,V6T 1Z2,BC,VBL10024,CampusBuilding,CampusMail,2040 West Mall,-123.254834,49.265239
VAD10177,Michael Smith Laboratories,Vancouver,V6T 1Z4,BC,VBL10221,CampusBuilding,CampusMail,2185 East Mall,-123.249866,49.264505
VAD10483,Acadia House,Vancouver,V6T 1R9,BC,VBL10308,CampusBuilding,CampusMail,2700 Acadia Road,-123.236183,49.263204
VAD10709,Child Care Services - Administration Building,Vancouver,V6T 1S1,BC,VBL10306,CampusBuilding,CampusMail,2881 Acadia Road,-123.23426,49.261171
VAD10687,Child Care Services - Acadia,Vancouver,V6T 1S1,BC,VBL10272,CampusBuilding,CampusMail,2865 Revelstoke Court,-123.234876,49.260845
VAD11100,Child Care Services - Sandpiper,Vancouver,V6T 1S1,BC,VBL10276,IndoorArea,CampusMail,2805 Revelstoke Court,-123.234985,49.260325
VAD11096,Child Care Services - Kittiwake,Vancouver,V6T 1S1,BC,VBL10273,IndoorArea,CampusMail,2815 Revelstoke Court,-123.235249,49.260162
VAD10713,Child Care Services - Sitka/Discovery,Vancouver,V6T 2E6,BC,VBL10140,CampusBuilding,CampusMail,5620 Osoyoos Crescent,-123.234702,49.259677
VAD10715,Child Care Services - Tillicum/Canada Goose,Vancouver,V6T 2E6,BC,VBL10142,CampusBuilding,CampusMail,5660 Osoyoos Crescent,-123.235196,49.259529
VAD10714,Child Care Services - Summer of 73/Lilliput,Vancouver,V6T 2E6,BC,VBL10141,CampusBuilding,CampusMail,5690 Osoyoos Crescent,-123.235744,49.259387
VAD10280,Fraternity Village,Vancouver,V6T 2J3,BC,VBL10404,OtherBuilding,CampusMail,2880 Wesbrook Mall,-123.239288,49.259507
VAD10018,In-Vessel Composting Facility,Vancouver,V6T 1W5,BC,VBL10364,CampusBuilding,CampusMail,6035 Nurseries Road,-123.228103,49.244922
VAD11189,UBC Botanical Garden Nursery,Vancouver,V6T 1W5,BC,VBL10195,CampusBuilding,CampusMail,3929 Wesbrook Mall,-123.234689,49.249444
VAD11069,Tapestry South,Vancouver,V6S 0A7,BC,VBL10182,NeighbourhoodBldg,CanadaPost,3382 Wesbrook Mall,-123.234745,49.254109
VAD11067,The Mews - Retail,Vancouver,V6S 0E4,BC,VBL10165,Commercial,CanadaPost,3309 Westbrook Mall,-123.235787,49.254857
VAD11128,University Services Building (USB),Vancouver,V6T 1Z4,BC,VBL10150,CampusBuilding,CampusMail,2329 West Mall,-123.253387,49.261102
VAD11057,The Mews,Vancouver,V6S 0E3,BC,VBL10165,NeighbourhoodBldg,CanadaPost,3333 Wesbrook Mall,-123.235552,49.254591
VAD10161,Liu Institute for Global Issues,Vancouver,V6T 1Z2,BC,VBL10177,CampusBuilding,CampusMail,6476 NW Marine Drive,-123.259085,49.267641
VAD10168,Ponderosa Commons West,Vancouver,V6T 1Z4,BC,VBL10310,CampusBuilding,CampusMail,6488 University Boulevard,-123.255926,49.263456
VAD10169,Ponderosa Commons North,Vancouver,V6T 1Z2,BC,VBL10312,CampusBuilding,CampusMail,6445 University Boulevard,-123.255825,49.26395
VAD10279,Fraser River Parkade,Vancouver,V6T 1Z2,BC,VBL10397,CampusBuilding,CampusMail,6440 Memorial Road,-123.258356,49.266284
VAD10357,First Nations Longhouse,Vancouver,V6T 1Z2,BC,VBL10386,CampusBuilding,CampusMail,1985 West Mall,-123.257204,49.265535
VAD10398,Sing Tao Building,Vancouver,V6T 1Z2,BC,VBL10348,CampusBuilding,CampusMail,6388 Crescent Road,-123.257862,49.267845
VAD10603,Ponderosa Commons - Front Desk,Vancouver,V6T 1Z2,BC,VBL10312,Complex,CampusMail,2075 West Mall,-123.256079,49.264269
VAD10783,West Parkade,Vancouver,V6T 1Z4,BC,VBL10284,CampusBuilding,CampusMail,2140 Lower Mall,-123.255628,49.262884
VAD11083,Thea Koerner House,Vancouver,V6T 1Z2,BC,VBL10249,CampusBuilding,CampusMail,6371 Crescent Road,-123.257767,49.268526
VAD10838,Biological Sciences Building,Vancouver,V6T 1Z4,BC,VBL10409,CampusBuilding,CampusMail,6270 University Boulevard,-123.252026,49.264558
VAD10815,Beaty Biodiversity Centre,Vancouver,V6T 1Z4,BC,VBL10086,CampusBuilding,CampusMail,2212 Main Mall,-123.251064,49.263466
VAD10072,The Mews - Retail,Vancouver,V6S 0B9,BC,VBL10165,Commercial,CanadaPost,3312 Shrum Lane,-123.236009,49.254615
VAD11143,Village Square - Retail,Vancouver,V6S 0J7,BC,VBL10170,Commercial,CanadaPost,5968 Webber Lane,-123.236468,49.254056
VAD11142,Village Square - Retail,Vancouver,V6S 0J7,BC,VBL10170,Commercial,CanadaPost,5988 Webber Lane,-123.236661,49.253989
VAD10074,The Leonard S. Klinck Building,Vancouver,V6T 1Z2,BC,VBL10252,CampusBuilding,CampusMail,6356 Agricultural Road,-123.255151,49.265661
VAD10097,Old Administration Building,Vancouver,V6T 1Z2,BC,VBL10138,CampusBuilding,CampusMail,6328 Memorial Road,-123.255526,49.267257
VAD10127,Green College - Front Desk,Vancouver,V6T 1Z1,BC,VBL10200,Complex,CampusMail,6201 Cecil Green Park Road,-123.256371,49.271048
VAD10171,Mathematics Annex,Vancouver,V6T 1Z2,BC,VBL10216,CampusBuilding,CampusMail,1986 Mathematics Road,-123.254567,49.266214
VAD10825,Campus and Community Planning,Vancouver,V6T 1Z4,BC,VBL10332,CampusBuilding,CampusMail,2210 West Mall,-123.253297,49.262433
VAD10827,David Lam Learning Centre,Vancouver,V6T 1Z2,BC,VBL10278,Occupant,CampusMail,6326 Agricultural Road,-123.25461,49.265776
VAD10841,Buchanan Building,Vancouver,V6T 1Z1,BC,VBL10323,CampusBuilding,CampusMail,1866 Main Mall,-123.254908,49.268283
VAD10849,Cecil Green Park Coach House,Vancouver,V6T 1Z1,BC,VBL10341,CampusBuilding,CampusMail,6323 Cecil Green Park Road,-123.258582,49.270993
VAD10850,Cecil Green Park House,Vancouver,V6T 1Z1,BC,VBL10342,CampusBuilding,CampusMail,6251 Cecil Green Park Road,-123.257747,49.271306
VAD10886,Chan Centre for the Performing Arts,Vancouver,V6T 1Z1,BC,VBL10282,CampusBuilding,CampusMail,6265 Crescent Road,-123.255598,49.269387
VAD11037,Douglas T. Kenny Building,Vancouver,V6T 1Z4,BC,VBL10131,CampusBuilding,CampusMail,2136 West Mall,-123.254129,49.263473
VAD11146,Walter C. Koerner Library,Vancouver,V6T 1Z2,BC,VBL10154,CampusBuilding,CampusMail,1958 Main Mall,-123.25499,49.266704
VAD10175,Mathematics Building,Vancouver,V6T 1Z2,BC,VBL10229,CampusBuilding,CampusMail,1984 Mathematics Road,-123.255416,49.266504
VAD10178,Morris and Helen Belkin Art Gallery,Vancouver,V6T 1Z2,BC,VBL10315,CampusBuilding,CampusMail,1825 Main Mall,-123.25627,49.268232
VAD10262,Geography Building,Vancouver,V6T 1Z2,BC,VBL10411,CampusBuilding,CampusMail,1984 West Mall,-123.256219,49.26579
VAD10376,Ponderosa Office Annex A,Vancouver,V6T 1Z2,BC,VBL10146,CampusBuilding,CampusMail,2011 West Mall,-123.256211,49.265185
VAD10409,Rose Garden Parkade,Vancouver,V6T 1Z1,BC,VBL10054,CampusBuilding,CampusMail,6278 NW Marine Drive,-123.256715,49.269529
VAD10605,Marine Drive Residence - Front Desk,Vancouver,V6T 1Z4,BC,VBL10088,Complex,CampusMail,2205 Lower Mall,-123.256534,49.261492
VAD10811,Auditorium Annexes,Vancouver,V6T 1Z2,BC,VBL10228,CampusBuilding,CampusMail,1924 West Mall,-123.256931,49.266726
VAD10814,B.C. Binning Studios,Vancouver,V6T 1Z2,BC,VBL10134,CampusBuilding,CampusMail,6373 University Boulevard,-123.25478,49.264642
VAD10011,Health Sciences Parkade,Vancouver,V6T 1Z3,BC,VBL10357,CampusBuilding,CampusMail,2250 Health Sciences Mall,-123.24736,49.263054
VAD10020,"Institute for Computing, Information and Cognitive Systems / Computer Science (ICICS/CS)",Vancouver,V6T 1Z4,BC,VBL10078,CampusBuilding,CampusMail,2366 Main Mall,-123.249279,49.261098
VAD10098,Panhellenic House,Vancouver,V6T 2B7,BC,VBL10313,OtherBuilding,CampusMail,2770 Wesbrook Mall,-123.239604,49.260091
VAD10223,Gerald McGavin Building,Vancouver,V6T 1Z3,BC,VBL10043,OtherBuilding,CampusMail,2386 East Mall,-123.246812,49.261639
VAD10263,George Cunningham Building,Vancouver,V6T 1Z3,BC,VBL10039,CampusBuilding,CampusMail,2146 East Mall,-123.249109,49.264767
VAD10278,Fraser Hall,Vancouver,V6T 1Z3,BC,VBL10117,CampusBuilding,CanadaPost,2550 Wesbrook Mall,-123.240791,49.261492
VAD10401,School of Population & Public Health,Vancouver,V6T 1Z3,BC,VBL10107,CampusBuilding,CampusMail,2206 East Mall,-123.248628,49.264066
VAD10474,Westpoint - Retail,Vancouver,V6T 0B4,BC,VBL10305,Commercial,CanadaPost,6011 Walter Gage Road,-123.250715,49.270054
VAD10616,AMS Nest,Vancouver,V6T 1Z1,BC,VBL10407,CampusBuilding,CampusMail,6133 University Boulevard,-123.24969,49.266226
VAD11211,SBME,Vancouver,V6T 1Z3,BC,VBL10444,CampusBuilding,,6088 University Boulevard,-123.247762,49.265801
VAD10889,Centre for Interactive Research on Sustainability,Vancouver,V6T 1Z4,BC,VBL10162,CampusBuilding,CampusMail,2260 West Mall,-123.253354,49.262063
VAD11106,UBC Life Building,Vancouver,V6T 1Z1,BC,VBL10248,CampusBuilding,CampusMail,6138 Student Union Boulevard,-123.249658,49.267765
VAD11094,UBC Aquatic Centre,Vancouver,V6T 1Z1,BC,VBL10071,CampusBuilding,CampusMail,6080 Student Union Boulevard,-123.249291,49.267857
VAD10708,Chemical and Biological Engineering Building,Vancouver,V6T 1Z3,BC,VBL10062,CampusBuilding,CampusMail,2360 East Mall,-123.247268,49.262297
VAD10888,Chan Gunn Pavilion,Vancouver,V6T 1Z3,BC,VBL10092,CampusBuilding,CampusMail,2553 Wesbrook Mall,-123.241364,49.260782
VAD11023,John Barfoot Macdonald Building,Vancouver,V6T 1Z3,BC,VBL10366,CampusBuilding,CampusMail,2199 Wesbrook Mall,-123.245305,49.265022
VAD11033,Djavad Mowafaghian Centre for Brain Health (CBH),Vancouver,V6T 1Z3,BC,VBL10103,OtherBuilding,CampusMail,2215 Wesbrook Mall,-123.24473,49.264412
VAD11076,Thunderbird Parkade,Vancouver,V6T 1Z3,BC,VBL10113,CampusBuilding,CampusMail,6085 Thunderbird Boulevard,-123.243443,49.261157
VAD11180,Brock Commons South,Vancouver,V6T 1K2,BC,VBL10424,CampusBuilding,CampusMail,6180 Walter Gage Road,-123.252623,49.269096
VAD11181,Brock Commons South - House,Vancouver,V6T 1K2,BC,VBL10424,Residential,CampusMail,6122 Walter Gage Road,-123.252009,49.2693
VAD10602,Totem Park Residence - Front Desk,Vancouver,V6T 1W9,BC,VBL10231,Complex,CampusMail,2525 West Mall,-123.252795,49.257903
VAD10103,Orchard Commons,Vancouver,V6T 1Z4,BC,VBL10013,CampusBuilding,CampusMail,6363 Agronomy Road,-123.250837,49.260109
VAD10230,HR MacMillan Building,Vancouver,V6T 1Z4,BC,VBL10060,CampusBuilding,CampusMail,2357 Main Mall,-123.250829,49.260867
VAD10281,Fred Kaiser Building,Vancouver,V6T 1Z4,BC,VBL10085,CampusBuilding,CampusMail,2332 Main Mall,-123.250168,49.262144
